"date","fog","rain","snow","snow_fall","mtd_snow","since_jul_snow","snow_depth","hail","thunder","tornado","mean_temp","mean_dewp","mean_pressure","mean_wind_spd","mean_wind_dir","mean_visib","humid","max_temp","min_temp","max_humid","min_humid","max_dew_pt","min_dew_pt","max_pressure","min_pressure","max_wind_spd","min_wind_spd","max_vis","min_vis","gdegree","heating_days","cooling_days","precip","precip_source","heating_day_normal","mtd_heating_degree","mtd_heating_degree_normal","since_sep_heating","since_sep_heating_normal","since_jul_heating","since_jul_heating_normal","cooling_degree_normal","mtd_cooling_day","mtd_cooling_day_normal","since_sep_cooling","since_sep_cooling_normal","since_jan_cooling","since_jan_cooling_normal"
2013-04-20 12:00:00,0,0,1,0,NA,NA,NA,0,0,0,38,21,30.23,10,318,10,NA,46,30,82,20,28,15,30.46,29.94,21,6,10,4,0,27,0,NA,"",13,398,335,NA,NA,5513,5658,1,0,2,NA,NA,0,3
2013-04-21 12:00:00,0,0,0,0,NA,NA,NA,0,0,0,44,22,30.46,10,143,10,NA,54,33,59,19,28,15,30.55,30.36,21,4,10,10,0,21,0,0,"",13,419,348,NA,NA,5534,5671,1,0,3,NA,NA,0,4
2013-04-22 12:00:00,0,0,0,0,NA,NA,NA,0,0,0,55,31,30.21,9,153,10,NA,67,42,58,18,35,28,30.35,30.05,16,7,10,10,4,10,0,0,"",13,429,361,NA,NA,5544,5684,1,0,4,NA,NA,0,5
2013-04-23 12:00:00,0,1,0,0,NA,NA,NA,0,0,0,49,43,29.94,10,280,7,NA,60,38,89,45,52,34,30.03,29.89,18,4,10,3,0,16,0,0.52,"",12,445,373,NA,NA,5560,5696,1,0,5,NA,NA,0,6
2013-04-24 12:00:00,0,1,0,0,NA,NA,NA,0,0,0,44,30,30.04,11,316,10,NA,51,37,89,28,35,24,30.15,29.93,20,7,10,10,0,21,0,0.01,"",12,466,385,NA,NA,5581,5708,1,0,6,NA,NA,0,7
2013-04-25 12:00:00,0,1,0,0,NA,NA,NA,0,0,0,46,30,30.19,11,247,10,NA,51,41,76,27,36,26,30.35,30.08,24,4,10,5,0,19,0,0.01,"",12,485,397,NA,NA,5600,5720,1,0,7,NA,NA,0,8
2013-04-26 12:00:00,0,0,0,0,NA,NA,NA,0,0,0,54,35,30.31,11,190,10,NA,68,40,64,28,43,26,30.37,30.25,22,5,10,10,2,11,0,0,"",11,496,408,NA,NA,5611,5731,1,0,8,NA,NA,0,9
2013-04-27 12:00:00,0,0,0,0,NA,NA,NA,0,0,0,57,40,30.17,7,120,10,NA,68,46,80,22,44,37,30.3,30,16,0,10,9,6,8,0,NA,"",11,504,419,NA,NA,5619,5742,1,0,9,NA,NA,0,10
2013-04-28 12:00:00,0,1,0,0,NA,NA,NA,0,0,0,58,50,29.9,6,64,8,NA,63,52,94,58,52,46,29.99,29.83,13,0,10,4,8,7,0,0.06,"",10,511,429,NA,NA,5626,5752,1,0,10,NA,NA,0,11
2013-04-29 12:00:00,0,0,0,0,NA,NA,NA,0,0,0,63,50,29.85,12,194,9,NA,74,52,89,33,52,48,29.92,29.78,20,5,10,5,13,2,0,0,"",10,513,439,NA,NA,5628,5762,1,0,11,NA,NA,0,12
2013-04-30 12:00:00,0,0,0,0,NA,NA,NA,0,0,0,73,54,29.83,15,189,10,NA,86,60,70,24,57,50,29.93,29.78,23,10,10,10,23,0,8,0,"",10,513,449,NA,NA,5628,5771,1,8,12,NA,NA,8,13
2013-05-01 12:00:00,0,0,0,0,NA,NA,NA,0,0,0,74,52,30.05,8,178,10,NA,85,63,73,17,56,47,30.11,29.94,20,5,10,10,24,0,9,0,"",10,0,10,NA,NA,5628,5781,1,9,1,NA,NA,17,14
2013-05-02 12:00:00,0,0,0,0,NA,NA,NA,0,0,0,57,39,30.18,16,19,10,NA,71,42,76,49,51,35,30.22,30.11,28,0,10,10,8,8,0,0,"",9,8,19,NA,NA,5636,5790,1,9,2,NA,NA,17,15
2013-05-03 12:00:00,0,1,0,0,NA,NA,NA,0,0,0,45,41,30.04,11,24,10,NA,50,40,89,76,45,35,30.15,29.96,22,5,10,7,0,20,0,0.02,"",9,28,28,NA,NA,5656,5799,1,9,3,NA,NA,17,16
2013-05-04 12:00:00,0,0,0,0,NA,NA,NA,0,0,0,61,45,29.98,8,51,10,NA,72,49,86,30,48,41,30.04,29.95,21,0,10,10,10,4,0,NA,"",9,32,37,NA,NA,5660,5808,1,9,4,NA,NA,17,17
2013-05-05 12:00:00,0,0,0,0,NA,NA,NA,0,0,0,60,41,30,9,16,10,NA,70,49,71,29,44,38,30.03,29.97,20,0,10,10,8,5,0,0,"",8,37,45,NA,NA,5665,5816,1,9,5,NA,NA,17,18
2013-05-06 12:00:00,0,0,0,0,NA,NA,NA,0,0,0,61,37,30,8,16,10,NA,70,51,55,18,40,30,30.03,29.97,16,0,10,10,12,4,0,0,"",8,41,53,NA,NA,5669,5824,1,9,6,NA,NA,17,19
2013-05-07 12:00:00,0,0,0,0,NA,NA,NA,0,0,0,63,39,30.01,6,35,10,NA,76,49,66,19,43,34,30.05,29.98,13,0,10,10,12,2,0,0,"",8,43,61,NA,NA,5671,5832,1,9,7,NA,NA,17,20
2013-05-08 12:00:00,0,0,0,0,NA,NA,NA,0,0,0,64,43,29.99,4,85,10,NA,77,51,74,23,47,36,30.03,29.96,14,0,10,10,13,1,0,0,"",8,44,69,NA,NA,5672,5840,1,9,8,NA,NA,17,21
2013-05-09 12:00:00,0,1,0,0,NA,NA,NA,0,0,0,63,49,29.9,6,79,8,NA,76,50,94,35,59,37,29.96,29.83,20,0,10,2,14,2,0,0.63,"",8,46,77,NA,NA,5674,5848,1,9,9,NA,NA,17,22
2013-05-10 12:00:00,0,1,0,0,NA,NA,NA,0,0,0,47,42,29.89,11,348,7,NA,50,44,93,69,47,37,30,29.78,22,4,10,2,0,18,0,0.04,"",7,64,84,NA,NA,5692,5855,1,9,10,NA,NA,17,23
2013-05-11 12:00:00,0,0,0,0,NA,NA,NA,0,0,0,53,37,29.93,11,273,9,NA,62,44,86,24,47,23,30.05,29.84,30,4,10,5,4,12,0,0,"",7,76,91,NA,NA,5704,5862,1,9,11,NA,NA,17,24
2013-05-12 12:00:00,0,0,0,0,NA,NA,NA,0,0,0,47,27,30.1,10,315,10,NA,55,38,63,18,33,23,30.13,30.05,21,0,10,10,0,18,0,0,"",7,94,98,NA,NA,5722,5869,2,9,13,NA,NA,17,26
2013-05-13 12:00:00,0,0,0,0,NA,NA,NA,0,0,0,50,31,30.12,6,81,10,NA,61,38,76,25,36,23,30.19,30.01,20,0,10,10,0,15,0,0,"",7,109,105,NA,NA,5737,5876,2,9,15,NA,NA,17,28
2013-05-14 12:00:00,0,0,0,0,NA,NA,NA,0,0,0,74,46,29.77,12,208,10,NA,90,57,52,17,56,32,29.98,29.64,22,6,10,10,24,0,9,0,"",6,109,111,NA,NA,5737,5882,2,18,17,NA,NA,26,30
2013-05-15 12:00:00,0,0,0,0,NA,NA,NA,0,0,0,73,48,29.75,10,222,10,NA,83,62,54,24,56,43,29.82,29.61,23,0,10,10,24,0,8,NA,"",6,109,117,NA,NA,5737,5888,2,26,19,NA,NA,34,32
2013-05-16 12:00:00,0,0,0,0,NA,NA,NA,0,0,0,69,43,29.9,5,65,10,NA,81,57,69,13,51,37,29.96,29.81,14,0,10,10,20,0,4,0,"",6,109,123,NA,NA,5737,5894,2,30,21,NA,NA,38,34
2013-05-17 12:00:00,0,0,0,0,NA,NA,NA,0,0,0,66,46,30,6,63,10,NA,73,58,62,34,55,38,30.04,29.94,16,0,10,10,16,0,1,NA,"",6,109,129,NA,NA,5737,5900,2,31,23,NA,NA,39,36
2013-05-18 12:00:00,0,0,0,0,NA,NA,NA,0,0,0,69,56,30,7,102,9,NA,79,59,87,43,59,51,30.06,29.94,14,0,10,6,18,0,4,0,"",6,109,135,NA,NA,5737,5906,2,35,25,NA,NA,43,38
2013-05-19 12:00:00,0,0,0,0,NA,NA,NA,0,0,0,75,60,29.86,8,145,9,NA,87,62,81,31,63,55,29.94,29.74,20,0,10,6,24,0,10,0,"",5,109,140,NA,NA,5737,5911,2,45,27,NA,NA,53,40
2013-05-20 12:00:00,0,0,0,0,NA,NA,NA,0,0,0,83,58,29.79,13,188,13,NA,91,75,73,23,66,48,29.83,29.74,26,9,15,10,33,0,18,0,"",NA,NA,NA,NA,NA,NA,NA,NA,NA,NA,NA,NA,NA,NA
2013-05-21 12:00:00,0,1,0,0,NA,NA,NA,0,1,0,74,61,29.69,13,195,9,NA,82,65,94,39,65,59,29.78,29.64,23,4,10,3,22,0,9,0.2,"",5,109,150,NA,NA,5737,5921,2,68,31,NA,NA,76,44
2013-05-22 12:00:00,1,1,0,0,NA,NA,NA,0,0,0,65,61,29.66,9,223,8,NA,73,56,94,49,65,53,29.74,29.61,21,0,10,0,18,0,0,0.65,"",5,109,155,NA,NA,5737,5926,2,68,33,NA,NA,76,46
2013-05-23 12:00:00,0,1,0,0,0,30.1,0,0,0,0,48,43,30.02,15,22,8,NA,54,42,100,60,52,34,30.29,29.76,28,7,10,2,0,17,0,0.06,"",6,147,188,NA,NA,6085,6255,2,51,26,NA,NA,59,36
2013-05-24 12:00:00,0,0,0,0,NA,NA,NA,0,0,0,50,32,30.38,9,34,10,NA,57,42,70,31,34,30,30.45,30.31,21,0,10,10,0,15,0,0,"",4,139,164,NA,NA,5767,5935,3,68,39,NA,NA,76,52
2013-05-25 12:00:00,0,0,0,0,NA,NA,NA,0,0,0,52,36,30.35,4,53,10,NA,57,46,63,43,40,32,30.41,30.31,12,0,10,10,2,13,0,0,"",4,152,168,NA,NA,5780,5939,3,68,42,NA,NA,76,55
2013-05-26 12:00:00,0,1,0,0,NA,NA,NA,0,0,0,57,43,30.24,6,86,10,NA,67,46,71,39,48,33,30.31,30.14,15,0,10,10,6,8,0,NA,"",4,160,172,NA,NA,5788,5943,3,68,45,NA,NA,76,58
2013-05-27 12:00:00,0,1,0,0,NA,NA,NA,0,0,0,60,56,29.98,11,123,8,NA,64,57,94,72,59,48,30.07,29.86,15,0,10,3,10,4,0,0,"",NA,NA,NA,NA,NA,NA,NA,NA,NA,NA,NA,NA,NA,NA
2013-05-28 12:00:00,0,1,0,0,NA,NA,NA,0,1,0,68,63,29.79,10,196,8,NA,76,59,94,69,68,57,29.87,29.74,25,4,10,1,17,0,3,2.2,"",3,164,179,NA,NA,5792,5950,3,71,51,NA,NA,79,64
2013-05-29 12:00:00,0,1,0,0,NA,NA,NA,0,0,0,75,63,29.87,9,200,10,NA,85,65,87,47,66,58,29.95,29.79,16,4,10,10,24,0,10,0.02,"",3,164,182,NA,NA,5792,5953,3,81,54,NA,NA,89,67
2013-05-30 12:00:00,0,1,0,0,NA,NA,NA,0,1,0,75,64,29.86,14,187,10,NA,84,65,88,49,68,58,29.93,29.78,26,5,10,4,23,0,10,0.09,"",3,164,185,NA,NA,5792,5956,3,91,57,NA,NA,99,70
2013-05-31 12:00:00,0,1,0,0,NA,NA,NA,0,0,0,72,64,29.8,13,192,9,NA,78,65,94,53,68,60,29.87,29.71,21,6,10,2,21,0,7,0.23,"",3,164,188,NA,NA,5792,5959,4,98,61,NA,NA,106,74
2013-06-01 12:00:00,0,1,0,0,NA,NA,NA,0,1,0,70,61,29.7,12,208,10,NA,76,63,88,57,66,59,29.75,29.67,23,5,10,1,20,0,5,0.44,"",3,0,3,NA,NA,5792,5962,4,5,4,NA,NA,111,78
2013-06-02 12:00:00,0,1,0,0,NA,NA,NA,0,0,0,55,49,29.92,8,35,8,NA,63,47,90,62,58,41,30.06,29.71,20,4,10,2,6,10,0,0.01,"",3,10,6,NA,NA,5802,5965,4,5,8,NA,NA,111,82
2013-06-03 12:00:00,0,0,0,0,NA,NA,NA,0,0,0,56,39,30.08,4,106,10,NA,68,43,93,20,44,33,30.12,30.05,16,0,10,10,5,9,0,0,"",2,19,8,NA,NA,5811,5967,NA,5,8,NA,NA,111,82
2013-06-04 12:00:00,0,0,0,0,NA,NA,NA,0,0,0,61,44,30.12,7,81,10,NA,72,50,80,31,47,39,30.17,30.1,17,0,10,10,11,4,0,0,"",2,23,10,NA,NA,5815,5969,4,5,12,NA,NA,111,86
2013-06-05 12:00:00,0,1,0,0,NA,NA,NA,0,0,0,66,46,30.01,8,49,10,NA,76,56,72,29,50,43,30.1,29.93,16,4,10,10,14,0,1,NA,"",2,23,12,NA,NA,5815,5971,5,6,17,NA,NA,112,91
2013-06-06 12:00:00,0,1,0,0,NA,NA,NA,0,0,0,60,48,29.9,10,32,10,NA,65,54,81,43,53,44,29.92,29.87,16,6,10,10,10,5,0,0.06,"",2,28,14,NA,NA,5820,5973,5,6,22,NA,NA,112,96
2013-06-07 12:00:00,0,0,0,0,NA,NA,NA,0,0,0,61,44,29.92,9,17,10,NA,68,54,77,24,49,34,29.94,29.9,17,0,10,10,11,4,0,0,"",2,32,16,NA,NA,5824,5975,5,6,27,NA,NA,112,101
2013-06-08 12:00:00,0,0,0,0,NA,NA,NA,0,0,0,62,41,29.96,6,60,10,NA,74,50,71,21,48,38,30.01,29.91,14,0,10,10,12,3,0,0,"",1,35,17,NA,NA,5827,5976,5,6,32,NA,NA,112,106
2013-06-09 12:00:00,0,1,0,0,NA,NA,NA,0,0,0,71,53,29.9,8,138,10,NA,83,58,75,29,59,49,30,29.79,20,0,10,10,20,0,6,0.01,"",1,35,18,NA,NA,5827,5977,5,12,37,NA,NA,118,111
2013-06-10 12:00:00,1,1,0,0,NA,NA,NA,0,1,0,68,62,29.77,4,65,7,NA,75,61,94,64,64,58,29.86,29.73,10,0,10,1,18,0,3,0.85,"",1,35,19,NA,NA,5827,5978,6,15,43,NA,NA,121,117
2013-06-11 12:00:00,1,1,0,0,NA,NA,NA,0,1,0,72,60,29.86,4,228,6,NA,84,60,96,35,65,57,29.91,29.79,14,0,10,0,21,0,7,0.24,"",1,35,20,NA,NA,5827,5979,6,22,49,NA,NA,128,123
2013-06-12 12:00:00,0,1,0,0,NA,NA,NA,0,1,0,76,64,29.74,6,61,8,NA,87,64,88,53,71,59,29.9,29.58,24,0,10,2,26,0,11,0.25,"",1,35,21,NA,NA,5827,5980,6,33,55,NA,NA,139,129
2013-06-13 12:00:00,0,0,0,0,NA,NA,NA,0,0,0,66,54,29.86,13,8,10,NA,72,59,94,38,61,49,30.04,29.64,21,5,10,5,16,0,1,0,"",1,35,22,NA,NA,5827,5981,6,34,61,NA,NA,140,135
2013-06-14 12:00:00,0,0,0,0,NA,NA,NA,0,0,0,67,50,30.06,8,53,10,NA,76,57,72,27,55,46,30.12,30.03,16,4,10,10,16,0,2,0,"",1,35,23,NA,NA,5827,5982,7,36,68,NA,NA,142,142
2013-06-15 12:00:00,0,1,0,0,NA,NA,NA,0,1,0,71,60,29.95,7,196,10,NA,81,61,81,48,67,51,30.04,29.85,23,0,10,5,21,0,6,0.12,"",1,35,24,NA,NA,5827,5983,7,42,75,NA,NA,148,149
2013-06-16 12:00:00,0,0,0,0,NA,NA,NA,0,0,0,76,63,29.87,10,238,10,NA,83,69,81,41,65,60,29.91,29.84,22,0,10,10,26,0,11,0,"",1,35,25,NA,NA,5827,5984,7,53,82,NA,NA,159,156
2013-06-17 12:00:00,0,1,0,0,NA,NA,NA,0,1,0,75,57,29.88,8,254,10,NA,88,62,78,22,62,50,29.91,29.82,25,0,10,10,25,0,10,0.1,"",1,35,26,NA,NA,5827,5985,7,63,89,NA,NA,169,163
2013-06-18 12:00:00,0,1,0,0,NA,NA,NA,0,0,0,64,52,29.99,12,17,8,NA,70,57,94,47,56,45,30.06,29.9,21,6,10,1,13,1,0,0.01,"",1,36,27,NA,NA,5828,5986,8,63,97,NA,NA,169,171
2013-06-19 12:00:00,0,0,0,0,NA,NA,NA,0,0,0,66,45,30.1,7,63,10,NA,75,57,72,19,52,36,30.14,30.06,14,4,10,10,16,0,1,0,"",1,36,28,NA,NA,5828,5987,8,64,105,NA,NA,170,179
2013-06-20 12:00:00,0,0,0,0,NA,NA,NA,0,0,0,74,57,30.1,7,107,10,NA,86,62,72,34,63,47,30.14,30.05,16,0,10,10,24,0,9,0,"",1,36,29,NA,NA,5828,5988,8,73,113,NA,NA,179,187
2013-06-21 12:00:00,0,1,0,0,NA,NA,NA,0,1,0,78,63,30.06,10,197,10,NA,85,70,88,45,66,59,30.17,29.87,30,4,10,8,26,0,13,0.11,"",0,36,29,NA,NA,5828,5988,8,86,121,NA,NA,192,195
2013-06-22 12:00:00,0,0,0,0,NA,NA,NA,0,0,0,77,65,30,8,202,10,NA,83,70,81,56,69,63,30.07,29.94,17,0,10,9,26,0,12,0,"",0,36,29,NA,NA,5828,5988,9,98,130,NA,NA,204,204
2013-06-23 12:00:00,0,1,0,0,NA,NA,NA,0,1,0,79,66,29.98,10,200,10,NA,89,69,84,40,70,63,30.03,29.92,24,4,10,10,28,0,14,NA,"",0,36,29,NA,NA,5828,5988,9,112,139,NA,NA,218,213
2013-06-24 12:00:00,0,1,0,0,NA,NA,NA,0,1,0,77,66,29.97,11,216,8,NA,86,68,88,47,70,61,30.04,29.86,47,7,10,1,26,0,12,0.14,"",0,36,29,NA,NA,5828,5988,9,124,148,NA,NA,230,222
2013-06-25 12:00:00,0,1,0,0,NA,NA,NA,0,1,0,79,67,29.87,9,198,10,NA,87,70,84,42,72,60,29.95,29.79,21,0,10,6,28,0,14,NA,"",0,36,29,NA,NA,5828,5988,9,138,157,NA,NA,244,231
2013-06-26 12:00:00,0,1,0,0,NA,NA,NA,0,1,0,75,65,29.76,9,131,10,NA,81,68,90,53,67,62,29.85,29.7,22,4,10,8,24,0,10,0.19,"",0,36,29,NA,NA,5828,5988,9,148,166,NA,NA,254,240
2013-06-27 12:00:00,1,1,0,0,NA,NA,NA,0,1,0,79,65,29.72,6,309,8,NA,91,66,90,31,69,61,29.76,29.66,17,0,10,0,28,0,14,0.59,"",0,36,29,NA,NA,5828,5988,10,162,176,NA,NA,268,250
2013-06-28 12:00:00,0,1,0,0,NA,NA,NA,0,1,0,76,60,29.62,10,292,10,NA,83,68,81,38,64,55,29.67,29.58,32,4,10,2,26,0,11,0.16,"",0,36,29,NA,NA,5828,5988,10,173,186,NA,NA,279,260
2013-06-29 12:00:00,0,1,0,0,NA,NA,NA,0,0,0,68,59,29.65,12,6,9,NA,72,64,88,59,62,52,29.75,29.57,22,6,10,7,18,0,3,NA,"",0,36,29,NA,NA,5828,5988,10,176,196,NA,NA,282,270
2013-06-30 12:00:00,0,0,0,0,NA,NA,NA,0,0,0,70,53,29.87,14,8,10,NA,76,64,80,31,59,40,29.96,29.75,26,8,10,10,20,0,5,0,"",0,36,29,NA,NA,5828,5990,10,181,210,NA,NA,287,284
2013-07-01 12:00:00,0,0,0,0,NA,NA,NA,0,0,0,68,50,30.01,14,21,10,NA,75,61,72,30,54,47,30.04,29.96,26,7,10,10,18,0,3,0,"",0,0,0,NA,NA,0,0,10,3,10,NA,NA,290,294
2013-07-02 12:00:00,0,1,0,0,NA,NA,NA,0,0,0,65,53,30.05,12,30,10,NA,68,62,86,45,58,49,30.08,30.02,18,6,10,10,14,0,0,NA,"",0,0,0,NA,NA,0,0,10,3,20,NA,NA,290,304
2013-07-03 12:00:00,0,1,0,0,NA,NA,NA,0,1,0,68,60,30.04,4,23,9,NA,74,62,87,68,64,57,30.07,30.01,12,0,10,7,16,0,3,0.07,"",0,0,0,NA,NA,0,0,11,6,31,NA,NA,293,315
2013-07-04 12:00:00,0,0,0,0,NA,NA,NA,0,0,0,72,59,30.06,8,189,8,NA,83,61,90,39,61,57,30.09,30.03,17,4,10,5,22,0,7,0,"",0,0,0,NA,NA,0,0,11,13,42,NA,NA,300,326
2013-07-05 12:00:00,0,0,0,0,NA,NA,NA,0,0,0,75,59,30.04,6,198,9,NA,87,63,81,27,64,55,30.08,29.99,14,0,10,7,25,0,10,0,"",0,0,0,NA,NA,0,0,11,23,53,NA,NA,310,337
2013-07-06 12:00:00,0,0,0,0,NA,NA,NA,0,0,0,77,63,30.01,6,189,10,NA,82,71,78,46,65,62,30.05,29.96,12,0,10,10,26,0,12,0,"",0,0,0,NA,NA,0,0,11,35,64,NA,NA,322,348
2013-07-07 12:00:00,0,0,0,0,NA,NA,NA,0,0,0,80,66,29.97,8,207,10,NA,89,70,84,38,69,64,30,29.93,15,6,10,10,29,0,15,0,"",0,0,0,NA,NA,0,0,11,50,75,NA,NA,337,359
2013-07-08 12:00:00,0,1,0,0,NA,NA,NA,0,1,0,79,69,29.97,11,216,8,NA,87,71,94,50,73,66,30.04,29.9,22,0,10,1,29,0,14,0.84,"",0,0,0,NA,NA,0,0,11,64,86,NA,NA,351,370
2013-07-09 12:00:00,0,1,0,0,NA,NA,NA,0,0,0,80,72,29.92,9,233,9,NA,85,75,87,65,75,69,29.97,29.83,25,4,10,5,30,0,15,0.01,"",0,0,0,NA,NA,0,0,11,79,97,NA,NA,366,381
2013-07-10 12:00:00,0,0,0,0,NA,NA,NA,0,0,0,77,65,29.88,8,14,10,NA,87,66,88,47,74,55,30.02,29.81,17,4,10,7,26,0,12,0,"",0,0,0,NA,NA,0,0,11,91,108,NA,NA,378,392
2013-07-11 12:00:00,0,0,0,0,NA,NA,NA,0,0,0,72,52,30.05,8,19,10,NA,80,63,80,23,60,42,30.09,29.99,17,0,10,10,22,0,7,0,"",0,0,0,NA,NA,0,0,11,98,119,NA,NA,385,403
2013-07-12 12:00:00,0,0,0,0,NA,NA,NA,0,0,0,71,53,30.1,5,67,10,NA,82,60,78,27,61,50,30.13,30.07,14,0,10,10,21,0,6,0,"",0,0,0,NA,NA,0,0,11,104,130,NA,NA,391,414
2013-07-13 12:00:00,0,0,0,0,NA,NA,NA,0,0,0,75,58,30.12,7,98,10,NA,83,67,75,35,63,54,30.14,30.09,16,0,10,10,24,0,10,0,"",0,0,0,NA,NA,0,0,11,114,141,NA,NA,401,425
2013-07-14 12:00:00,0,0,0,0,NA,NA,NA,0,0,0,81,66,30.16,9,81,10,NA,88,73,76,40,67,65,30.19,30.12,16,0,10,10,30,0,16,0,"",0,0,0,NA,NA,0,0,11,130,152,NA,NA,417,436
2013-07-15 12:00:00,0,1,0,0,NA,NA,NA,0,0,0,83,71,30.21,6,76,10,NA,91,75,84,46,74,67,30.23,30.19,16,0,10,7,32,0,18,0.02,"",0,0,0,NA,NA,0,0,11,148,163,NA,NA,435,447
2013-07-16 12:00:00,0,0,0,0,NA,NA,NA,0,0,0,85,71,30.25,7,216,10,NA,93,77,82,39,72,69,30.29,30.21,14,4,10,10,34,0,20,0.01,"",0,0,0,NA,NA,0,0,11,168,174,NA,NA,455,458
2013-07-17 12:00:00,0,0,0,0,NA,NA,NA,0,0,0,86,69,30.22,7,247,10,NA,95,77,76,34,72,67,30.29,30.14,17,4,10,10,36,0,21,0,"",0,0,0,NA,NA,0,0,11,189,185,NA,NA,476,469
2013-07-18 12:00:00,0,0,0,0,NA,NA,NA,0,1,0,88,71,30.04,9,233,10,NA,96,79,79,32,73,68,30.14,29.93,22,4,10,10,37,0,23,0,"",0,0,0,NA,NA,0,0,11,212,196,NA,NA,499,480
2013-07-19 12:00:00,0,0,0,0,NA,NA,NA,0,1,0,86,69,29.82,14,241,10,NA,97,75,83,29,73,64,29.92,29.73,30,6,10,8,36,0,21,0,"",0,0,0,NA,NA,0,0,11,233,207,NA,NA,520,491
2013-07-20 12:00:00,0,1,0,0,NA,NA,NA,0,0,0,80,64,29.85,7,9,10,NA,88,72,88,30,70,58,29.96,29.77,15,0,10,10,30,0,15,0.01,"",0,0,0,NA,NA,0,0,11,248,218,NA,NA,535,502
2013-07-21 12:00:00,0,0,0,0,NA,NA,NA,0,0,0,81,63,29.89,8,104,10,NA,89,72,79,30,67,58,29.94,29.82,23,0,10,10,30,0,16,0,"",0,0,0,NA,NA,0,0,11,264,229,NA,NA,551,513
2013-07-22 12:00:00,0,0,0,0,NA,NA,NA,0,0,0,81,64,29.78,7,186,10,NA,90,72,79,29,67,59,29.85,29.71,28,0,10,10,30,0,16,NA,"",0,0,0,NA,NA,0,0,11,280,240,NA,NA,567,524
2013-07-23 12:00:00,0,1,0,0,NA,NA,NA,0,1,0,73,59,29.8,11,338,10,NA,80,65,78,43,63,53,29.96,29.66,23,6,10,5,23,0,8,0,"",0,0,0,NA,NA,0,0,11,288,251,NA,NA,575,535
2013-07-24 12:00:00,0,0,0,0,NA,NA,NA,0,0,0,68,48,30.02,11,49,10,NA,73,62,63,31,52,46,30.05,29.95,20,0,10,10,17,0,3,0,"",0,0,0,NA,NA,0,0,11,291,262,NA,NA,578,546
2013-07-25 12:00:00,0,0,0,0,NA,NA,NA,0,0,0,70,51,30.05,4,247,10,NA,81,58,78,27,55,48,30.09,30.02,13,0,10,10,18,0,5,0,"",0,0,0,NA,NA,0,0,11,296,273,NA,NA,583,557
2013-07-26 12:00:00,0,1,0,0,NA,NA,NA,0,0,0,70,58,29.94,10,205,10,NA,74,65,84,49,64,53,30.01,29.87,20,7,10,10,20,0,5,0.01,"",0,0,0,NA,NA,0,0,11,301,284,NA,NA,588,568
2013-07-27 12:00:00,0,0,0,0,NA,NA,NA,0,0,0,63,51,29.89,11,304,10,NA,68,57,83,47,57,43,29.91,29.85,20,6,10,10,13,2,0,0,"",0,2,0,NA,NA,2,0,11,301,295,NA,NA,588,579
2013-07-28 12:00:00,0,1,0,0,NA,NA,NA,0,0,0,63,46,29.94,10,263,10,NA,71,55,80,27,49,43,30.02,29.88,20,6,10,10,13,2,0,NA,"",0,4,0,NA,NA,4,0,11,301,306,NA,NA,588,590
2013-07-29 12:00:00,0,0,0,0,NA,NA,NA,0,0,0,67,53,30.11,8,351,10,NA,76,58,78,42,57,49,30.17,30.02,14,4,10,10,16,0,2,0,"",0,4,0,NA,NA,4,0,11,303,317,NA,NA,590,601
2013-07-30 12:00:00,0,1,0,0,NA,NA,NA,0,0,0,68,56,30.13,6,152,10,NA,74,61,78,45,60,51,30.17,30.06,13,0,10,10,17,0,3,NA,"",0,4,0,NA,NA,4,0,11,306,328,NA,NA,593,612
2013-07-31 12:00:00,0,1,0,0,NA,NA,NA,0,1,0,70,63,30,4,290,6,NA,75,64,94,65,65,58,30.06,29.94,21,0,10,1,18,0,5,0.18,"",0,4,0,NA,NA,4,1,10,311,338,NA,NA,598,622
2013-08-01 12:00:00,0,0,0,0,NA,NA,NA,0,0,0,72,55,29.95,7,277,10,NA,82,61,90,29,62,48,29.97,29.93,22,0,10,8,22,0,7,0,"",0,0,0,NA,NA,4,1,10,7,10,NA,NA,605,632
2013-08-02 12:00:00,0,1,0,0,NA,NA,NA,0,1,0,76,61,29.88,8,197,10,NA,86,65,88,48,68,53,29.92,29.83,18,0,10,2,23,0,11,0.41,"",0,0,0,NA,NA,4,1,10,18,20,NA,NA,616,642
2013-08-03 12:00:00,0,0,0,0,NA,NA,NA,0,0,0,73,54,30.01,8,35,10,NA,79,66,73,24,62,48,30.09,29.92,18,0,10,10,22,0,8,0,"",0,0,0,NA,NA,4,1,10,26,30,NA,NA,624,652
2013-08-04 12:00:00,0,1,0,0,NA,NA,NA,0,0,0,67,55,30.14,7,71,10,NA,74,60,78,43,59,53,30.19,30.1,16,0,10,10,18,0,2,NA,"",0,0,0,NA,NA,4,1,10,28,40,NA,NA,626,662
2013-08-05 12:00:00,0,1,0,0,NA,NA,NA,0,0,0,70,56,29.99,8,170,10,NA,76,63,73,49,61,47,30.11,29.88,20,4,10,10,19,0,5,0.02,"",0,0,0,NA,NA,4,1,10,33,50,NA,NA,631,672
2013-08-06 12:00:00,0,0,0,0,NA,NA,NA,0,0,0,77,65,29.86,9,214,10,NA,85,68,84,47,68,61,29.91,29.81,17,4,10,9,26,0,12,0,"",0,0,0,NA,NA,4,1,10,45,60,NA,NA,643,682
2013-08-07 12:00:00,0,0,0,0,NA,NA,NA,0,0,0,81,68,29.82,11,274,10,NA,91,70,87,42,72,59,29.92,29.77,22,6,10,6,32,0,16,0.01,"",0,0,0,NA,NA,4,1,10,61,70,NA,NA,659,692
2013-08-08 12:00:00,0,0,0,0,NA,NA,NA,0,0,0,74,55,29.97,11,46,10,NA,79,69,78,27,63,49,30.01,29.93,20,5,10,10,24,0,9,0,"",0,0,0,NA,NA,4,1,10,70,80,NA,NA,668,702
2013-08-09 12:00:00,0,0,0,0,NA,NA,NA,0,0,0,73,57,29.98,6,277,10,NA,84,62,75,31,64,51,30.01,29.95,15,0,10,10,22,0,8,0,"",0,0,0,NA,NA,4,1,10,78,90,NA,NA,676,712
2013-08-10 12:00:00,0,0,0,0,NA,NA,NA,0,0,0,75,56,30.07,7,50,10,NA,81,68,84,27,64,50,30.11,30.02,16,4,10,10,24,0,10,0,"",0,0,0,NA,NA,4,1,10,88,100,NA,NA,686,722
2013-08-11 12:00:00,0,0,0,0,NA,NA,NA,0,0,0,74,57,30.07,5,248,10,NA,84,63,75,29,61,52,30.12,30.01,16,0,10,10,24,0,9,NA,"",0,0,0,NA,NA,4,1,10,97,110,NA,NA,695,732
2013-08-12 12:00:00,0,1,0,0,NA,NA,NA,0,0,0,77,63,29.93,8,271,8,NA,85,69,87,44,68,59,30.02,29.86,24,0,10,1,28,0,12,0.66,"",0,0,0,NA,NA,4,1,10,109,120,NA,NA,707,742
2013-08-13 12:00:00,0,0,0,0,NA,NA,NA,0,0,0,67,51,30.04,12,16,10,NA,71,62,87,36,65,41,30.14,29.91,21,6,10,6,16,0,2,0,"",0,0,0,NA,NA,4,1,10,111,130,NA,NA,709,752
2013-08-14 12:00:00,0,0,0,0,NA,NA,NA,0,0,0,65,48,30.17,7,29,10,NA,71,58,75,31,51,44,30.21,30.14,15,4,10,10,14,0,0,0,"",0,0,0,NA,NA,4,1,10,111,140,NA,NA,709,762
2013-08-15 12:00:00,0,0,0,0,NA,NA,NA,0,0,0,66,50,30.14,5,215,10,NA,74,57,72,42,52,47,30.17,30.1,14,0,10,10,15,0,1,0,"",0,0,0,NA,NA,4,1,10,112,150,NA,NA,710,772
2013-08-16 12:00:00,0,0,0,0,NA,NA,NA,0,0,0,70,51,30.14,6,62,10,NA,82,58,78,20,58,47,30.18,30.12,16,0,10,10,20,0,5,0,"",0,0,0,NA,NA,4,1,9,117,159,NA,NA,715,781
2013-08-17 12:00:00,0,0,0,0,NA,NA,NA,0,0,0,70,55,30.19,6,75,10,NA,79,60,84,28,61,49,30.24,30.16,16,0,10,9,20,0,5,0,"",0,0,0,NA,NA,4,1,9,122,168,NA,NA,720,790
2013-08-18 12:00:00,0,0,0,0,NA,NA,NA,0,0,0,72,57,30.14,5,85,10,NA,81,62,87,29,61,54,30.19,30.09,13,0,10,7,22,0,7,0,"",0,0,0,NA,NA,4,1,9,129,177,NA,NA,727,799
2013-08-19 12:00:00,0,0,0,0,NA,NA,NA,0,0,0,75,58,30.07,5,254,10,NA,86,63,84,29,61,56,30.11,30.01,15,0,10,6,24,0,10,0,"",0,0,0,NA,NA,4,1,9,139,186,NA,NA,737,808
2013-08-20 12:00:00,0,0,0,0,NA,NA,NA,0,0,0,78,61,30.05,8,210,10,NA,88,68,78,26,63,56,30.1,30.01,16,4,10,8,28,0,13,0,"",0,0,0,NA,NA,4,1,9,152,195,NA,NA,750,817
2013-08-21 12:00:00,0,1,0,0,NA,NA,NA,0,1,0,81,64,30.02,9,214,9,NA,91,70,81,28,69,61,30.07,29.95,17,4,10,5,30,0,16,0.05,"",0,0,0,NA,NA,4,1,9,168,204,NA,NA,766,826
2013-08-22 12:00:00,0,1,0,0,NA,NA,NA,0,0,0,73,66,30.05,7,252,10,NA,78,67,90,71,68,63,30.15,29.99,24,0,10,7,24,0,8,0.36,"",0,0,0,NA,NA,4,1,9,176,213,NA,NA,774,835
2013-08-23 12:00:00,0,0,0,0,NA,NA,NA,0,0,0,73,56,30.13,8,47,9,NA,81,64,93,20,63,45,30.16,30.09,16,0,10,4,22,0,8,0,"",0,0,0,NA,NA,4,1,9,184,222,NA,NA,782,844
2013-08-24 12:00:00,0,0,0,0,NA,NA,NA,0,0,0,75,57,30.2,6,150,10,NA,86,64,81,26,61,52,30.25,30.17,13,0,10,10,25,0,10,0,"",0,0,0,NA,NA,4,1,9,194,231,NA,NA,792,853
2013-08-25 12:00:00,0,0,0,0,NA,NA,NA,0,0,0,79,59,30.18,10,208,10,NA,89,68,62,33,65,52,30.24,30.12,18,5,10,10,28,0,14,0,"",0,0,0,NA,NA,4,1,9,208,240,NA,NA,806,862
2013-08-26 12:00:00,0,0,0,0,NA,NA,NA,0,0,0,81,66,30.06,10,225,10,NA,92,70,76,47,70,61,30.14,29.99,20,6,10,9,30,0,16,0,"",0,0,0,NA,NA,4,1,8,224,248,NA,NA,822,870
2013-08-27 12:00:00,0,0,0,0,NA,NA,NA,0,0,0,87,69,29.9,13,235,10,NA,96,77,76,30,70,65,29.97,29.81,22,7,10,10,36,0,22,0,"",0,0,0,NA,NA,4,1,8,246,256,NA,NA,844,878
2013-08-28 12:00:00,0,0,0,0,NA,NA,NA,0,0,0,77,67,29.93,9,2,10,NA,83,71,90,47,70,63,30.04,29.81,20,4,10,5,28,0,12,0,"",0,0,0,NA,NA,4,1,8,258,264,NA,NA,856,886
2013-08-29 12:00:00,1,0,0,0,NA,NA,NA,0,0,0,78,65,30.03,5,99,6,NA,87,69,94,38,68,57,30.09,29.96,12,0,10,0,28,0,13,0,"",0,0,0,NA,NA,4,1,8,271,272,NA,NA,869,894
2013-08-30 12:00:00,0,1,0,0,NA,NA,NA,0,1,0,83,67,29.85,8,244,9,NA,96,69,81,41,71,63,29.96,29.73,44,0,10,1,34,0,18,0.47,"",0,0,0,NA,NA,4,1,7,289,279,NA,NA,887,901
2013-08-31 12:00:00,1,1,0,0,NA,NA,NA,1,1,0,74,66,29.82,7,40,9,NA,77,70,100,66,70,64,29.89,29.77,16,0,10,0,22,0,9,0.96,"",0,0,0,NA,NA,4,5,7,298,288,NA,NA,896,910
2013-09-01 12:00:00,0,1,0,0,NA,NA,NA,0,1,0,76,66,29.76,6,272,10,NA,84,68,90,45,70,64,29.8,29.71,15,0,10,10,26,0,11,0.02,"",1,0,1,0,1,4,6,7,11,7,11,7,907,917
2013-09-02 12:00:00,0,0,0,0,NA,NA,NA,0,0,0,70,59,29.9,9,22,10,NA,77,62,84,57,63,53,29.98,29.78,16,5,10,10,22,0,5,0,"",1,0,2,0,2,4,7,7,16,14,16,14,912,924
2013-09-03 12:00:00,0,0,0,0,NA,NA,NA,0,0,0,67,53,30.02,5,334,10,NA,76,58,75,43,57,51,30.07,29.97,12,0,10,10,17,0,2,0,"",1,0,3,0,3,4,8,7,18,21,18,21,914,931
2013-09-04 12:00:00,0,0,0,0,NA,NA,NA,0,0,0,72,55,30.08,7,250,10,NA,84,59,83,37,58,53,30.12,30.04,15,0,10,9,21,0,7,0,"",1,0,4,0,4,4,9,7,25,28,25,28,921,938
2013-09-05 12:00:00,0,0,0,0,NA,NA,NA,0,0,0,70,55,30.19,10,52,10,NA,74,65,83,28,66,44,30.24,30.09,20,4,10,10,20,0,5,0,"",1,0,5,0,5,4,10,6,30,34,30,34,926,944
2013-09-06 12:00:00,0,0,0,0,NA,NA,NA,0,0,0,74,54,30.13,6,168,10,NA,85,62,70,31,63,44,30.22,30,12,4,10,10,24,0,9,0,"",1,0,6,0,6,4,11,6,39,40,39,40,935,950
2013-09-07 12:00:00,0,0,0,0,NA,NA,NA,0,0,0,78,61,29.94,8,223,10,NA,87,68,78,32,66,59,30.01,29.87,18,4,10,10,27,0,13,0,"",1,0,7,0,7,4,12,6,52,46,52,46,948,956
2013-09-08 12:00:00,0,0,0,0,NA,NA,NA,0,0,0,75,65,29.97,12,62,10,NA,78,71,81,58,67,63,30.02,29.93,17,5,10,7,25,0,10,0,"",1,0,8,0,8,4,13,6,62,52,62,52,958,962
2013-09-09 12:00:00,0,0,0,0,NA,NA,NA,0,0,0,82,68,29.87,9,190,9,NA,94,69,84,38,71,63,29.95,29.79,17,5,10,6,32,0,17,0,"",1,0,9,0,9,4,14,5,79,57,79,57,975,967
2013-09-10 12:00:00,0,0,0,0,NA,NA,NA,0,0,0,87,63,29.94,13,234,10,NA,96,78,61,23,69,60,29.98,29.86,24,8,10,10,37,0,22,0,"",1,0,10,0,10,4,15,5,101,62,101,62,997,972
2013-09-11 12:00:00,0,0,0,0,NA,NA,NA,0,0,0,84,65,29.98,7,244,10,NA,92,75,74,42,68,63,30.02,29.96,16,0,10,9,33,0,19,NA,"",1,0,11,0,11,4,16,5,120,67,120,67,1016,977
2013-09-12 12:00:00,0,0,0,0,NA,NA,NA,0,0,0,73,59,29.96,10,327,10,NA,83,63,84,28,68,46,30.05,29.91,26,0,10,10,22,0,8,0.06,"",2,0,13,0,13,4,18,5,128,72,128,72,1024,982
2013-09-13 12:00:00,0,0,0,0,NA,NA,NA,0,0,0,61,45,30.13,14,7,10,NA,67,54,67,32,52,41,30.16,30.06,22,7,10,10,10,4,0,NA,"",2,4,15,4,15,8,20,4,128,76,128,76,1024,986
2013-09-14 12:00:00,0,0,0,0,NA,NA,NA,0,0,0,62,41,30.12,6,196,10,NA,72,51,77,18,46,35,30.19,30.04,13,4,10,10,12,3,0,0,"",2,7,17,7,17,11,22,4,128,80,128,80,1024,990
2013-09-15 12:00:00,0,1,0,0,NA,NA,NA,0,0,0,60,51,30.05,5,181,8,NA,62,58,90,38,57,39,30.15,30,13,0,10,3,10,5,0,0.24,"",2,12,19,12,19,16,24,4,128,84,128,84,1024,994
2013-09-16 12:00:00,0,0,0,0,NA,NA,NA,0,0,0,60,48,30.29,13,29,10,NA,64,55,90,43,58,44,30.35,30.16,21,5,10,7,10,5,0,NA,"",2,17,21,17,21,21,26,4,128,88,128,88,1024,998
2013-09-17 12:00:00,0,0,0,0,NA,NA,NA,0,0,0,62,48,30.25,8,123,10,NA,70,53,74,42,54,44,30.34,30.12,14,5,10,10,11,3,0,NA,"",2,20,23,20,23,24,28,3,128,91,128,91,1024,1001
2013-09-18 12:00:00,0,1,0,0,NA,NA,NA,0,1,0,72,59,30,9,164,9,NA,82,62,88,43,67,48,30.11,29.93,25,4,10,2,22,0,7,0.51,"",3,20,26,20,26,24,31,3,135,94,135,94,1031,1004
2013-09-19 12:00:00,0,1,0,0,NA,NA,NA,0,0,0,77,67,29.89,10,149,8,NA,84,70,88,57,70,64,29.97,29.77,21,0,10,4,26,0,12,NA,"",3,20,29,20,29,24,34,3,147,97,147,97,1043,1007
2013-09-20 12:00:00,0,1,0,0,NA,NA,NA,0,1,0,68,61,29.8,11,247,10,NA,77,59,88,50,67,49,29.85,29.75,20,7,10,7,18,0,3,0.02,"",3,20,32,20,32,24,37,3,150,100,150,100,1046,1010
2013-09-21 12:00:00,0,0,0,0,NA,NA,NA,0,0,0,59,46,29.87,10,324,10,NA,67,51,86,34,51,41,29.95,29.8,17,4,10,10,10,6,0,0,"",3,26,35,26,35,30,40,3,150,103,150,103,1046,1013
2013-09-22 12:00:00,0,0,0,0,NA,NA,NA,0,0,0,58,45,30.01,7,40,10,NA,67,49,77,43,47,42,30.05,29.95,15,4,10,10,7,7,0,0,"",4,33,39,33,39,37,44,2,150,105,150,105,1046,1015
2013-09-23 12:00:00,0,0,0,0,NA,NA,NA,0,0,0,59,46,30.07,8,110,10,NA,67,50,75,37,52,41,30.12,30.04,15,4,10,10,8,6,0,0,"",4,39,43,39,43,43,48,2,150,107,150,107,1046,1017
2013-09-24 12:00:00,0,0,0,0,NA,NA,NA,0,0,0,61,48,30,8,97,10,NA,70,52,75,39,53,44,30.07,29.93,15,4,10,10,10,4,0,0,"",4,43,47,43,47,47,52,2,150,109,150,109,1046,1019
2013-09-25 12:00:00,0,0,0,0,NA,NA,NA,0,0,0,64,51,29.95,7,59,10,NA,71,56,81,38,57,47,29.97,29.93,14,0,10,10,12,1,0,0,"",5,44,52,44,52,48,57,2,150,111,150,111,1046,1021
2013-09-26 12:00:00,0,0,0,0,NA,NA,NA,0,0,0,65,52,30.04,5,93,10,NA,75,55,83,35,57,42,30.08,29.96,12,0,10,8,16,0,0,0,"",5,44,57,44,57,48,62,2,150,113,150,113,1046,1023
2013-09-27 12:00:00,0,0,0,0,NA,NA,NA,0,0,0,69,48,30.1,7,123,10,NA,80,57,87,26,57,43,30.16,30.06,16,0,10,8,18,0,4,0,"",5,44,62,44,62,48,67,2,154,115,154,115,1050,1025
2013-09-28 12:00:00,0,0,0,0,NA,NA,NA,0,0,0,72,53,29.99,11,171,10,NA,85,58,75,34,58,48,30.09,29.89,28,5,10,10,20,0,7,0.02,"",6,44,68,44,68,48,73,2,161,117,161,117,1057,1027
2013-09-29 12:00:00,0,1,0,0,NA,NA,NA,0,0,0,61,51,30,8,356,9,NA,68,53,94,32,65,43,30.06,29.92,21,0,10,2,12,4,0,0.22,"",6,48,74,48,74,52,79,2,161,119,161,119,1057,1029
2013-09-30 12:00:00,0,0,0,0,NA,NA,NA,0,0,0,63,46,29.95,5,191,10,NA,76,50,86,20,54,41,30.01,29.88,13,0,10,10,12,2,0,0,"",6,50,80,50,77,54,82,2,161,119,161,119,1057,1029
2013-10-01 12:00:00,0,0,0,0,NA,NA,NA,0,0,0,71,60,29.93,12,210,9,NA,79,62,96,56,63,54,29.97,29.88,22,6,10,4,20,0,6,0,"",7,0,7,50,84,54,89,1,6,1,167,120,1063,1030
2013-10-02 12:00:00,0,0,0,0,NA,NA,NA,0,0,0,71,51,30.02,7,71,9,NA,77,64,90,19,64,39,30.09,29.97,12,0,10,3,21,0,6,0,"",7,0,14,50,91,54,96,1,12,2,173,121,1069,1031
2013-10-03 12:00:00,1,1,0,0,NA,NA,NA,0,1,0,71,64,29.92,8,178,6,NA,78,64,94,58,68,54,29.99,29.84,22,0,10,0,21,0,6,0.8,"",7,0,21,50,98,54,103,1,18,3,179,122,1075,1032
2013-10-04 12:00:00,0,0,0,0,NA,NA,NA,0,0,0,71,64,29.94,6,169,8,NA,76,66,90,67,67,61,29.99,29.91,14,0,10,3,20,0,6,0,"",7,0,28,50,105,54,110,1,24,4,185,123,1081,1033
2013-10-05 12:00:00,0,1,0,0,NA,NA,NA,0,1,0,73,67,29.84,8,183,7,NA,81,65,90,61,70,63,29.94,29.74,17,0,10,1,24,0,8,0.68,"",8,0,36,50,113,54,118,1,32,5,193,124,1089,1034
2013-10-06 12:00:00,0,1,0,0,NA,NA,NA,0,0,0,58,46,29.75,11,250,9,NA,67,48,90,36,63,37,29.79,29.69,22,6,10,4,7,7,0,0.06,"",8,7,44,57,121,61,126,1,32,6,193,125,1089,1035
2013-10-07 12:00:00,0,0,0,0,NA,NA,NA,0,0,0,56,43,29.92,9,257,10,NA,67,45,87,28,47,39,30.09,29.78,17,0,10,10,6,9,0,0,"",8,16,52,66,129,70,134,1,32,7,193,126,1089,1036
2013-10-08 12:00:00,0,0,0,0,NA,NA,NA,0,0,0,63,46,30.15,5,176,10,NA,76,49,83,22,50,43,30.2,30.09,12,0,10,10,12,2,0,0,"",9,18,61,68,138,72,143,1,32,8,193,127,1089,1037
2013-10-09 12:00:00,0,0,0,0,NA,NA,NA,0,0,0,61,46,30.19,5,117,10,NA,70,52,84,32,54,42,30.25,30.15,13,0,10,10,11,4,0,0,"",9,22,70,72,147,76,152,1,32,9,193,128,1089,1038
2013-10-10 12:00:00,0,0,0,0,NA,NA,NA,0,0,0,63,49,30.12,4,122,10,NA,75,51,86,37,54,44,30.18,30.05,12,0,10,10,14,2,0,0,"",9,24,79,74,156,78,161,1,32,10,193,129,1089,1039
2013-10-11 12:00:00,0,0,0,0,NA,NA,NA,0,0,0,67,48,30.02,7,144,10,NA,77,56,69,32,52,44,30.09,29.96,16,0,10,10,15,0,2,0,"",10,24,89,74,166,78,171,1,34,11,195,130,1091,1040
2013-10-12 12:00:00,0,0,0,0,NA,NA,NA,0,0,0,63,53,30.02,9,217,10,NA,73,53,79,44,61,42,30.18,29.97,17,4,10,6,14,2,0,0.01,"",10,26,99,76,176,80,181,1,34,12,195,131,1091,1041
2013-10-13 12:00:00,0,0,0,0,NA,NA,NA,0,0,0,56,39,30.33,5,334,10,NA,65,46,80,21,43,34,30.4,30.19,14,0,10,10,5,9,0,0,"",10,35,109,85,186,89,191,1,34,13,195,132,1091,1042
2013-10-14 12:00:00,0,0,0,0,NA,NA,NA,0,0,0,54,43,30.31,8,69,10,NA,62,45,80,42,48,40,30.4,30.15,18,0,10,10,4,11,0,0,"",11,46,120,96,197,100,202,0,34,13,195,132,1091,1042
2013-10-15 12:00:00,0,1,0,0,NA,NA,NA,0,0,0,58,52,29.89,10,180,7,NA,65,51,90,58,61,42,30.13,29.78,20,6,10,2,8,7,0,0.09,"",11,53,131,103,208,107,213,0,34,13,195,132,1091,1042
2013-10-16 12:00:00,0,0,0,0,NA,NA,NA,0,0,0,51,43,29.9,11,246,10,NA,54,47,77,63,44,39,29.95,29.86,18,7,10,10,0,14,0,NA,"",11,67,142,117,219,121,224,0,34,13,195,132,1091,1042
2013-10-17 12:00:00,0,1,0,0,NA,NA,NA,0,0,0,47,43,29.9,6,248,9,NA,55,39,94,58,48,37,29.94,29.84,17,0,15,4,0,18,0,0,"",NA,NA,NA,NA,NA,NA,NA,NA,NA,NA,NA,NA,NA,NA
2013-10-18 12:00:00,0,0,0,0,NA,NA,NA,0,0,0,46,38,29.93,9,248,10,NA,50,42,86,55,42,37,29.99,29.86,17,4,10,7,0,19,0,0,"",12,102,165,152,242,156,247,0,34,13,195,132,1091,1042
2013-10-19 12:00:00,0,1,0,0,NA,NA,NA,0,0,0,50,37,29.87,5,227,12,NA,56,44,87,38,41,28,29.95,29.8,23,0,20,10,0,16,0,0,"",NA,NA,NA,NA,NA,NA,NA,NA,NA,NA,NA,NA,NA,NA
2013-10-20 12:00:00,0,1,0,0,NA,NA,NA,0,0,0,54,39,29.83,5,202,12,NA,66,41,87,35,43,36,29.9,29.75,14,0,20,10,4,12,0,0,"",NA,NA,NA,NA,NA,NA,NA,NA,NA,NA,NA,NA,NA,NA
2013-10-21 12:00:00,0,1,0,0,NA,NA,NA,0,0,0,46,34,29.92,11,264,10,NA,55,36,89,29,49,24,30,29.81,23,7,10,7,0,19,0,0.03,"",13,149,202,199,279,203,284,0,34,13,195,132,1091,1042
2013-10-22 12:00:00,0,1,0,0,NA,NA,NA,0,0,0,36,31,29.98,5,260,9,NA,41,31,93,47,36,25,30.02,29.93,15,0,10,6,0,29,0,0.03,"",13,178,215,228,292,232,297,0,34,13,195,132,1091,1042
2013-10-23 12:00:00,0,1,0,0,NA,NA,NA,0,0,0,39,27,30,9,293,10,NA,46,32,89,30,33,23,30.04,29.9,18,6,10,7,0,26,0,NA,"",13,204,228,254,305,258,310,0,34,13,195,132,1091,1042
2013-10-24 12:00:00,0,0,0,0,NA,NA,NA,0,0,0,39,25,30.18,10,295,10,NA,44,34,70,31,28,19,30.33,30.04,20,6,10,10,0,26,0,0,"",14,230,242,280,319,284,324,0,34,13,195,132,1091,1042
2013-10-25 12:00:00,0,0,0,0,NA,NA,NA,0,0,0,40,26,30.3,11,243,10,NA,51,29,79,25,27,23,30.44,30.09,22,4,10,10,0,25,0,0,"",14,255,256,305,333,309,338,0,34,13,195,132,1091,1042
2013-10-26 12:00:00,0,0,0,0,NA,NA,NA,0,0,0,47,29,29.97,13,264,10,NA,55,38,67,30,36,26,30.1,29.88,26,0,10,10,0,18,0,0,"",14,273,270,323,347,327,352,0,34,13,195,132,1091,1042
2013-10-27 12:00:00,0,0,0,0,NA,NA,NA,0,0,0,44,29,30.05,7,226,10,NA,55,32,85,26,30,28,30.1,29.99,17,0,10,10,0,21,0,0,"",15,294,285,344,362,348,367,0,34,13,195,132,1091,1042
2013-10-28 12:00:00,0,0,0,0,NA,NA,NA,0,0,0,45,38,30.26,10,25,10,NA,54,36,81,59,42,30,30.37,30.09,18,0,10,10,0,20,0,0,"",15,314,300,364,377,368,382,0,34,13,195,132,1091,1042
2013-10-29 12:00:00,0,1,0,0,NA,NA,NA,0,0,0,50,39,30.29,7,106,10,NA,57,43,86,39,44,37,30.38,30.16,12,5,10,10,0,15,0,NA,"",16,329,316,379,393,383,398,0,34,13,195,132,1091,1042
2013-10-30 12:00:00,0,1,0,0,NA,NA,NA,0,0,0,56,52,30.02,6,134,4,NA,64,47,100,76,62,43,30.15,29.77,15,0,10,1,3,9,0,1.16,"",16,338,332,388,409,392,414,0,34,13,195,132,1091,1042
2013-10-31 12:00:00,0,1,0,0,NA,NA,NA,0,0,0,56,59,29.48,11,221,5,NA,65,47,100,77,63,43,29.77,29.2,28,0,10,1,6,9,0,2.03,"",16,347,348,397,426,401,431,0,34,16,195,135,1091,1045
2013-11-01 12:00:00,0,1,0,0,NA,NA,NA,0,0,0,47,41,29.61,13,264,8,NA,49,44,93,61,45,37,29.75,29.4,28,4,10,4,0,18,0,0.08,"",17,18,17,415,443,419,448,0,0,0,195,135,1091,1045
2013-11-02 12:00:00,0,1,0,0,NA,NA,NA,0,0,0,44,39,29.95,7,299,8,NA,48,39,97,61,43,36,30.15,29.74,17,4,10,5,0,21,0,0.02,"",17,39,34,436,460,440,465,0,0,0,195,135,1091,1045
2013-11-03 12:00:00,0,0,0,0,NA,NA,NA,0,0,0,43,35,30.27,6,153,10,NA,52,34,96,38,39,31,30.32,30.17,15,0,10,10,0,22,0,0,"",18,61,52,458,478,462,483,0,0,0,195,135,1091,1045
2013-11-04 12:00:00,0,0,0,0,NA,NA,NA,0,0,0,51,38,30.22,13,170,10,NA,57,44,73,39,43,35,30.3,30.14,23,8,10,10,0,14,0,0,"",18,75,70,472,496,476,501,0,0,0,195,135,1091,1045
2013-11-05 12:00:00,0,1,0,0,NA,NA,NA,0,0,0,54,47,30.18,9,178,9,NA,56,51,94,54,52,43,30.28,29.98,22,6,10,2,4,11,0,0.02,"",18,86,88,483,514,487,519,0,0,0,195,135,1091,1045
2013-11-06 12:00:00,0,1,0,0,NA,NA,NA,0,0,0,47,45,29.94,14,247,7,NA,57,37,94,62,55,25,30.19,29.81,26,7,10,2,0,18,0,0.92,"",19,104,107,501,533,505,538,0,0,0,195,135,1091,1045
2013-11-07 12:00:00,0,0,0,0,NA,NA,NA,0,0,0,38,29,30.24,9,267,10,NA,45,31,85,53,32,25,30.27,30.18,18,5,10,10,0,27,0,0,"",19,131,126,528,552,532,557,0,0,0,195,135,1091,1045
2013-11-08 12:00:00,0,0,0,0,NA,NA,NA,0,0,0,39,29,30.23,9,211,10,NA,48,29,92,37,31,27,30.37,29.99,22,0,10,10,0,26,0,0,"",20,157,146,554,572,558,577,0,0,0,195,135,1091,1045
2013-11-09 12:00:00,0,0,0,0,NA,NA,NA,0,0,0,51,35,29.95,18,249,10,NA,59,43,66,37,39,23,30.12,29.88,29,12,10,10,1,14,0,0,"",20,171,166,568,592,572,597,0,0,0,195,135,1091,1045
2013-11-10 12:00:00,0,0,0,0,NA,NA,NA,0,0,0,42,28,30.28,9,259,10,NA,49,35,72,33,31,24,30.35,30.14,22,0,10,10,0,23,0,0,"",21,194,187,591,613,595,618,0,0,0,195,135,1091,1045
2013-11-11 12:00:00,1,1,1,0,NA,NA,1,0,0,0,37,29,30.25,13,331,6,NA,48,26,100,46,38,16,30.52,30.11,22,6,10,0,0,28,0,0.1,"",21,222,208,619,634,623,639,0,0,0,195,135,1091,1045
2013-11-12 12:00:00,0,0,0,0,NA,NA,NA,0,0,0,29,16,30.66,11,303,10,NA,34,23,71,31,19,13,30.74,30.54,18,8,10,10,0,36,0,0,"",22,258,230,655,656,659,661,0,0,0,195,135,1091,1045
2013-11-13 12:00:00,0,0,0,0,NA,NA,NA,0,0,0,30,17,30.45,14,223,10,NA,40,20,78,27,22,13,30.63,30.21,23,7,10,10,0,35,0,0,"",22,293,252,690,678,694,683,0,0,0,195,135,1091,1045
2013-11-14 12:00:00,0,0,0,0,NA,NA,NA,0,0,0,41,23,30.07,14,210,10,NA,50,31,64,27,27,20,30.19,29.98,24,9,10,10,0,24,0,0,"",23,317,275,714,701,718,706,0,0,0,195,135,1091,1045
2013-11-15 12:00:00,0,0,0,0,NA,NA,NA,0,0,0,44,31,29.99,11,202,10,NA,49,38,71,40,37,27,30.02,29.96,17,7,10,10,0,21,0,0,"",23,338,298,735,724,739,729,0,0,0,195,135,1091,1045
2013-11-16 12:00:00,0,1,0,0,NA,NA,NA,0,0,0,52,49,29.78,15,176,6,NA,61,43,94,76,57,37,29.96,29.59,28,8,10,2,2,13,0,0.3,"",24,351,322,748,748,752,753,0,0,0,195,135,1091,1045
2013-11-17 12:00:00,0,1,0,0,NA,NA,NA,0,1,0,56,52,29.44,21,222,8,NA,69,43,94,55,62,35,29.73,29.2,43,8,10,1,6,9,0,0.77,"",24,360,346,757,772,761,777,0,0,0,195,135,1091,1045
2013-11-18 12:00:00,0,0,0,0,NA,NA,NA,0,0,0,37,28,30.02,16,284,10,NA,43,31,76,38,35,23,30.29,29.76,28,6,10,10,0,28,0,0,"",25,388,371,785,797,789,802,0,0,0,195,135,1091,1045
2013-11-19 12:00:00,0,0,0,0,NA,NA,NA,0,0,0,34,26,30.35,6,64,10,NA,41,26,82,53,32,21,30.41,30.3,13,0,10,10,0,31,0,0,"",25,419,396,816,822,820,827,0,0,0,195,135,1091,1045
2013-11-20 12:00:00,0,1,0,0,NA,NA,NA,0,0,0,38,29,30.24,8,144,9,NA,44,31,89,41,38,25,30.33,30.14,20,0,10,6,0,27,0,0.16,"",26,446,422,843,848,847,853,0,0,0,195,135,1091,1045
2013-11-21 12:00:00,0,1,0,0,NA,NA,NA,0,0,0,46,42,30.17,6,208,6,NA,51,41,100,65,46,38,30.21,30.13,13,4,10,2,0,19,0,0.05,"",26,465,448,862,874,866,879,0,0,0,195,135,1091,1045
2013-11-22 12:00:00,0,1,0,0,NA,NA,NA,0,0,0,36,31,30.39,10,334,8,NA,44,28,89,56,40,20,30.5,30.22,21,5,10,3,0,29,0,0.03,"",27,494,475,891,901,895,906,0,0,0,195,135,1091,1045
2013-11-23 12:00:00,0,0,0,0,NA,NA,NA,0,0,0,23,8,30.6,16,322,10,NA,29,16,69,26,18,1,30.74,30.46,24,8,10,10,0,42,0,0,"",27,536,502,933,928,937,933,0,0,0,195,135,1091,1045
2013-11-24 12:00:00,0,0,0,0,NA,NA,NA,0,0,0,20,4,30.64,9,256,10,NA,27,12,71,20,10,-1,30.77,30.44,15,5,10,10,0,45,0,0,"",28,581,530,978,956,982,961,0,0,0,195,135,1091,1045
2013-11-25 12:00:00,0,0,1,0,NA,NA,NA,0,0,0,27,20,30.19,13,221,8,NA,32,22,86,41,27,9,30.4,30.09,22,8,10,2,0,38,0,0,"",28,619,558,1016,984,1020,989,0,0,0,195,135,1091,1045
2013-11-26 12:00:00,0,0,1,0,NA,NA,NA,0,0,0,27,20,30.1,12,291,9,NA,36,18,79,39,27,4,30.19,30.02,25,6,10,5,0,38,0,NA,"",29,657,587,1054,1013,1058,1018,0,0,0,195,135,1091,1045
2013-11-27 12:00:00,0,0,0,0,NA,NA,NA,0,0,0,22,8,30.25,12,308,10,NA,29,14,68,25,12,4,30.3,30.18,22,4,10,10,0,43,0,0,"",29,700,616,1097,1042,1101,1047,0,0,0,195,135,1091,1045
2013-11-28 12:00:00,0,0,0,0,NA,NA,NA,0,0,0,29,13,30.33,10,255,10,NA,34,23,72,32,16,10,30.53,30.23,20,4,10,10,0,36,0,0,"",30,736,646,1133,1072,1137,1077,0,0,0,195,135,1091,1045
2013-11-29 12:00:00,0,0,0,0,NA,NA,NA,0,0,0,28,17,30.58,6,191,10,NA,37,18,81,37,21,14,30.67,30.44,12,0,10,10,0,37,0,0,"",30,773,676,1170,1102,1174,1107,0,0,0,195,135,1091,1045
2013-11-30 12:00:00,0,0,0,0,NA,NA,NA,0,0,0,41,26,30.21,9,197,10,NA,51,31,73,30,29,20,30.42,30.08,16,5,10,10,0,24,0,0,"",31,797,707,1194,1130,1198,1135,0,0,0,195,135,1091,1045
2013-12-01 12:00:00,0,0,0,0,NA,NA,NA,0,0,0,37,31,30.08,5,350,8,NA,44,30,89,64,34,27,30.13,30.01,13,0,10,4,0,28,0,0,"",31,28,31,NA,NA,1226,1166,0,0,0,NA,NA,1091,1045
2013-12-02 12:00:00,0,1,0,0,NA,NA,NA,0,0,0,38,31,29.88,7,117,7,NA,43,33,93,45,36,26,29.99,29.78,14,0,10,2,0,27,0,0.09,"",31,55,62,NA,NA,1253,1197,0,0,0,NA,NA,1091,1045
2013-12-03 12:00:00,0,1,0,0,NA,NA,NA,0,0,0,44,43,29.73,8,158,2,NA,51,37,96,85,49,35,29.77,29.68,14,6,4,1,0,21,0,NA,"",32,76,94,NA,NA,1274,1229,0,0,0,NA,NA,1091,1045
2013-12-04 12:00:00,0,1,0,0,NA,NA,NA,0,0,0,50,49,29.64,11,171,4,NA,57,42,100,74,54,36,29.75,29.52,25,6,10,1,2,15,0,NA,"",32,91,126,NA,NA,1289,1261,0,0,0,NA,NA,1091,1045
2013-12-05 12:00:00,0,0,0,0,NA,NA,NA,0,0,0,32,19,30.03,14,266,10,NA,42,22,82,45,34,9,30.29,29.7,25,10,10,10,0,33,0,0,"",33,124,159,NA,NA,1322,1294,0,0,0,NA,NA,1091,1045
2013-12-06 12:00:00,0,0,0,0,NA,NA,NA,0,0,0,18,8,30.42,9,312,10,NA,22,14,68,38,10,2,30.6,30.28,14,7,10,10,0,47,0,0,"",33,171,192,NA,NA,1369,1327,0,0,0,NA,NA,1091,1045
2013-12-07 12:00:00,0,0,0,0,NA,NA,NA,0,0,0,15,2,30.67,6,317,10,NA,21,9,73,26,6,-1,30.75,30.6,14,0,10,10,0,50,0,0,"",34,221,226,NA,NA,1419,1361,0,0,0,NA,NA,1091,1045
2013-12-08 12:00:00,0,0,1,0,NA,NA,2,0,0,0,21,17,30.24,9,100,5,NA,26,16,93,42,23,3,30.63,29.94,20,0,10,1,0,44,0,0.1,"",34,265,260,NA,NA,1463,1395,0,0,0,NA,NA,1091,1045
2013-12-09 12:00:00,0,0,1,0,NA,NA,2,0,0,0,15,9,30.16,14,259,8,NA,26,3,85,46,22,-6,30.3,29.97,28,8,10,4,0,50,0,NA,"",34,315,294,NA,NA,1513,1429,0,0,0,NA,NA,1091,1045
2013-12-10 12:00:00,0,0,1,0,NA,NA,2,0,0,0,12,3,30.21,14,244,10,NA,22,1,76,41,10,-6,30.35,30.09,26,6,10,3,0,53,0,NA,"",35,368,329,NA,NA,1566,1464,0,0,0,NA,NA,1091,1045
2013-12-11 12:00:00,0,0,1,0,NA,NA,2,0,0,0,12,7,30.43,10,281,7,NA,21,2,88,39,14,-8,30.63,30.27,17,4,10,1,0,53,0,0.01,"",35,421,364,NA,NA,1619,1499,0,0,0,NA,NA,1091,1045
2013-12-12 12:00:00,0,0,0,0,NA,NA,2,0,0,0,9,2,30.43,10,235,10,NA,20,-3,75,46,11,-9,30.61,30.26,23,5,10,10,0,56,0,0,"",35,477,399,NA,NA,1675,1534,0,0,0,NA,NA,1091,1045
2013-12-13 12:00:00,0,0,1,0,NA,NA,2,0,0,0,23,18,30.18,5,99,8,NA,31,15,93,55,27,10,30.25,30.11,12,0,10,1,0,42,0,0.04,"",36,519,435,NA,NA,1717,1570,0,0,0,NA,NA,1091,1045
2013-12-14 12:00:00,1,0,1,0,NA,NA,5,0,0,0,27,26,29.99,11,50,3,NA,30,23,96,74,28,19,30.13,29.89,16,7,10,0,0,38,0,0.1,"",36,557,471,NA,NA,1755,1606,0,0,0,NA,NA,1091,1045
2013-12-15 12:00:00,0,0,1,0,NA,NA,5,0,0,0,18,8,30.07,12,270,9,NA,24,12,86,54,18,3,30.17,29.94,23,6,10,6,0,47,0,NA,"",36,604,507,NA,NA,1802,1642,0,0,0,NA,NA,1091,1045
2013-12-16 12:00:00,0,0,1,0,NA,NA,5,0,0,0,17,11,30.1,5,241,6,NA,22,12,93,51,18,0,30.21,30.01,14,0,10,1,0,48,0,0.01,"",36,652,543,NA,NA,1850,1678,0,0,0,NA,NA,1091,1045
2013-12-17 12:00:00,0,0,1,0,NA,NA,5,0,0,0,25,19,30.04,13,256,7,NA,33,16,92,51,25,12,30.13,29.95,21,9,10,1,0,40,0,NA,"",37,692,580,NA,NA,1890,1715,0,0,0,NA,NA,1091,1045
2013-12-18 12:00:00,0,0,0,0,NA,NA,4,0,0,0,25,16,30.06,12,223,10,NA,34,16,81,33,27,10,30.21,29.87,21,6,10,10,0,40,0,0,"",37,732,617,NA,NA,1930,1752,0,0,0,NA,NA,1091,1045
2013-12-19 12:00:00,0,1,0,0,NA,NA,4,0,0,0,39,33,29.89,5,116,7,NA,43,34,100,67,37,28,29.95,29.81,13,0,10,1,0,26,0,0.05,"",37,758,654,NA,NA,1956,1789,0,0,0,NA,NA,1091,1045
2013-12-20 12:00:00,1,1,0,0,NA,NA,1,0,0,0,36,35,29.78,8,357,2,NA,37,34,100,89,37,33,29.83,29.72,14,0,7,0,0,29,0,0.13,"",37,787,691,NA,NA,1985,1826,0,0,0,NA,NA,1091,1045
2013-12-21 12:00:00,1,1,0,0,NA,NA,NA,0,0,0,34,33,29.79,9,10,3,NA,36,32,100,90,36,30,29.87,29.63,28,0,10,0,0,31,0,0.26,"",38,818,729,NA,NA,2016,1864,0,0,0,NA,NA,1091,1045
2013-12-22 12:00:00,0,1,1,0,NA,NA,NA,0,0,0,31,29,29.82,11,319,7,NA,35,26,100,74,34,19,30.15,29.59,21,6,10,2,0,34,0,0.05,"",38,852,767,NA,NA,2050,1902,0,0,0,NA,NA,1091,1045
2013-12-23 12:00:00,0,0,1,0,NA,NA,NA,0,0,0,14,9,30.36,14,259,8,NA,27,0,86,54,22,-7,30.53,30.13,22,7,10,4,0,51,0,NA,"",38,903,805,NA,NA,2101,1940,0,0,0,NA,NA,1091,1045
2013-12-24 12:00:00,0,0,1,0,NA,NA,NA,0,0,0,9,1,30.54,9,225,10,NA,19,-1,81,45,12,-7,30.62,30.42,16,5,10,3,0,56,0,NA,"",38,959,843,NA,NA,2157,1978,0,0,0,NA,NA,1091,1045
2013-12-25 12:00:00,0,0,1,0,NA,NA,1,0,0,0,23,20,30.22,11,220,6,NA,27,19,93,53,25,10,30.39,30.1,18,7,10,1,0,42,0,0.02,"",38,1001,881,NA,NA,2199,2016,0,0,0,NA,NA,1091,1045
2013-12-26 12:00:00,0,0,1,0,NA,NA,1,0,0,0,26,18,30.23,11,237,10,NA,36,15,80,59,29,9,30.34,30.1,20,6,10,6,0,39,0,NA,"",39,1040,920,NA,NA,2238,2055,0,0,0,NA,NA,1091,1045
2013-12-27 12:00:00,0,0,0,0,NA,NA,NA,0,0,0,35,29,30.22,10,219,9,NA,44,26,92,43,31,26,30.32,30.11,21,4,10,6,0,30,0,0,"",39,1070,959,NA,NA,2268,2094,0,0,0,NA,NA,1091,1045
2013-12-28 12:00:00,0,0,0,0,NA,NA,NA,0,0,0,43,32,30.01,12,212,10,NA,51,34,85,40,35,30,30.11,29.86,18,6,10,10,0,22,0,0,"",39,1092,998,NA,NA,2290,2133,0,0,0,NA,NA,1091,1045
2013-12-29 12:00:00,0,0,1,0,NA,NA,NA,0,0,0,26,21,29.97,13,317,8,NA,39,12,93,59,30,3,30.23,29.79,24,5,10,2,0,39,0,NA,"",39,1131,1037,NA,NA,2329,2172,0,0,0,NA,NA,1091,1045
2013-12-30 12:00:00,0,0,1,0,NA,NA,1,0,0,0,9,2,30.27,7,278,6,NA,15,3,85,29,7,-4,30.39,30.19,15,4,10,0,0,56,0,NA,"",39,1187,1076,NA,NA,2385,2211,0,0,0,NA,NA,1091,1045
2013-12-31 12:00:00,0,0,1,0,NA,NA,2,0,0,0,9,6,30.33,7,274,5,NA,14,4,86,60,10,-2,30.41,30.25,16,0,10,0,0,56,0,0.08,"",39,1243,1115,NA,NA,2441,2251,0,0,0,NA,NA,1091,1045
2014-01-01 12:00:00,1,0,1,0,NA,NA,5,0,0,0,19,17,30.25,13,58,3,NA,24,14,93,69,19,10,30.34,30.15,21,6,10,0,0,46,0,0.02,"",39,46,39,NA,NA,2487,2290,0,0,0,NA,NA,0,0
2014-01-02 12:00:00,0,0,1,0,NA,NA,NA,0,0,0,12,11,30.23,11,5,4,NA,22,1,86,67,18,-7,30.45,30.13,17,6,10,0,0,53,0,0,"",41,102,82,NA,NA,2666,2499,0,0,0,NA,NA,0,0
2014-01-03 12:00:00,0,0,0,0,NA,NA,10,0,0,0,9,1,30.32,12,205,10,NA,20,-2,83,52,12,-7,30.5,29.98,25,4,10,7,0,56,0,0,"",40,153,119,NA,NA,2594,2370,0,0,0,NA,NA,0,0
2014-01-04 12:00:00,1,0,1,0,NA,NA,8,0,0,0,27,24,29.95,13,213,5,NA,33,20,100,56,30,12,30.02,29.85,25,0,10,0,0,38,0,0.08,"",40,191,159,NA,NA,2632,2410,0,0,0,NA,NA,0,0
2014-01-05 12:00:00,1,0,1,0,NA,NA,10,0,0,0,15,13,30.01,19,344,2,NA,31,-1,93,56,28,-11,30.09,29.9,30,7,10,0,0,50,0,0.02,"",40,241,199,NA,NA,2682,2450,0,0,0,NA,NA,0,0
2014-01-06 12:00:00,0,0,0,0,NA,NA,10,0,0,0,-8,-20,30.27,18,270,9,NA,-1,-15,71,47,-14,-24,30.36,30.09,29,14,10,5,0,73,0,0,"",40,314,239,NA,NA,2755,2490,0,0,0,NA,NA,0,0
2014-01-07 12:00:00,0,0,0,0,NA,NA,10,0,0,0,-3,-10,30.37,10,236,10,NA,5,-11,80,45,-1,-17,30.42,30.34,18,0,10,10,0,68,0,0,"",40,382,279,NA,NA,2823,2530,0,0,0,NA,NA,0,0
2014-01-08 12:00:00,0,0,0,0,NA,NA,10,0,0,0,7,-1,30.47,3,299,10,NA,15,-2,91,38,3,-4,30.58,30.37,7,0,10,10,0,58,0,0,"",40,440,319,NA,NA,2881,2570,0,0,0,NA,NA,0,0
2014-01-09 12:00:00,0,0,1,0,NA,NA,10,0,0,0,16,14,30.39,5,136,5,NA,29,2,93,67,27,-2,30.59,30.18,13,0,10,1,0,49,0,NA,"",40,489,359,NA,NA,2930,2610,0,0,0,NA,NA,0,0
2014-01-10 12:00:00,1,1,1,0,NA,NA,8,0,1,0,36,34,29.92,10,168,2,NA,42,29,100,92,42,28,30.18,29.54,20,5,7,0,0,29,0,0.86,"",40,518,399,NA,NA,2959,2650,0,0,0,NA,NA,0,0
2014-01-11 12:00:00,1,1,0,0,NA,NA,4,0,0,0,36,33,29.55,12,254,6,NA,41,31,100,67,41,26,29.81,29.42,22,7,10,0,0,29,0,0.07,"",40,547,439,NA,NA,2988,2690,0,0,0,NA,NA,0,0
2014-01-12 12:00:00,0,0,0,0,NA,NA,2,0,0,0,37,28,29.79,15,201,10,NA,44,29,89,54,32,25,29.92,29.62,24,10,10,7,0,28,0,0,"",40,575,479,NA,NA,3016,2730,0,0,0,NA,NA,0,0
2014-01-13 12:00:00,0,0,0,0,NA,NA,NA,0,0,0,38,31,29.65,12,240,10,NA,47,28,82,49,35,24,29.81,29.57,23,7,10,10,0,27,0,0,"",40,602,519,NA,NA,3043,2770,0,0,0,NA,NA,0,0
2014-01-14 12:00:00,0,0,1,0,NA,NA,NA,0,0,0,29,23,29.76,16,230,8,NA,35,22,92,52,32,16,29.91,29.62,32,4,10,2,0,36,0,NA,"",40,638,559,NA,NA,3079,2810,0,0,0,NA,NA,0,0
2014-01-15 12:00:00,0,0,1,0,NA,NA,NA,0,0,0,19,10,30.04,11,264,10,NA,22,16,85,56,18,8,30.13,29.92,18,6,10,4,0,46,0,NA,"",40,684,599,NA,NA,3125,2850,0,0,0,NA,NA,0,0
2014-01-16 12:00:00,0,0,1,0,NA,NA,NA,0,0,0,28,22,29.63,16,223,8,NA,35,20,93,41,32,10,29.87,29.49,26,8,10,2,0,37,0,NA,"",40,721,639,NA,NA,3162,2890,0,0,0,NA,NA,0,0
2014-01-17 12:00:00,0,0,1,0,NA,NA,NA,0,0,0,17,8,29.92,12,263,7,NA,21,13,81,51,12,4,30.03,29.75,17,8,10,2,0,48,0,NA,"",40,769,679,NA,NA,3210,2930,0,0,0,NA,NA,0,0
2014-01-18 12:00:00,1,0,1,0,NA,NA,1,0,0,0,16,14,29.86,7,140,5,NA,21,11,93,67,18,6,29.99,29.74,14,0,10,0,0,49,0,0.04,"",40,818,719,NA,NA,3259,2970,0,0,0,NA,NA,0,0
2014-01-19 12:00:00,0,0,0,0,NA,NA,1,0,0,0,25,19,29.73,14,232,9,NA,39,11,92,59,29,8,29.91,29.57,26,6,10,5,0,40,0,0,"",40,858,759,NA,NA,3299,3010,0,0,0,NA,NA,0,0
2014-01-20 12:00:00,1,0,1,0,NA,NA,3,0,0,0,29,24,29.91,10,2,6,NA,37,20,93,65,28,16,30.06,29.63,24,0,10,0,0,36,0,NA,"",40,894,799,NA,NA,3335,3050,0,0,0,NA,NA,0,0
2014-01-21 12:00:00,0,0,1,0,NA,NA,6,0,0,0,11,0,30.24,13,322,7,NA,20,1,92,35,10,-6,30.33,30.06,26,5,10,0,0,54,0,0,"",40,948,839,NA,NA,3389,3090,0,0,0,NA,NA,0,0
2014-01-22 12:00:00,0,0,1,0,NA,NA,5,0,0,0,8,1,30.05,12,253,6,NA,15,1,79,46,9,-10,30.25,29.88,25,5,10,1,0,57,0,NA,"",40,1005,879,NA,NA,3446,3130,0,0,0,NA,NA,0,0
2014-01-23 12:00:00,0,0,0,0,NA,NA,5,0,0,0,4,-8,30.53,13,286,10,NA,11,-3,69,41,-2,-12,30.67,30.27,22,8,10,10,0,61,0,0,"",40,1066,919,NA,NA,3507,3170,0,0,0,NA,NA,0,0
2014-01-24 12:00:00,0,0,1,0,NA,NA,3,0,0,0,11,7,29.96,18,217,7,NA,28,-6,89,40,24,-12,30.59,29.51,32,9,10,1,0,54,0,NA,"",40,1120,959,NA,NA,3561,3210,0,0,0,NA,NA,0,0
2014-01-25 12:00:00,0,0,1,0,NA,NA,3,0,0,0,20,11,29.63,17,279,7,NA,33,7,93,27,30,-6,29.92,29.39,33,6,10,1,0,45,0,0.01,"",40,1165,999,NA,NA,3606,3250,0,0,0,NA,NA,0,0
2014-01-26 12:00:00,1,0,1,0,NA,NA,6,0,0,0,19,11,29.59,15,240,6,NA,32,6,86,46,25,-4,29.86,29.4,32,6,10,0,0,46,0,0.1,"",40,1211,1039,NA,NA,3652,3290,0,0,0,NA,NA,0,0
2014-01-27 12:00:00,0,0,1,0,NA,NA,6,0,0,0,0,-13,30.3,14,279,10,NA,6,-7,67,40,-3,-17,30.51,29.92,26,6,10,7,0,65,0,0,"",40,1276,1079,NA,NA,3717,3330,0,0,0,NA,NA,0,0
2014-01-28 12:00:00,0,0,0,0,NA,NA,6,0,0,0,-3,-12,30.45,10,249,10,NA,4,-11,78,41,-5,-17,30.53,30.32,18,6,10,10,0,68,0,0,"",40,1344,1119,NA,NA,3785,3370,0,0,0,NA,NA,0,0
2014-01-29 12:00:00,0,0,0,0,NA,NA,4,0,0,0,12,0,30.22,12,223,10,NA,22,1,72,28,7,-6,30.3,30.06,21,6,10,10,0,53,0,0,"",40,1397,1159,NA,NA,3838,3410,0,0,0,NA,NA,0,0
2014-01-30 12:00:00,1,0,1,0,NA,NA,3,0,0,0,26,18,29.84,17,210,8,NA,33,19,93,44,27,7,30.04,29.69,32,12,10,0,0,39,0,NA,"",40,1436,1199,NA,NA,3877,3450,0,0,0,NA,NA,0,0
2014-01-31 12:00:00,0,0,1,0,NA,NA,2,0,0,0,24,15,30.12,4,253,8,NA,28,19,93,50,21,9,30.2,29.97,13,0,10,1,0,41,0,0.02,"",40,1477,1239,NA,NA,3918,3496,0,0,0,NA,NA,0,0
2014-02-01 12:00:00,1,0,1,0,NA,NA,4,0,0,0,28,25,29.97,8,22,3,NA,32,23,100,78,29,20,30.12,29.84,14,5,7,0,0,37,0,0.2,"",40,37,40,NA,NA,3955,3536,0,0,0,NA,NA,0,0
2014-02-02 12:00:00,0,0,0,0,NA,NA,4,0,0,0,15,9,30.27,7,323,10,NA,23,7,83,40,18,3,30.37,30.14,15,0,10,7,0,50,0,0,"",39,87,79,NA,NA,4005,3575,0,0,0,NA,NA,0,0
2014-02-03 12:00:00,0,0,0,0,NA,NA,4,0,0,0,12,2,30.41,4,261,10,NA,22,1,88,27,4,-3,30.45,30.36,10,0,10,9,0,53,0,0,"",39,140,118,NA,NA,4058,3614,0,0,0,NA,NA,0,0
2014-02-04 12:00:00,0,0,1,0,NA,NA,5,0,0,0,18,14,30.3,7,67,6,NA,25,10,93,46,20,3,30.47,30.09,22,0,10,1,0,47,0,0.02,"",39,187,157,NA,NA,4105,3653,0,0,0,NA,NA,0,0
2014-02-05 12:00:00,0,0,1,0,NA,NA,10,0,0,0,17,17,30.22,14,359,3,NA,25,9,93,63,23,6,30.48,30,25,4,10,0,0,48,0,0.02,"",39,235,196,NA,NA,4153,3692,0,0,0,NA,NA,0,0
2014-02-06 12:00:00,0,0,1,0,NA,NA,10,0,0,0,6,-3,30.47,11,253,9,NA,12,-1,85,45,6,-8,30.52,30.4,20,7,10,6,0,59,0,NA,"",39,294,235,NA,NA,4212,3731,0,0,0,NA,NA,0,0
2014-02-07 12:00:00,0,0,0,0,NA,NA,9,0,0,0,4,-4,30.44,10,234,10,NA,11,-3,79,38,0,-8,30.48,30.41,21,7,10,10,0,61,0,0,"",38,355,273,NA,NA,4273,3769,0,0,0,NA,NA,0,0
2014-02-08 12:00:00,1,0,1,0,NA,NA,11,0,0,0,12,8,30.24,5,186,5,NA,17,6,88,61,13,0,30.4,30.13,10,0,10,0,0,53,0,0.07,"",38,408,311,NA,NA,4326,3807,0,0,0,NA,NA,0,0
2014-02-09 12:00:00,0,0,1,0,NA,NA,11,0,0,0,14,7,30.23,8,288,9,NA,20,7,88,46,13,0,30.35,30.12,16,5,10,6,0,51,0,NA,"",38,459,349,NA,NA,4377,3845,0,0,0,NA,NA,0,0
2014-02-10 12:00:00,0,0,0,0,NA,NA,10,0,0,0,6,-6,30.46,8,299,10,NA,13,-2,73,28,-2,-9,30.56,30.35,15,5,10,10,0,59,0,0,"",38,518,387,NA,NA,4436,3883,0,0,0,NA,NA,0,0
2014-02-11 12:00:00,0,0,0,0,NA,NA,8,0,0,0,6,-4,30.53,6,245,10,NA,15,-4,79,36,0,-8,30.6,30.45,10,4,10,10,0,59,0,0,"",37,577,424,NA,NA,4495,3920,0,0,0,NA,NA,0,0
2014-02-12 12:00:00,0,0,0,0,NA,NA,7,0,0,0,13,4,30.25,5,185,10,NA,23,2,84,38,9,-2,30.44,30.07,12,0,10,10,0,52,0,0,"",37,629,461,NA,NA,4547,3957,0,0,0,NA,NA,0,0
2014-02-13 12:00:00,0,0,1,0,NA,NA,7,0,0,0,23,14,29.75,8,204,8,NA,30,15,78,35,27,6,30.06,29.52,18,5,10,1,0,42,0,NA,"",37,671,498,NA,NA,4589,3994,0,0,0,NA,NA,0,0
2014-02-14 12:00:00,0,0,1,0,NA,NA,7,0,0,0,18,9,29.81,9,294,10,NA,22,13,77,49,14,6,30,29.65,18,5,10,9,0,47,0,NA,"",37,716,535,NA,NA,4634,4031,0,0,0,NA,NA,0,0
2014-02-15 12:00:00,0,0,1,0,NA,NA,7,0,0,0,15,8,30.06,6,214,7,NA,24,6,86,53,14,1,30.15,29.96,14,0,10,1,0,50,0,0.01,"",36,766,571,NA,NA,4684,4067,0,0,0,NA,NA,0,0
2014-02-16 12:00:00,0,0,1,0,NA,NA,6,0,0,0,23,15,30.17,9,347,8,NA,28,18,88,48,18,14,30.32,29.95,17,6,10,4,0,42,0,NA,"",36,808,607,NA,NA,4726,4103,0,0,0,NA,NA,0,0
2014-02-17 12:00:00,1,0,1,0,NA,NA,11,0,0,0,26,20,29.91,11,144,3,NA,29,22,96,65,25,16,30.3,29.68,22,0,10,0,0,39,0,0.38,"",36,847,643,NA,NA,4765,4139,0,0,0,NA,NA,0,0
2014-02-18 12:00:00,0,0,0,0,NA,NA,11,0,0,0,34,26,29.83,11,210,8,NA,45,23,88,41,30,21,29.99,29.66,24,0,10,5,0,31,0,0,"",35,878,678,NA,NA,4796,4174,0,0,0,NA,NA,0,0
2014-02-19 12:00:00,0,0,0,0,NA,NA,6,0,0,0,39,28,29.89,8,243,10,NA,45,32,82,34,30,25,30.01,29.67,15,5,10,8,0,26,0,0,"",35,904,713,NA,NA,4822,4209,0,0,0,NA,NA,0,0
2014-02-20 12:00:00,1,1,0,0,NA,NA,4,0,1,0,43,37,29.54,13,115,4,NA,51,35,100,71,52,29,29.94,29.23,44,0,10,0,0,22,0,0.77,"",35,926,748,NA,NA,4844,4244,0,0,0,NA,NA,0,0
2014-02-21 12:00:00,0,0,1,0,NA,NA,2,0,0,0,33,21,29.64,23,245,8,NA,37,28,87,34,30,8,29.87,29.4,39,9,10,2,0,32,0,NA,"",34,958,782,NA,NA,4876,4278,0,0,0,NA,NA,0,0
2014-02-22 12:00:00,0,0,0,0,NA,NA,1,0,0,0,29,13,30.01,11,261,10,NA,35,23,63,32,17,11,30.09,29.88,17,8,10,10,0,36,0,0,"",34,994,816,NA,NA,4912,4312,0,0,0,NA,NA,0,0
2014-02-23 12:00:00,0,0,0,0,NA,NA,NA,0,0,0,23,7,30.22,12,284,10,NA,29,16,62,32,11,4,30.28,30.1,21,7,10,10,0,42,0,0,"",34,1036,850,NA,NA,4954,4346,0,0,0,NA,NA,0,0
2014-02-24 12:00:00,0,0,0,0,NA,NA,NA,0,0,0,19,6,30.29,12,278,10,NA,25,13,71,32,9,4,30.32,30.26,21,7,10,10,0,46,0,0,"",33,1082,883,NA,NA,5000,4379,0,0,0,NA,NA,0,0
2014-02-25 12:00:00,0,0,1,0,NA,NA,NA,0,0,0,16,4,30.24,12,284,10,NA,24,7,68,35,10,-4,30.29,30.19,17,7,10,10,0,49,0,NA,"",33,1131,916,NA,NA,5049,4412,0,0,0,NA,NA,0,0
2014-02-26 12:00:00,0,0,0,0,NA,NA,NA,0,0,0,10,-3,30.06,16,254,10,NA,19,1,66,29,6,-7,30.3,29.67,28,9,10,10,0,55,0,0,"",33,1186,949,NA,NA,5104,4445,0,0,0,NA,NA,0,0
2014-02-27 12:00:00,0,0,1,0,NA,NA,NA,0,0,0,13,-8,30.07,13,318,9,NA,19,6,74,14,6,-16,30.27,29.71,29,4,10,2,0,52,0,NA,"",32,1238,981,NA,NA,5156,4477,0,0,0,NA,NA,0,0
2014-02-28 12:00:00,0,0,0,0,NA,NA,NA,0,0,0,19,5,30.16,9,156,10,NA,32,6,70,32,16,-10,30.28,30.04,18,0,10,10,0,46,0,0,"",32,1284,1013,NA,NA,5202,4511,0,0,0,NA,NA,0,0
2014-03-01 12:00:00,1,0,1,0,NA,NA,3,0,0,0,22,14,30.24,9,357,4,NA,32,12,92,45,27,8,30.38,30.03,17,0,10,0,0,43,0,0.03,"",32,43,32,NA,NA,5245,4543,0,0,0,NA,NA,0,0
2014-03-02 12:00:00,0,0,1,0,NA,NA,4,0,0,0,11,1,30.41,12,344,7,NA,16,5,85,27,8,-13,30.5,30.32,17,9,10,1,0,54,0,0.01,"",31,97,63,NA,NA,5299,4574,0,0,0,NA,NA,0,0
2014-03-03 12:00:00,0,0,1,0,NA,NA,3,0,0,0,11,0,30.5,6,324,8,NA,20,1,80,35,7,-13,30.57,30.42,16,0,10,1,0,54,0,NA,"",31,151,94,NA,NA,5353,4605,0,0,0,NA,NA,0,0
2014-03-04 12:00:00,0,0,1,0,NA,NA,2,0,0,0,20,6,30.31,7,215,10,NA,27,12,67,30,12,1,30.43,30.23,12,4,10,6,0,45,0,NA,"",31,196,125,NA,NA,5398,4636,0,0,0,NA,NA,0,0
2014-03-05 12:00:00,0,0,1,0,NA,NA,3,0,0,0,22,16,30.4,13,53,6,NA,24,20,93,57,18,13,30.48,30.27,17,7,10,1,0,43,0,0.01,"",30,239,155,NA,NA,5441,4666,0,0,0,NA,NA,0,0
2014-03-06 12:00:00,0,0,0,0,NA,NA,3,0,0,0,24,14,30.32,7,104,10,NA,32,16,74,46,18,8,30.47,30.13,12,0,10,10,0,41,0,0,"",30,280,185,NA,NA,5482,4696,0,0,0,NA,NA,0,0
2014-03-07 12:00:00,0,0,0,0,NA,NA,3,0,0,0,33,24,30,7,203,8,NA,46,20,85,34,33,15,30.12,29.91,16,0,10,5,0,32,0,NA,"",29,312,214,NA,NA,5514,4725,0,0,0,NA,NA,0,0
2014-03-08 12:00:00,0,0,1,0,NA,NA,NA,0,0,0,31,24,30.17,11,16,7,NA,39,23,92,66,33,19,30.3,30,22,0,10,1,0,34,0,0.01,"",29,346,243,NA,NA,5548,4754,0,0,0,NA,NA,0,0
2014-03-09 12:00:00,0,0,0,0,NA,NA,NA,0,0,0,32,25,30.11,12,215,8,NA,42,21,92,51,33,18,30.29,29.81,22,4,10,4,0,33,0,0,"",29,379,272,NA,NA,5581,4783,0,0,0,NA,NA,0,0
2014-03-10 12:00:00,0,0,0,0,NA,NA,NA,0,0,0,48,35,29.72,13,240,9,NA,54,41,82,43,39,32,29.81,29.67,21,4,10,7,0,17,0,0,"",28,396,300,NA,NA,5598,4811,0,0,0,NA,NA,0,0
2014-03-11 12:00:00,0,1,1,0,NA,NA,NA,0,0,0,42,34,29.72,11,31,9,NA,51,33,93,48,39,31,29.78,29.66,26,0,10,1,0,23,0,0.37,"",28,419,328,NA,NA,5621,4839,0,0,0,NA,NA,0,0
2014-03-12 12:00:00,1,0,1,0,NA,NA,4,0,0,0,26,22,29.89,16,8,7,NA,34,18,100,46,33,9,30.16,29.68,30,5,10,0,0,39,0,0.13,"",28,458,356,NA,NA,5660,4867,0,0,0,NA,NA,0,0
2014-03-13 12:00:00,0,0,0,0,NA,NA,3,0,0,0,26,19,30.08,7,205,10,NA,39,14,89,46,33,7,30.2,29.88,18,0,10,10,0,40,0,0,"",NA,NA,NA,NA,NA,NA,NA,NA,NA,NA,NA,NA,NA,NA
2014-03-14 12:00:00,0,0,0,0,NA,NA,2,0,0,0,46,32,29.74,16,234,10,NA,54,38,79,36,37,29,29.87,29.61,29,10,10,10,0,19,0,0,"",27,515,410,NA,NA,5717,4921,0,0,0,NA,NA,0,0
2014-03-15 12:00:00,0,0,1,0,NA,NA,NA,0,0,0,34,26,30.13,12,22,9,NA,40,28,93,44,31,22,30.29,29.87,24,7,10,2,0,31,0,NA,"",27,546,437,NA,NA,5748,4948,0,0,0,NA,NA,0,0
2014-03-16 12:00:00,0,0,1,0,NA,NA,NA,0,0,0,24,13,30.32,20,45,9,NA,29,19,75,41,22,9,30.41,30.21,30,12,10,6,0,41,0,NA,"",26,587,463,NA,NA,5789,4974,0,0,0,NA,NA,0,0
2014-03-17 12:00:00,0,0,0,0,NA,NA,NA,0,0,0,30,14,29.98,9,131,10,NA,39,20,79,25,26,4,30.19,29.85,14,5,10,10,0,35,0,0,"",26,622,489,NA,NA,5824,5000,0,0,0,NA,NA,0,0
2014-03-18 12:00:00,0,0,0,0,NA,NA,NA,0,0,0,41,31,29.83,11,149,10,NA,51,30,85,42,38,25,29.92,29.71,23,6,10,8,0,24,0,0,"",25,646,514,NA,NA,5848,5025,0,0,0,NA,NA,0,0
2014-03-19 12:00:00,0,1,0,0,NA,NA,NA,0,0,0,41,38,29.74,13,241,7,NA,47,35,100,59,45,25,30.01,29.58,24,6,10,3,0,24,0,0.39,"",25,670,539,NA,NA,5872,5050,0,0,0,NA,NA,0,0
2014-03-20 12:00:00,0,0,1,0,NA,NA,NA,0,0,0,40,27,30.05,8,260,9,NA,48,31,92,26,32,22,30.09,30.01,20,4,10,2,0,25,0,NA,"",25,695,564,NA,NA,5897,5075,0,0,0,NA,NA,0,0
2014-03-21 12:00:00,0,1,1,0,NA,NA,NA,0,0,0,46,35,29.88,12,138,8,NA,58,33,92,41,40,25,30.04,29.68,25,6,10,3,0,19,0,NA,"",24,714,588,NA,NA,5916,5099,0,0,0,NA,NA,0,0
2014-03-22 12:00:00,0,0,0,0,NA,NA,NA,0,0,0,36,25,30.15,12,322,10,NA,42,29,79,34,33,16,30.33,29.87,24,10,10,10,0,29,0,NA,"",24,743,612,NA,NA,5945,5123,0,0,0,NA,NA,0,0
2014-03-23 12:00:00,0,0,1,0,NA,NA,NA,0,0,0,26,12,30.42,9,15,9,NA,30,21,72,35,14,8,30.48,30.35,18,5,10,2,0,39,0,NA,"",24,782,636,NA,NA,5984,5147,0,0,0,NA,NA,0,0
2014-03-24 12:00:00,0,0,0,0,NA,NA,NA,0,0,0,29,11,30.29,6,242,10,NA,37,20,74,15,15,4,30.41,30.11,14,0,10,10,0,36,0,0,"",23,818,659,NA,NA,6020,5170,0,0,0,NA,NA,0,0
2014-03-25 12:00:00,0,0,1,0,NA,NA,NA,0,0,0,26,15,30.11,13,303,8,NA,31,21,88,24,25,2,30.29,30,23,6,10,1,0,39,0,NA,"",23,857,682,NA,NA,6059,5193,0,0,0,NA,NA,0,0
2014-03-26 12:00:00,0,0,0,0,NA,NA,NA,0,0,0,28,11,30.25,10,208,10,NA,39,17,62,23,18,4,30.38,30.05,22,0,10,10,0,37,0,0,"",23,894,705,NA,NA,6096,5216,0,0,0,NA,NA,0,0
2014-03-27 12:00:00,0,1,0,0,NA,NA,NA,0,1,0,45,37,29.73,18,185,9,NA,54,35,100,37,48,18,30.01,29.44,29,13,10,6,0,20,0,0.12,"",22,914,727,NA,NA,6116,5238,0,0,0,NA,NA,0,0
2014-03-28 12:00:00,0,1,0,0,NA,NA,NA,0,0,0,45,35,29.9,13,330,9,NA,55,34,97,67,50,28,30.22,29.44,31,4,10,2,0,20,0,0.04,"",22,934,749,NA,NA,6136,5260,0,0,0,NA,NA,0,0
2014-03-29 12:00:00,0,0,0,0,NA,NA,NA,0,0,0,35,26,30.22,10,16,10,NA,41,28,89,38,31,12,30.28,30.14,20,5,10,6,0,30,0,0,"",21,964,770,NA,NA,6166,5281,0,0,0,NA,NA,0,0
2014-03-30 12:00:00,0,0,0,0,NA,NA,NA,0,0,0,41,26,30.19,7,210,10,NA,57,25,79,21,34,19,30.29,30.06,17,0,10,10,0,24,0,0,"",21,988,791,NA,NA,6190,5302,0,0,0,NA,NA,0,0
2014-03-31 12:00:00,0,1,0,0,NA,NA,NA,0,1,0,56,31,29.91,16,176,10,NA,68,44,63,12,40,24,30.06,29.73,29,7,10,10,5,9,0,0.03,"",21,997,812,NA,NA,6199,5323,0,0,1,NA,NA,0,1
2014-04-01 12:00:00,0,0,0,0,NA,NA,NA,0,0,0,46,29,29.9,18,250,10,NA,57,34,69,33,44,22,30.1,29.68,32,9,10,10,0,19,0,0,"",20,19,20,NA,NA,6218,5343,0,0,0,NA,NA,0,1
2014-04-02 12:00:00,0,1,0,0,NA,NA,NA,0,0,0,41,28,30.14,11,34,10,NA,45,36,73,45,31,26,30.19,30.07,18,0,10,10,0,24,0,NA,"",20,43,40,NA,NA,6242,5363,0,0,0,NA,NA,0,1
2014-04-03 12:00:00,0,1,0,0,NA,NA,NA,0,1,0,40,37,29.87,13,63,5,NA,42,37,100,67,40,31,30.05,29.69,26,7,10,1,0,25,0,1.08,"",20,68,60,NA,NA,6267,5383,0,0,0,NA,NA,0,1
2014-04-04 12:00:00,1,1,0,0,NA,NA,NA,0,0,0,41,36,29.63,16,243,7,NA,46,35,100,53,46,25,30.02,29.47,30,7,10,0,0,24,0,0.01,"",19,92,79,NA,NA,6291,5402,0,0,0,NA,NA,0,1
2014-04-05 12:00:00,0,0,0,0,NA,NA,NA,0,0,0,41,23,30.17,8,97,10,NA,49,33,76,19,28,18,30.23,30.05,16,0,10,10,0,24,0,0,"",19,116,98,NA,NA,6315,5421,0,0,0,NA,NA,0,1
2014-04-06 12:00:00,0,0,0,0,NA,NA,NA,0,0,0,46,26,30.08,7,158,10,NA,56,36,60,26,30,19,30.19,29.96,14,4,10,10,0,19,0,0,"",18,135,116,NA,NA,6334,5439,0,0,0,NA,NA,0,1
2014-04-07 12:00:00,0,0,0,0,NA,NA,NA,0,0,0,46,29,29.75,8,14,10,NA,55,37,76,25,33,27,29.95,29.63,20,0,10,10,0,19,0,0,"",18,154,134,NA,NA,6353,5457,0,0,0,NA,NA,0,1
2014-04-08 12:00:00,0,1,0,0,NA,NA,NA,0,0,0,49,39,29.77,6,360,9,NA,57,40,93,41,46,28,29.94,29.64,16,0,10,6,0,16,0,0.02,"",18,170,152,NA,NA,6369,5475,0,0,0,NA,NA,0,1
2014-04-09 12:00:00,0,0,0,0,NA,NA,NA,0,0,0,50,31,29.96,9,226,10,NA,63,36,82,17,37,26,30.03,29.87,21,0,10,8,0,15,0,0,"",17,185,169,NA,NA,6384,5492,0,0,0,NA,NA,0,1
2014-04-10 12:00:00,0,0,0,0,NA,NA,NA,0,0,0,54,37,29.79,11,234,10,NA,64,44,63,28,42,28,29.93,29.7,24,0,10,10,6,11,0,0,"",17,196,186,NA,NA,6395,5509,0,0,0,NA,NA,0,1
2014-04-11 12:00:00,0,0,0,0,NA,NA,NA,0,0,0,56,25,29.99,6,245,10,NA,70,41,63,9,35,16,30.05,29.96,20,0,10,10,6,9,0,0,"",17,205,203,NA,NA,6404,5526,0,0,0,NA,NA,0,1
2014-04-12 12:00:00,0,0,0,0,NA,NA,NA,0,0,0,66,44,29.84,14,191,10,NA,80,52,63,21,55,29,30.02,29.68,31,0,10,10,16,0,1,0,"",16,205,219,NA,NA,6404,5542,0,1,0,NA,NA,1,1
2014-04-13 12:00:00,0,1,0,0,NA,NA,NA,0,0,0,59,52,29.64,14,134,8,NA,72,46,100,56,62,44,29.78,29.45,29,5,10,2,8,6,0,0.45,"",16,211,235,NA,NA,6410,5558,0,1,0,NA,NA,1,1
2014-04-14 12:00:00,0,1,1,0,NA,NA,NA,0,0,0,48,38,29.75,16,322,6,NA,64,31,96,65,61,29,30,29.35,30,8,10,1,0,17,0,0.16,"",15,228,250,NA,NA,6427,5573,0,1,0,NA,NA,1,1
2014-04-15 12:00:00,0,0,1,0,NA,NA,1,0,0,0,33,20,30.13,10,314,10,NA,38,27,93,27,28,12,30.24,29.98,18,5,10,9,0,32,0,NA,"",15,260,265,NA,NA,6459,5588,0,1,0,NA,NA,1,1
2014-04-16 12:00:00,0,0,0,0,NA,NA,NA,0,0,0,42,23,30.25,14,159,10,NA,52,31,67,22,25,20,30.35,30.16,25,5,10,10,0,23,0,0,"",15,283,280,NA,NA,6482,5603,NA,1,0,NA,NA,1,1
2014-04-17 12:00:00,0,0,0,0,NA,NA,NA,0,0,0,53,34,30.19,12,223,10,NA,63,43,59,32,40,25,30.25,30.14,20,0,10,10,2,12,0,0,"",14,295,294,NA,NA,6494,5617,0,1,0,NA,NA,1,1
2014-04-18 12:00:00,0,0,0,0,NA,NA,NA,0,0,0,45,35,30.33,9,40,10,NA,51,39,80,47,39,27,30.4,30.25,17,0,10,9,0,20,0,0,"",14,315,308,NA,NA,6514,5631,0,1,0,NA,NA,1,1
2014-04-19 12:00:00,0,0,0,0,NA,NA,NA,0,0,0,51,35,30.32,9,85,10,NA,64,38,79,29,40,26,30.4,30.24,16,5,10,10,0,14,0,0,"",14,329,322,NA,NA,6528,5645,1,1,1,NA,NA,1,2
2014-04-20 12:00:00,0,0,0,0,NA,NA,NA,0,0,0,63,35,30.14,10,179,10,NA,78,47,46,16,41,27,30.25,30.01,16,5,10,10,12,2,0,0,"",13,331,335,NA,NA,6530,5658,1,1,2,NA,NA,1,3
2014-04-21 12:00:00,0,1,0,0,NA,NA,NA,0,1,0,69,51,29.87,9,225,8,NA,78,59,96,36,60,41,30.01,29.79,24,5,10,2,18,0,4,0.51,"",13,331,348,NA,NA,6530,5671,1,5,3,NA,NA,5,4
2014-04-22 12:00:00,0,0,0,0,NA,NA,NA,0,0,0,50,34,29.96,13,18,10,NA,60,40,94,37,59,28,30.09,29.8,24,6,10,5,1,15,0,0,"",13,346,361,NA,NA,6545,5684,1,5,4,NA,NA,5,5
2014-04-23 12:00:00,0,1,0,0,NA,NA,NA,0,0,0,44,27,30.15,10,45,10,NA,51,37,73,30,31,22,30.2,30.05,17,6,10,10,0,21,0,0.02,"",12,367,373,NA,NA,6566,5696,1,5,5,NA,NA,5,6
2014-04-24 12:00:00,0,1,0,0,NA,NA,NA,0,0,0,53,33,29.89,14,117,10,NA,64,41,79,19,38,29,30.09,29.63,26,6,10,7,2,12,0,0.01,"",12,379,385,NA,NA,6578,5708,1,5,6,NA,NA,5,7
2014-04-25 12:00:00,0,1,0,0,NA,NA,NA,0,0,0,58,41,29.74,11,309,9,NA,69,47,96,19,47,35,29.83,29.61,25,0,10,5,8,7,0,0.24,"",12,386,397,NA,NA,6585,5720,1,5,7,NA,NA,5,8
2014-04-26 12:00:00,0,1,0,0,NA,NA,NA,0,0,0,50,34,29.98,14,31,10,NA,60,40,76,39,40,32,30.05,29.83,23,4,10,10,0,15,0,0.01,"",11,401,408,NA,NA,6600,5731,1,5,8,NA,NA,5,9
2014-04-27 12:00:00,0,1,0,0,NA,NA,NA,0,1,0,52,38,29.94,16,83,10,NA,61,42,82,32,43,35,30.05,29.84,29,10,10,7,2,13,0,0.03,"",11,414,419,NA,NA,6613,5742,1,5,9,NA,NA,5,10
2014-04-28 12:00:00,0,1,0,0,NA,NA,NA,0,1,0,53,45,29.66,16,95,8,NA,58,47,92,43,50,34,29.86,29.56,31,7,10,2,2,12,0,0.48,"",10,426,429,NA,NA,6625,5752,1,5,10,NA,NA,5,11
2014-04-29 12:00:00,0,1,0,0,NA,NA,NA,0,1,0,59,49,29.54,10,181,7,NA,67,50,100,43,52,43,29.66,29.45,26,5,10,1,8,6,0,0.11,"",10,432,439,NA,NA,6631,5762,1,5,11,NA,NA,5,12
2014-04-30 12:00:00,0,1,0,0,NA,NA,NA,0,0,0,50,43,29.75,11,217,9,NA,53,46,96,62,50,35,29.81,29.67,21,6,10,1,0,15,0,0.12,"",10,447,449,NA,NA,6646,5771,1,5,12,NA,NA,5,13
2014-05-01 12:00:00,0,1,0,0,NA,NA,NA,0,0,0,47,42,29.76,14,239,10,NA,50,43,93,71,45,38,29.83,29.7,25,9,10,6,0,18,0,0.09,"",10,18,10,NA,NA,6664,5781,1,0,1,NA,NA,5,14
2014-05-02 12:00:00,0,1,0,0,NA,NA,NA,0,0,0,51,43,29.8,12,238,10,NA,55,47,93,57,45,41,29.83,29.7,17,8,10,8,0,14,0,0.04,"",9,32,19,NA,NA,6678,5790,1,0,2,NA,NA,5,15
2014-05-03 12:00:00,0,0,0,0,NA,NA,NA,0,0,0,59,39,29.76,14,272,10,NA,68,49,80,20,44,35,29.86,29.65,26,8,10,10,8,6,0,0,"",9,38,28,NA,NA,6684,5799,1,0,3,NA,NA,5,16
2014-05-04 12:00:00,0,0,0,0,NA,NA,NA,0,0,0,54,31,30.02,11,43,10,NA,61,47,52,28,36,26,30.09,29.88,17,8,10,10,4,11,0,0,"",9,49,37,NA,NA,6695,5808,1,0,4,NA,NA,5,17
2014-05-05 12:00:00,0,1,0,0,NA,NA,NA,0,1,0,52,36,29.99,14,47,10,NA,59,45,76,34,39,32,30.05,29.94,22,9,10,10,2,13,0,0.01,"",8,62,45,NA,NA,6708,5816,1,0,5,NA,NA,5,18
2014-05-06 12:00:00,0,0,0,0,NA,NA,NA,0,0,0,54,38,29.95,14,66,10,NA,63,45,66,31,43,34,30.02,29.86,22,7,10,10,4,11,0,0,"",8,73,53,NA,NA,6719,5824,1,0,6,NA,NA,5,19
2014-05-07 12:00:00,0,1,0,0,NA,NA,NA,0,1,0,66,47,29.82,9,90,10,NA,80,52,67,30,56,35,29.87,29.77,20,4,10,10,16,0,1,NA,"",8,73,61,NA,NA,6719,5832,1,1,7,NA,NA,6,20
2014-05-08 12:00:00,0,0,0,0,NA,NA,NA,0,0,0,81,59,29.79,14,200,10,NA,93,68,73,24,63,50,29.86,29.73,33,8,10,10,30,0,16,0,"",8,73,69,NA,NA,6719,5840,1,17,8,NA,NA,22,21
2014-05-09 12:00:00,0,1,0,0,NA,NA,NA,0,1,0,67,60,29.73,15,215,7,NA,76,57,93,35,65,43,29.86,29.67,28,7,10,1,18,0,2,1.43,"",8,73,77,NA,NA,6719,5848,1,19,9,NA,NA,24,22
2014-05-10 12:00:00,0,0,0,0,NA,NA,NA,0,0,0,65,43,29.91,7,205,10,NA,77,52,74,19,47,39,29.95,29.88,17,0,10,10,15,0,0,0,"",7,73,84,NA,NA,6719,5855,1,19,10,NA,NA,24,23
2014-05-11 12:00:00,0,1,0,0,NA,NA,NA,0,1,0,74,56,29.91,10,177,9,NA,85,63,90,26,66,37,29.96,29.84,28,0,10,1,24,0,9,0.41,"",7,73,91,NA,NA,6719,5862,1,28,11,NA,NA,33,24
2014-05-12 12:00:00,0,1,0,0,NA,NA,NA,0,1,0,76,68,29.84,13,188,10,NA,86,65,90,54,71,61,29.9,29.78,28,6,10,5,25,0,11,0.03,"",7,73,98,NA,NA,6719,5869,2,39,13,NA,NA,44,26
2014-05-13 12:00:00,0,1,0,0,NA,NA,NA,0,0,0,62,57,29.96,11,244,10,NA,70,54,93,63,65,45,30.14,29.81,21,0,10,6,12,3,0,0.14,"",7,76,105,NA,NA,6722,5876,2,39,15,NA,NA,44,28
2014-05-14 12:00:00,0,1,0,0,NA,NA,NA,0,0,0,51,41,30.1,13,2,9,NA,57,44,89,41,45,36,30.17,29.99,22,6,10,3,0,14,0,0.06,"",6,90,111,NA,NA,6736,5882,2,39,17,NA,NA,44,30
2014-05-15 12:00:00,0,1,0,0,NA,NA,NA,0,0,0,50,39,29.98,14,10,7,NA,57,42,93,50,45,34,30.08,29.88,28,7,10,2,0,15,0,0.26,"",6,105,117,NA,NA,6751,5888,2,39,19,NA,NA,44,32
2014-05-16 12:00:00,0,1,0,0,NA,NA,NA,0,0,0,43,36,30.06,9,58,10,NA,45,41,87,65,38,34,30.12,30.01,17,4,10,9,0,22,0,0.08,"",6,127,123,NA,NA,6773,5894,2,39,21,NA,NA,44,34
2014-05-17 12:00:00,0,0,0,0,NA,NA,NA,0,0,0,51,35,30.13,8,243,9,NA,61,41,89,21,40,30,30.19,30.08,16,5,10,6,2,14,0,0,"",6,141,129,NA,NA,6787,5900,2,39,23,NA,NA,44,36
2014-05-18 12:00:00,0,0,0,0,NA,NA,NA,0,0,0,59,38,30.21,9,208,10,NA,70,48,62,21,40,34,30.25,30.17,17,7,10,10,8,6,0,0,"",6,147,135,NA,NA,6793,5906,2,39,25,NA,NA,44,38
2014-05-19 12:00:00,0,1,0,0,NA,NA,NA,0,0,0,62,40,30.11,12,162,10,NA,71,53,59,22,44,37,30.24,29.95,26,4,10,10,12,3,0,NA,"",5,150,140,NA,NA,6796,5911,2,39,27,NA,NA,44,40
2014-05-20 12:00:00,0,1,0,0,NA,NA,NA,0,1,0,75,61,29.85,12,194,9,NA,87,63,90,38,68,45,29.95,29.79,29,4,10,2,24,0,10,0.64,"",5,150,145,NA,NA,6796,5916,2,49,29,NA,NA,54,42
2014-05-21 12:00:00,0,0,0,0,NA,NA,NA,0,0,0,79,59,29.84,8,300,9,NA,89,68,87,21,68,48,29.94,29.78,21,0,10,6,30,0,14,0.01,"",5,150,150,NA,NA,6796,5921,2,63,31,NA,NA,68,44
2014-05-22 12:00:00,0,0,0,0,NA,NA,NA,0,0,0,62,49,30.06,8,49,10,NA,69,54,72,39,52,45,30.12,29.94,17,0,10,10,12,3,0,0,"",5,153,155,NA,NA,6799,5926,2,63,33,NA,NA,68,46
2014-05-23 12:00:00,0,0,0,0,NA,NA,NA,0,0,0,60,46,30.18,6,45,10,NA,68,51,80,34,48,42,30.22,30.12,16,0,10,10,10,5,0,0,"",5,158,160,NA,NA,6804,5931,3,63,36,NA,NA,68,49
2014-05-24 12:00:00,0,0,0,0,NA,NA,NA,0,0,0,62,45,30.18,5,57,10,NA,74,50,74,27,49,42,30.25,30.13,13,0,10,10,12,3,0,0,"",4,161,164,NA,NA,6807,5935,3,63,39,NA,NA,68,52
2014-05-25 12:00:00,0,0,0,0,NA,NA,NA,0,0,0,66,47,30.1,3,111,10,NA,82,49,86,27,51,45,30.16,30.02,13,0,10,10,15,0,1,0,"",6,205,218,NA,NA,7119,6331,2,36,25,NA,NA,36,29
2014-05-26 12:00:00,0,1,0,0,NA,NA,NA,0,1,0,79,63,29.96,8,217,10,NA,90,67,85,33,69,55,30.04,29.87,18,0,10,2,27,0,14,0.08,"",4,161,172,NA,NA,6807,5943,3,82,45,NA,NA,87,58
2014-05-27 12:00:00,0,1,0,0,NA,NA,NA,0,1,0,73,65,29.91,10,231,9,NA,85,61,93,43,68,60,29.96,29.85,23,0,10,2,24,0,8,0.5,"",4,161,176,NA,NA,6807,5947,3,90,48,NA,NA,95,61
2014-05-28 12:00:00,0,1,0,0,NA,NA,NA,0,1,0,66,55,29.99,9,32,8,NA,73,58,100,40,64,47,30.06,29.9,20,5,10,1,15,0,1,0.68,"",3,161,179,NA,NA,6807,5950,3,91,51,NA,NA,96,64
2014-05-29 12:00:00,0,0,0,0,NA,NA,NA,0,0,0,67,54,30.07,10,33,10,NA,77,57,87,36,60,49,30.13,30.02,18,5,10,7,17,0,2,0,"",3,161,182,NA,NA,6807,5953,3,93,54,NA,NA,98,67
2014-05-30 12:00:00,0,0,0,0,NA,NA,NA,0,0,0,68,53,30.14,8,63,10,NA,79,57,75,33,56,49,30.18,30.09,15,0,10,10,18,0,3,0,"",3,161,185,NA,NA,6807,5956,3,96,57,NA,NA,101,70
2014-05-31 12:00:00,0,0,0,0,NA,NA,NA,0,0,0,75,53,30.11,7,101,10,NA,89,60,75,24,56,50,30.2,30.04,16,4,10,10,24,0,10,0,"",3,161,188,NA,NA,6807,5959,4,106,61,NA,NA,111,74
2014-06-01 12:00:00,0,0,0,0,NA,NA,NA,0,0,0,81,60,29.97,12,180,10,NA,92,69,74,27,67,54,30.05,29.86,26,0,10,10,30,0,16,NA,"",3,0,3,NA,NA,6807,5962,4,16,4,NA,NA,127,78
2014-06-02 12:00:00,0,1,0,0,NA,NA,NA,0,1,0,77,66,29.83,15,217,10,NA,85,69,87,45,70,62,29.89,29.78,37,8,10,2,27,0,12,0.2,"",3,0,6,NA,NA,6807,5965,4,28,8,NA,NA,139,82
2014-06-03 12:00:00,0,0,0,0,NA,NA,NA,0,0,0,76,54,29.88,11,284,10,NA,82,70,73,27,63,48,29.94,29.82,22,4,10,10,26,0,11,0,"",2,0,8,NA,NA,6807,5967,NA,39,8,NA,NA,150,82
2014-06-04 12:00:00,0,1,0,0,NA,NA,NA,0,0,0,65,56,29.84,11,62,9,NA,72,58,93,36,59,50,29.91,29.76,21,4,10,2,16,0,0,0.12,"",2,0,10,NA,NA,6807,5969,4,39,12,NA,NA,150,86
2014-06-05 12:00:00,0,0,0,0,NA,NA,NA,0,0,0,66,44,29.95,8,54,10,NA,75,56,87,14,53,35,29.99,29.91,15,0,10,7,16,0,1,0,"",2,0,12,NA,NA,6807,5971,5,40,17,NA,NA,151,91
2014-06-06 12:00:00,0,0,0,0,NA,NA,NA,0,0,0,68,42,29.97,6,99,10,NA,82,54,75,10,49,33,30,29.93,15,0,10,10,18,0,3,0,"",2,0,14,NA,NA,6807,5973,5,43,22,NA,NA,154,96
2014-06-07 12:00:00,0,1,0,0,NA,NA,NA,0,0,0,74,50,29.91,7,113,10,NA,85,62,84,25,62,43,30,29.8,16,0,10,6,24,0,9,0.12,"",2,0,16,NA,NA,6807,5975,5,52,27,NA,NA,163,101
2014-06-08 12:00:00,0,1,0,0,NA,NA,NA,0,0,0,63,49,29.95,16,11,9,NA,70,55,87,28,60,38,30.04,29.82,24,9,10,3,12,2,0,0.21,"",1,2,17,NA,NA,6809,5976,5,52,32,NA,NA,163,106
2014-06-09 12:00:00,0,0,0,0,NA,NA,NA,0,0,0,68,51,29.96,8,37,10,NA,79,56,70,46,59,43,30.01,29.91,16,5,10,10,16,0,3,0,"",1,2,18,NA,NA,6809,5977,5,55,37,NA,NA,166,111
2014-06-10 12:00:00,0,1,0,0,NA,NA,NA,0,0,0,65,56,29.84,9,24,6,NA,70,59,94,50,61,48,29.92,29.73,22,4,10,1,14,0,0,0.45,"",1,2,19,NA,NA,6809,5978,6,55,43,NA,NA,166,117
2014-06-11 12:00:00,0,1,0,0,NA,NA,NA,0,0,0,66,61,29.7,6,340,5,NA,69,62,97,71,64,56,29.75,29.64,15,0,10,2,16,0,1,0.2,"",1,2,20,NA,NA,6809,5979,6,56,49,NA,NA,167,123
2014-06-12 12:00:00,0,1,0,0,NA,NA,NA,0,0,0,73,60,29.77,10,274,7,NA,82,63,100,42,64,49,29.84,29.74,22,0,10,2,21,0,8,0.01,"",1,2,21,NA,NA,6809,5980,6,64,55,NA,NA,175,129
2014-06-13 12:00:00,0,0,0,0,NA,NA,NA,0,0,0,66,44,29.95,8,338,10,NA,75,57,67,23,48,36,30.02,29.85,20,0,10,10,15,0,1,0,"",1,2,22,NA,NA,6809,5981,6,65,61,NA,NA,176,135
2014-06-14 12:00:00,0,0,0,0,NA,NA,NA,0,0,0,69,42,30.03,9,174,10,NA,80,57,60,13,46,38,30.1,29.96,17,5,10,10,18,0,4,0,"",1,2,23,NA,NA,6809,5982,7,69,68,NA,NA,180,142
2014-06-15 12:00:00,0,0,0,0,NA,NA,NA,0,0,0,75,57,29.89,15,187,10,NA,86,64,64,34,67,46,29.99,29.79,29,8,10,10,24,0,10,NA,"",1,2,24,NA,NA,6809,5983,7,79,75,NA,NA,190,149
2014-06-16 12:00:00,0,0,0,0,NA,NA,NA,0,1,0,80,65,29.96,9,216,10,NA,90,69,84,33,70,59,30.06,29.86,18,4,10,10,30,0,15,0,"",1,2,25,NA,NA,6809,5984,7,94,82,NA,NA,205,156
2014-06-17 12:00:00,0,0,0,0,NA,NA,NA,0,0,0,86,68,29.84,14,212,10,NA,93,79,71,36,72,63,29.91,29.74,29,6,10,7,36,0,21,0,"",1,2,26,NA,NA,6809,5985,7,115,89,NA,NA,226,163
2014-06-18 12:00:00,0,1,0,0,NA,NA,NA,0,1,0,74,66,29.95,11,355,8,NA,85,63,93,61,74,61,30.03,29.85,31,0,10,1,24,0,9,0.8,"",1,2,27,NA,NA,6809,5986,8,124,97,NA,NA,235,171
2014-06-19 12:00:00,0,1,0,0,NA,NA,NA,0,1,0,71,65,30.04,8,57,6,NA,82,60,97,62,70,59,30.1,29.99,16,0,10,1,22,0,6,0.39,"",1,2,28,NA,NA,6809,5987,8,130,105,NA,NA,241,179
2014-06-20 12:00:00,1,1,0,0,NA,NA,NA,0,0,0,76,68,29.95,9,238,7,NA,86,66,96,43,70,62,30.03,29.89,16,4,10,2,26,0,11,0.03,"",1,2,29,NA,NA,6809,5988,8,141,113,NA,NA,252,187
2014-06-21 12:00:00,0,1,0,0,NA,NA,NA,0,1,0,74,65,29.92,7,99,6,NA,85,63,96,45,68,61,30,29.83,29,0,10,1,24,0,9,0.73,"",0,2,29,NA,NA,6809,5988,8,150,121,NA,NA,261,195
2014-06-22 12:00:00,0,0,0,0,NA,NA,NA,0,0,0,74,64,29.88,6,66,8,NA,82,66,93,58,66,61,29.93,29.83,12,0,10,2,23,0,9,0,"",0,2,29,NA,NA,6809,5988,9,159,130,NA,NA,270,204
2014-06-23 12:00:00,0,1,0,0,NA,NA,NA,0,0,0,77,69,29.83,6,215,8,NA,84,69,93,59,72,63,29.86,29.79,13,0,10,2,26,0,12,0.16,"",0,2,29,NA,NA,6809,5988,9,171,139,NA,NA,282,213
2014-06-24 12:00:00,0,1,0,0,NA,NA,NA,0,1,0,78,70,29.85,6,196,8,NA,85,70,97,52,72,67,29.89,29.8,29,0,10,1,27,0,13,1.15,"",0,2,29,NA,NA,6809,5988,9,184,148,NA,NA,295,222
2014-06-25 12:00:00,0,1,0,0,NA,NA,NA,0,1,0,71,63,29.97,6,41,5,NA,79,62,93,65,70,57,30.05,29.86,16,0,10,1,20,0,6,0.02,"",0,2,29,NA,NA,6809,5988,9,190,157,NA,NA,301,231
2014-06-26 12:00:00,0,0,0,0,NA,NA,NA,0,0,0,69,60,30.05,7,52,7,NA,77,60,93,55,63,58,30.09,30,12,4,10,3,18,0,4,0,"",0,2,29,NA,NA,6809,5988,9,194,166,NA,NA,305,240
2014-06-27 12:00:00,0,0,0,0,NA,NA,NA,0,0,0,77,65,29.99,9,136,7,NA,91,62,94,33,69,60,30.05,29.93,17,5,10,1,26,0,12,0,"",0,2,29,NA,NA,6809,5988,10,206,176,NA,NA,317,250
2014-06-28 12:00:00,0,1,0,0,NA,NA,NA,0,1,0,82,71,29.97,12,167,9,NA,88,75,89,50,74,69,30.04,29.91,28,5,10,2,31,0,17,0.16,"",0,2,29,NA,NA,6809,5988,10,223,186,NA,NA,334,260
2014-06-29 12:00:00,0,1,0,0,NA,NA,NA,0,0,0,80,70,29.9,13,209,10,NA,88,71,91,50,73,67,29.98,29.84,28,9,10,8,30,0,15,0.04,"",0,2,29,NA,NA,6809,5988,10,238,196,NA,NA,349,270
2014-06-30 12:00:00,1,1,0,0,NA,NA,NA,0,1,0,78,71,29.79,13,185,7,NA,88,68,96,58,76,66,29.93,29.63,43,4,10,0,28,0,13,2.06,"",0,2,29,NA,NA,6809,5990,10,251,210,NA,NA,362,284
2014-07-01 12:00:00,0,1,0,0,NA,NA,NA,0,1,0,76,64,29.7,15,232,9,NA,84,68,93,39,67,60,29.76,29.54,29,5,10,5,26,0,11,0.04,"",0,0,0,NA,NA,0,0,10,11,10,NA,NA,373,294
2014-07-02 12:00:00,0,1,0,0,NA,NA,NA,0,0,0,66,56,29.93,10,336,8,NA,74,58,94,44,65,53,30.03,29.76,18,5,10,1,14,0,1,0.12,"",0,0,0,NA,NA,0,0,10,12,20,NA,NA,374,304
2014-07-03 12:00:00,0,1,0,0,NA,NA,NA,0,0,0,66,51,30.11,7,337,9,NA,75,57,90,28,57,40,30.19,30.02,16,0,10,6,15,0,1,0.05,"",0,0,0,NA,NA,0,0,11,13,31,NA,NA,375,315
2014-07-04 12:00:00,0,0,0,0,NA,NA,NA,0,0,0,70,50,30.26,7,59,10,NA,79,60,67,24,55,46,30.29,30.19,15,0,10,6,20,0,5,0,"",0,0,0,NA,NA,0,0,11,18,42,NA,NA,380,326
2014-07-05 12:00:00,0,1,0,0,NA,NA,NA,0,0,0,71,55,30.16,10,198,9,NA,79,63,73,31,62,52,30.25,30.02,18,4,10,6,22,0,6,0.01,"",0,0,0,NA,NA,0,0,11,24,53,NA,NA,386,337
2014-07-06 12:00:00,0,0,0,0,NA,NA,NA,0,0,0,78,67,29.85,13,213,10,NA,89,66,78,50,72,58,30.02,29.71,23,6,10,10,28,0,13,0,"",0,0,0,NA,NA,0,0,11,37,64,NA,NA,399,348
2014-07-07 12:00:00,0,1,0,0,NA,NA,NA,0,1,0,81,68,29.7,10,258,9,NA,89,72,91,33,72,58,29.75,29.65,28,4,10,1,30,0,16,0.48,"",0,0,0,NA,NA,0,0,11,53,75,NA,NA,415,359
2014-07-08 12:00:00,0,1,0,0,NA,NA,NA,0,0,0,77,63,29.67,13,270,9,NA,84,70,93,32,71,57,29.81,29.56,28,7,10,1,28,0,12,0.48,"",0,0,0,NA,NA,0,0,11,65,86,NA,NA,427,370
2014-07-09 12:00:00,0,0,0,0,NA,NA,NA,0,0,0,73,58,29.92,6,353,10,NA,81,64,84,36,60,55,30.04,29.81,17,0,10,10,22,0,8,0,"",0,0,0,NA,NA,0,0,11,73,97,NA,NA,435,381
2014-07-10 12:00:00,0,0,0,0,NA,NA,NA,0,0,0,71,56,30.13,5,91,10,NA,78,63,87,33,61,47,30.17,30.06,15,0,10,10,20,0,6,0,"",0,0,0,NA,NA,0,0,11,79,108,NA,NA,441,392
2014-07-11 12:00:00,0,0,0,0,NA,NA,NA,0,0,0,73,54,30.14,7,171,10,NA,83,63,72,20,60,48,30.2,30.07,14,4,10,10,22,0,8,NA,"",0,0,0,NA,NA,0,0,11,87,119,NA,NA,449,403
2014-07-12 12:00:00,1,1,0,0,NA,NA,NA,0,1,0,76,70,30,11,193,6,NA,81,70,97,48,77,60,30.08,29.81,25,0,10,0,26,0,11,3.31,"",0,0,0,NA,NA,0,0,11,98,130,NA,NA,460,414
2014-07-13 12:00:00,0,1,0,0,NA,NA,NA,0,1,0,79,67,29.87,10,266,9,NA,86,71,96,34,72,58,29.92,29.82,17,6,10,2,28,0,14,0.04,"",0,0,0,NA,NA,0,0,11,112,141,NA,NA,474,425
2014-07-14 12:00:00,0,1,0,0,NA,NA,NA,0,0,0,73,57,29.83,7,299,9,NA,81,64,90,35,66,49,29.9,29.76,21,0,10,1,24,0,8,0.37,"",0,0,0,NA,NA,0,0,11,120,152,NA,NA,482,436
2014-07-15 12:00:00,0,1,0,0,NA,NA,NA,0,0,0,64,53,29.91,10,291,10,NA,71,57,86,44,58,48,29.97,29.83,24,5,10,7,13,1,0,0.05,"",0,1,0,NA,NA,1,0,11,120,163,NA,NA,482,447
2014-07-16 12:00:00,0,0,0,0,NA,NA,NA,0,0,0,65,51,30,7,354,10,NA,73,56,96,31,57,45,30.04,29.96,17,4,10,10,14,0,0,0,"",0,1,0,NA,NA,1,0,11,120,174,NA,NA,482,458
2014-07-17 12:00:00,0,0,0,0,NA,NA,NA,0,0,0,68,52,30.08,5,162,10,NA,78,58,75,36,58,48,30.1,30.03,15,0,10,10,18,0,3,0,"",0,1,0,NA,NA,1,0,11,123,185,NA,NA,485,469
2014-07-18 12:00:00,0,0,0,0,NA,NA,NA,0,0,0,73,55,30.12,6,165,10,NA,81,64,75,34,58,49,30.17,30.07,17,0,10,10,22,0,8,0,"",0,1,0,NA,NA,1,0,11,131,196,NA,NA,493,480
2014-07-19 12:00:00,0,0,0,0,NA,NA,NA,0,0,0,71,56,30.04,4,100,10,NA,80,62,78,31,60,52,30.09,29.99,14,0,10,10,22,0,6,0,"",0,1,0,NA,NA,1,0,11,137,207,NA,NA,499,491
2014-07-20 12:00:00,0,0,0,0,NA,NA,NA,0,0,0,75,59,30.02,4,221,9,NA,84,66,79,31,62,55,30.07,29.99,13,0,10,7,24,0,10,0,"",0,1,0,NA,NA,1,0,11,147,218,NA,NA,509,502
2014-07-21 12:00:00,0,0,0,0,NA,NA,NA,0,0,0,78,63,30.04,8,191,10,NA,87,68,81,35,66,62,30.09,30,14,0,10,10,28,0,13,0,"",0,1,0,NA,NA,1,0,11,160,229,NA,NA,522,513
2014-07-22 12:00:00,0,1,0,0,NA,NA,NA,0,1,0,82,70,29.97,13,210,10,NA,91,72,87,49,76,64,30.06,29.89,23,5,10,3,31,0,17,0.19,"",0,1,0,NA,NA,1,0,11,177,240,NA,NA,539,524
2014-07-23 12:00:00,0,1,0,0,NA,NA,NA,0,1,0,70,57,30.09,17,21,10,NA,76,64,94,35,73,50,30.14,29.98,25,9,10,9,20,0,5,0,"",0,1,0,NA,NA,1,0,11,182,251,NA,NA,544,535
2014-07-24 12:00:00,0,0,0,0,NA,NA,NA,0,0,0,68,52,30.11,8,40,10,NA,75,60,82,30,57,45,30.16,30.04,15,5,10,10,16,0,3,0,"",0,1,0,NA,NA,1,0,11,185,262,NA,NA,547,546
2014-07-25 12:00:00,0,0,0,0,NA,NA,NA,0,0,0,69,56,29.98,9,203,10,NA,77,60,72,50,60,51,30.08,29.88,20,4,10,10,18,0,4,NA,"",0,1,0,NA,NA,1,0,11,189,273,NA,NA,551,557
2014-07-26 12:00:00,0,0,0,0,NA,NA,NA,0,0,0,78,67,29.81,8,231,10,NA,85,70,87,59,72,60,29.89,29.77,15,0,10,7,26,0,13,0,"",0,1,0,NA,NA,1,0,11,202,284,NA,NA,564,568
2014-07-27 12:00:00,0,0,0,0,NA,NA,NA,0,0,0,78,64,29.76,14,284,8,NA,89,66,94,27,72,55,29.88,29.67,30,0,10,3,28,0,13,0.04,"",0,1,0,NA,NA,1,0,11,215,295,NA,NA,577,579
2014-07-28 12:00:00,0,0,0,0,NA,NA,NA,0,0,0,68,50,30.01,12,5,10,NA,73,62,67,28,54,43,30.07,29.9,25,0,10,10,18,0,3,0,"",0,1,0,NA,NA,1,0,11,218,306,NA,NA,580,590
2014-07-29 12:00:00,0,0,0,0,NA,NA,NA,0,0,0,71,55,30.01,8,275,10,NA,81,60,78,40,58,52,30.05,29.97,22,0,10,10,20,0,6,0,"",0,1,0,NA,NA,1,0,11,224,317,NA,NA,586,601
2014-07-30 12:00:00,0,0,0,0,NA,NA,NA,0,0,0,71,58,30,5,283,10,NA,80,61,84,40,61,54,30.04,29.98,14,0,10,8,21,0,6,0,"",0,1,0,NA,NA,1,0,11,230,328,NA,NA,592,612
2014-07-31 12:00:00,0,0,0,0,NA,NA,NA,0,0,0,74,59,30.01,9,244,10,NA,85,63,88,29,62,56,30.05,29.99,18,0,10,6,24,0,9,0,"",0,1,0,NA,NA,1,1,10,239,338,NA,NA,601,622
2014-08-01 12:00:00,0,1,0,0,NA,NA,NA,0,1,0,75,61,30.06,7,243,10,NA,83,67,84,43,66,55,30.11,30.01,29,4,10,6,24,0,10,0.21,"",0,0,0,NA,NA,1,1,10,10,10,NA,NA,611,632
2014-08-02 12:00:00,0,0,0,0,NA,NA,NA,0,0,0,74,56,30.1,5,55,10,NA,84,63,84,26,60,51,30.14,30.05,10,0,10,10,23,0,9,0,"",0,0,0,NA,NA,1,1,10,19,20,NA,NA,620,642
2014-08-03 12:00:00,0,0,0,0,NA,NA,NA,0,0,0,77,62,30.09,7,202,10,NA,87,66,73,35,65,55,30.16,30.04,15,0,10,10,26,0,12,0,"",0,0,0,NA,NA,1,1,10,31,30,NA,NA,632,652
2014-08-04 12:00:00,0,1,0,0,NA,NA,NA,0,1,0,78,65,30.05,9,307,8,NA,88,68,96,33,68,61,30.11,30,21,4,10,1,28,0,13,1.79,"",0,0,0,NA,NA,1,1,10,44,40,NA,NA,645,662
2014-08-05 12:00:00,0,1,0,0,NA,NA,NA,0,1,0,74,66,30.03,5,6,7,NA,80,68,100,58,68,62,30.07,29.99,13,0,10,2,24,0,9,0.07,"",0,0,0,NA,NA,1,1,10,53,50,NA,NA,654,672
2014-08-06 12:00:00,0,0,0,0,NA,NA,NA,0,0,0,73,58,30.04,6,15,10,NA,81,65,88,29,64,48,30.07,30.01,13,0,10,10,22,0,8,0,"",0,0,0,NA,NA,1,1,10,61,60,NA,NA,662,682
2014-08-07 12:00:00,0,0,0,0,NA,NA,NA,0,0,0,75,60,30.05,9,87,10,NA,81,69,87,38,65,54,30.1,30.01,16,4,10,10,24,0,10,0,"",0,0,0,NA,NA,1,1,10,71,70,NA,NA,672,692
2014-08-08 12:00:00,0,0,0,0,NA,NA,NA,0,0,0,76,61,30.04,11,77,10,NA,82,70,78,37,65,56,30.09,30.01,20,6,10,10,26,0,11,0,"",0,0,0,NA,NA,1,1,10,82,80,NA,NA,683,702
2014-08-09 12:00:00,0,0,0,0,NA,NA,NA,0,0,0,74,59,30.06,11,62,10,NA,80,68,73,40,65,55,30.09,30.02,17,5,10,10,24,0,9,0,"",0,0,0,NA,NA,1,1,10,91,90,NA,NA,692,712
2014-08-10 12:00:00,0,0,0,0,NA,NA,NA,0,0,0,77,62,29.99,8,43,10,NA,82,71,71,43,65,56,30.05,29.93,14,5,10,10,26,0,12,0,"",0,0,0,NA,NA,1,1,10,103,100,NA,NA,704,722
2014-08-11 12:00:00,0,1,0,0,NA,NA,NA,0,1,0,76,67,29.85,8,345,9,NA,84,68,94,52,70,63,29.94,29.75,23,0,10,2,26,0,11,1.16,"",0,0,0,NA,NA,1,1,10,114,110,NA,NA,715,732
2014-08-12 12:00:00,0,1,0,0,NA,NA,NA,0,0,0,67,60,29.84,11,305,9,NA,70,63,94,63,66,55,29.95,29.71,23,0,10,3,16,0,2,0.16,"",0,0,0,NA,NA,1,1,10,116,120,NA,NA,717,742
2014-08-13 12:00:00,0,0,0,0,NA,NA,NA,0,0,0,71,58,29.99,8,304,10,NA,83,59,84,39,64,53,30.04,29.96,21,0,10,10,22,0,6,0,"",0,0,0,NA,NA,1,1,10,122,130,NA,NA,723,752
2014-08-14 12:00:00,0,0,0,0,NA,NA,NA,0,0,0,67,51,30.06,9,52,10,NA,73,61,76,34,59,44,30.11,30.01,16,4,10,10,18,0,2,0,"",0,0,0,NA,NA,1,1,10,124,140,NA,NA,725,762
2014-08-15 12:00:00,0,0,0,0,NA,NA,NA,0,0,0,67,50,30.03,6,235,10,NA,79,55,75,26,57,44,30.09,29.95,14,0,10,10,17,0,2,0,"",0,0,0,NA,NA,1,1,10,126,150,NA,NA,727,772
2014-08-16 12:00:00,0,0,0,0,NA,NA,NA,0,0,0,73,64,29.91,8,218,10,NA,81,64,81,56,68,56,29.94,29.87,15,5,10,10,22,0,8,0,"",0,0,0,NA,NA,1,1,9,134,159,NA,NA,735,781
2014-08-17 12:00:00,0,0,0,0,NA,NA,NA,0,0,0,69,65,29.95,9,21,8,NA,72,66,94,73,67,63,29.98,29.9,15,0,10,4,19,0,4,0,"",0,0,0,NA,NA,1,1,9,138,168,NA,NA,739,790
2014-08-18 12:00:00,0,0,0,0,NA,NA,NA,0,0,0,76,65,29.86,6,302,9,NA,85,67,94,47,70,63,29.94,29.76,15,0,10,6,25,0,11,0,"",0,0,0,NA,NA,1,1,9,149,177,NA,NA,750,799
2014-08-19 12:00:00,0,1,0,0,NA,NA,NA,0,1,0,80,68,29.72,12,226,9,NA,86,73,87,38,72,62,29.77,29.67,29,5,10,3,28,0,15,0.13,"",0,0,0,NA,NA,1,1,9,164,186,NA,NA,765,808
2014-08-20 12:00:00,0,0,0,0,NA,NA,NA,0,0,0,78,66,29.84,8,245,10,NA,87,68,84,38,71,64,29.95,29.76,21,0,10,10,28,0,13,0,"",0,0,0,NA,NA,1,1,9,177,195,NA,NA,778,817
2014-08-21 12:00:00,0,1,0,0,NA,NA,NA,0,1,0,77,72,29.93,6,183,7,NA,83,71,100,73,75,66,29.98,29.88,17,0,10,1,26,0,12,1.29,"",0,0,0,NA,NA,1,1,9,189,204,NA,NA,790,826
2014-08-22 12:00:00,0,1,0,0,NA,NA,NA,0,1,0,81,73,29.92,7,217,7,NA,87,74,100,52,75,71,29.98,29.88,16,0,10,1,30,0,16,3.17,"",0,0,0,NA,NA,1,1,9,205,213,NA,NA,806,835
2014-08-23 12:00:00,0,1,0,0,NA,NA,NA,0,1,0,79,72,29.96,4,76,7,NA,87,71,94,65,75,69,30.05,29.87,25,0,10,1,30,0,14,0.5,"",0,0,0,NA,NA,1,1,9,219,222,NA,NA,820,844
2014-08-24 12:00:00,0,0,0,0,NA,NA,NA,0,0,0,81,72,29.97,7,116,10,NA,89,73,94,55,76,69,30.01,29.93,13,4,10,8,30,0,16,0,"",0,0,0,NA,NA,1,1,9,235,231,NA,NA,836,853
2014-08-25 12:00:00,1,1,0,0,NA,NA,NA,0,1,0,83,72,29.99,7,176,9,NA,92,73,91,62,78,66,30.05,29.91,36,0,10,0,32,0,18,0.78,"",0,0,0,NA,NA,1,1,9,253,240,NA,NA,854,862
2014-08-26 12:00:00,0,1,0,0,NA,NA,NA,0,1,0,79,68,30.05,6,190,10,NA,86,72,85,50,73,66,30.16,29.99,31,0,10,10,28,0,14,0,"",0,0,0,NA,NA,1,1,8,267,248,NA,NA,868,870
2014-08-27 12:00:00,0,0,0,0,NA,NA,NA,0,0,0,76,64,30.1,7,60,10,NA,81,70,84,50,68,61,30.14,30.08,15,0,10,10,26,0,11,0,"",0,0,0,NA,NA,1,1,8,278,256,NA,NA,879,878
2014-08-28 12:00:00,0,1,0,0,NA,NA,NA,0,0,0,73,61,30.07,9,80,10,NA,77,69,84,48,67,56,30.13,30.01,15,4,10,9,23,0,8,0.02,"",0,0,0,NA,NA,1,1,8,286,264,NA,NA,887,886
2014-08-29 12:00:00,0,0,0,0,NA,NA,NA,0,0,0,81,70,29.92,11,173,10,NA,88,73,81,52,74,66,29.99,29.84,17,7,10,9,30,0,16,0,"",0,0,0,NA,NA,1,1,8,302,272,NA,NA,903,894
2014-08-30 12:00:00,0,0,0,0,NA,NA,NA,0,0,0,80,69,29.83,12,221,10,NA,86,74,85,43,72,66,29.9,29.8,25,5,10,7,30,0,15,NA,"",0,0,0,NA,NA,1,1,7,317,279,NA,NA,918,901
2014-08-31 12:00:00,0,0,0,0,NA,NA,NA,0,0,0,79,68,29.89,8,202,10,NA,87,71,87,40,71,65,29.95,29.83,16,4,10,10,28,0,14,0,"",0,0,0,NA,NA,1,5,7,331,288,NA,NA,932,910
2014-09-01 12:00:00,0,0,0,0,NA,NA,NA,0,0,0,80,69,29.77,13,217,10,NA,85,74,91,47,75,66,29.84,29.7,22,8,10,10,28,0,15,NA,"",1,0,1,0,1,1,6,7,15,7,15,7,947,917
2014-09-02 12:00:00,0,0,0,0,NA,NA,NA,0,0,0,77,62,29.87,7,262,10,NA,85,69,91,25,69,54,29.94,29.81,17,0,10,10,26,0,12,0,"",1,0,2,0,2,1,7,7,27,14,27,14,959,924
2014-09-03 12:00:00,0,0,0,0,NA,NA,NA,0,0,0,76,62,29.97,7,215,10,NA,85,67,87,39,64,58,30.04,29.93,16,0,10,10,25,0,11,0,"",1,0,3,0,3,1,8,7,38,21,38,21,970,931
2014-09-04 12:00:00,0,1,0,0,NA,NA,NA,0,1,0,80,68,29.94,13,191,10,NA,87,73,88,53,74,64,30.05,29.86,22,5,10,7,30,0,15,0.22,"",1,0,4,0,4,1,9,7,53,28,53,28,985,938
2014-09-05 12:00:00,0,1,0,0,NA,NA,NA,0,1,0,78,70,29.94,12,273,9,NA,89,67,94,58,75,58,30.06,29.87,30,5,10,0,28,0,13,0.43,"",1,0,5,0,5,1,10,6,66,34,66,34,998,944
2014-09-06 12:00:00,0,0,0,0,NA,NA,NA,0,0,0,69,54,30.12,8,359,10,NA,76,62,84,31,62,47,30.18,30.04,15,0,10,10,19,0,4,0,"",1,0,6,0,6,1,11,6,70,40,70,40,1002,950
2014-09-07 12:00:00,0,0,0,0,NA,NA,NA,0,0,0,69,52,30.16,5,126,10,NA,79,58,81,27,57,47,30.21,30.11,13,0,10,10,19,0,4,0,"",1,0,7,0,7,1,12,6,74,46,74,46,1006,956
2014-09-08 12:00:00,0,0,0,0,NA,NA,NA,0,0,0,70,54,30.07,6,168,10,NA,79,60,77,33,56,52,30.14,29.98,15,0,10,10,19,0,5,0,"",1,0,8,0,8,1,13,6,79,52,79,52,1011,962
2014-09-09 12:00:00,0,1,0,0,NA,NA,NA,0,0,0,74,61,29.93,9,186,10,NA,81,66,75,54,66,55,30,29.83,16,4,10,9,23,0,9,0.01,"",1,0,9,0,9,1,14,5,88,57,88,57,1020,967
2014-09-10 12:00:00,0,1,0,0,NA,NA,NA,0,0,0,70,66,29.66,16,195,7,NA,82,58,94,64,73,52,29.84,29.52,28,7,10,2,22,0,5,1.61,"",1,0,10,0,10,1,15,5,93,62,93,62,1025,972
2014-09-11 12:00:00,0,0,0,0,NA,NA,NA,0,0,0,55,45,30.13,11,341,10,NA,58,52,80,59,50,43,30.29,29.88,16,8,10,10,4,10,0,0,"",1,10,11,10,11,11,16,5,93,67,93,67,1025,977
2014-09-12 12:00:00,0,1,0,0,NA,NA,NA,0,0,0,52,47,30.28,12,341,7,NA,57,46,93,63,52,43,30.33,30.25,18,6,10,2,2,13,0,0.1,"",2,23,13,23,13,24,18,5,93,72,93,72,1025,982
2014-09-13 12:00:00,0,0,0,0,NA,NA,NA,0,0,0,51,41,30.33,7,320,10,NA,60,42,93,42,44,40,30.38,30.27,17,0,10,7,1,14,0,0.01,"",2,37,15,37,15,38,20,4,93,76,93,76,1025,986
2014-09-14 12:00:00,0,0,0,0,NA,NA,NA,0,0,0,57,44,30.26,5,210,10,NA,67,46,86,32,46,42,30.34,30.17,14,0,10,10,6,8,0,0,"",2,45,17,45,17,46,22,4,93,80,93,80,1025,990
2014-09-15 12:00:00,0,1,0,0,NA,NA,NA,0,0,0,58,51,30.13,6,289,10,NA,62,54,88,61,54,46,30.18,30.08,16,0,10,9,7,7,0,NA,"",2,52,19,52,19,53,24,4,93,84,93,84,1025,994
2014-09-16 12:00:00,0,0,0,0,NA,NA,NA,0,0,0,58,47,30.15,5,342,10,NA,69,47,93,28,52,40,30.21,30.08,12,0,10,10,7,7,0,0,"",2,59,21,59,21,60,26,4,93,88,93,88,1025,998
2014-09-17 12:00:00,0,0,0,0,NA,NA,NA,0,0,0,61,47,30.02,4,163,10,NA,72,49,86,28,52,44,30.07,29.97,13,0,10,10,10,4,0,0,"",2,63,23,63,23,64,28,3,93,91,93,91,1025,1001
2014-09-18 12:00:00,0,0,0,0,NA,NA,NA,0,0,0,63,54,30.11,6,23,10,NA,72,53,90,55,58,48,30.15,30.03,14,0,10,7,12,2,0,0,"",3,65,26,65,26,66,31,3,93,94,93,94,1025,1004
2014-09-19 12:00:00,0,0,0,0,NA,NA,NA,0,0,0,67,49,30.07,11,169,10,NA,76,57,90,21,58,44,30.17,29.92,20,0,10,8,16,0,2,0,"",3,65,29,65,29,66,34,3,95,97,95,97,1027,1007
2014-09-20 12:00:00,0,1,0,0,NA,NA,NA,0,0,0,72,62,29.84,12,218,10,NA,80,63,87,59,69,51,29.94,29.71,24,6,10,8,20,0,7,0.12,"",3,65,32,65,32,66,37,3,102,100,102,100,1034,1010
2014-09-21 12:00:00,0,1,0,0,NA,NA,NA,0,1,0,61,53,29.9,13,315,10,NA,70,52,87,51,66,45,30.13,29.69,25,7,10,6,13,4,0,NA,"",3,69,35,69,35,70,40,3,102,103,102,103,1034,1013
2014-09-22 12:00:00,0,0,0,0,NA,NA,NA,0,0,0,59,45,30.24,6,331,10,NA,69,48,83,37,47,42,30.29,30.14,12,0,10,10,8,6,0,0,"",4,75,39,75,39,76,44,2,102,105,102,105,1034,1015
2014-09-23 12:00:00,0,0,0,0,NA,NA,NA,0,0,0,63,48,30.3,6,186,10,NA,76,50,76,27,53,42,30.35,30.26,13,0,10,10,12,2,0,0,"",4,77,43,77,43,78,48,2,102,107,102,107,1034,1017
2014-09-24 12:00:00,0,0,0,0,NA,NA,NA,0,0,0,66,51,30.3,5,129,10,NA,77,54,84,30,57,45,30.36,30.25,15,0,10,10,16,0,1,0,"",4,77,47,77,47,78,52,2,103,109,103,109,1035,1019
2014-09-25 12:00:00,0,0,0,0,NA,NA,NA,0,0,0,68,54,30.24,4,145,10,NA,78,58,86,33,58,50,30.29,30.2,12,0,10,10,18,0,3,0,"",5,77,52,77,52,78,57,2,106,111,106,111,1038,1021
2014-09-26 12:00:00,0,0,0,0,NA,NA,NA,0,0,0,70,55,30.22,5,91,10,NA,81,59,83,27,59,50,30.26,30.19,13,0,10,9,20,0,5,0,"",5,77,57,77,57,78,62,2,111,113,111,113,1043,1023
2014-09-27 12:00:00,0,0,0,0,NA,NA,NA,0,0,0,70,57,30.2,5,91,10,NA,79,61,84,33,61,51,30.25,30.15,10,0,10,9,20,0,5,0,"",5,77,62,77,62,78,67,2,116,115,116,115,1048,1025
2014-09-28 12:00:00,0,0,0,0,NA,NA,NA,0,0,0,69,58,30.11,3,59,9,NA,79,58,93,38,60,55,30.16,30.04,9,0,10,5,18,0,4,0,"",6,77,68,77,68,78,73,2,120,117,120,117,1052,1027
2014-09-29 12:00:00,0,1,0,0,NA,NA,NA,0,0,0,71,57,29.99,8,312,10,NA,84,57,90,31,59,53,30.03,29.9,18,0,10,6,22,0,6,NA,"",6,77,74,77,74,78,79,2,126,119,126,119,1058,1029
2014-09-30 12:00:00,0,1,0,0,NA,NA,NA,0,0,0,56,49,30.02,11,16,9,NA,61,51,92,61,55,48,30.05,29.98,15,4,10,3,6,9,0,NA,"",6,86,80,86,77,87,82,2,126,119,126,119,1058,1029
2014-10-01 12:00:00,0,0,0,0,NA,NA,NA,0,0,0,63,50,29.98,9,108,10,NA,73,52,89,44,55,46,30.05,29.87,15,4,10,3,12,2,0,NA,"",7,2,7,88,84,89,89,1,0,1,126,120,1058,1030
2014-10-02 12:00:00,0,1,0,0,NA,NA,NA,0,1,0,71,63,29.77,8,165,8,NA,75,66,97,61,67,54,29.88,29.61,18,0,10,2,20,0,6,0.71,"",7,2,14,88,91,89,96,1,6,2,132,121,1064,1031
2014-10-03 12:00:00,0,1,0,0,NA,NA,NA,0,0,0,57,53,29.62,16,264,8,NA,68,46,100,50,67,30,29.81,29.43,24,4,10,1,7,8,0,1.05,"",7,10,21,96,98,97,103,1,6,3,132,122,1064,1032
2014-10-04 12:00:00,0,1,1,0,NA,NA,NA,0,0,0,43,34,29.75,14,255,10,NA,49,37,86,41,41,27,29.8,29.71,25,9,10,7,0,22,0,0.05,"",7,32,28,118,105,119,110,1,6,4,132,123,1064,1033
2014-10-05 12:00:00,0,1,0,0,NA,NA,NA,0,0,0,49,36,29.71,11,226,10,NA,56,42,76,37,43,32,29.77,29.65,21,5,10,10,0,16,0,NA,"",8,48,36,134,113,135,118,1,6,5,132,124,1064,1034
2014-10-06 12:00:00,0,0,0,0,NA,NA,NA,0,0,0,56,40,29.61,11,228,10,NA,63,48,80,26,48,34,29.69,29.57,21,4,10,10,5,9,0,0.01,"",8,57,44,143,121,144,126,1,6,6,132,125,1064,1035
2014-10-07 12:00:00,0,0,0,0,NA,NA,NA,0,0,0,59,44,29.7,12,238,10,NA,69,49,80,29,52,38,29.85,29.63,23,8,10,10,9,6,0,0,"",8,63,52,149,129,150,134,1,6,7,132,126,1064,1036
2014-10-08 12:00:00,0,0,0,0,NA,NA,NA,0,0,0,58,37,29.98,11,263,10,NA,67,48,74,16,42,31,30.04,29.87,20,6,10,10,8,7,0,0,"",9,70,61,156,138,157,143,1,6,8,132,127,1064,1037
2014-10-09 12:00:00,0,0,0,0,NA,NA,NA,0,0,0,57,36,30.09,7,11,10,NA,64,50,63,32,39,31,30.14,30.03,10,0,10,10,6,8,0,0,"",9,78,70,164,147,165,152,1,6,9,132,128,1064,1038
2014-10-10 12:00:00,0,0,0,0,NA,NA,NA,0,0,0,52,41,30.16,5,10,10,NA,59,44,80,46,44,34,30.19,30.12,12,0,10,10,2,13,0,0,"",9,91,79,177,156,178,161,1,6,10,132,129,1064,1039
2014-10-11 12:00:00,0,0,0,0,NA,NA,NA,0,0,0,50,36,30.21,5,74,10,NA,60,40,82,21,41,30,30.27,30.16,13,0,10,10,1,15,0,0,"",10,106,89,192,166,193,171,1,6,11,132,130,1064,1040
2014-10-12 12:00:00,0,0,0,0,NA,NA,NA,0,0,0,55,44,30.01,10,145,9,NA,64,45,93,45,56,34,30.16,29.87,20,5,10,2,4,10,0,0.01,"",10,116,99,202,176,203,181,1,6,12,132,131,1064,1041
2014-10-13 12:00:00,0,1,0,0,NA,NA,NA,0,1,0,65,62,29.73,9,150,5,NA,71,59,94,79,66,57,29.88,29.5,21,0,10,2,15,0,0,0.44,"",10,116,109,202,186,203,191,1,6,13,132,132,1064,1042
2014-10-14 12:00:00,0,1,0,0,NA,NA,NA,0,0,0,61,59,29.53,9,164,6,NA,67,54,96,81,63,52,29.65,29.43,20,0,10,2,10,4,0,1.18,"",11,120,120,206,197,207,202,0,6,13,132,132,1064,1042
2014-10-15 12:00:00,0,1,0,0,NA,NA,NA,0,0,0,56,52,29.74,10,347,5,NA,58,53,97,82,54,51,29.82,29.65,15,7,10,2,6,9,0,0.07,"",11,129,131,215,208,216,213,0,6,13,132,132,1064,1042
2014-10-16 12:00:00,0,1,0,0,NA,NA,NA,0,0,0,56,52,29.79,8,271,7,NA,58,53,97,74,53,50,29.86,29.67,15,5,10,1,6,9,0,NA,"",11,138,142,224,219,225,224,0,6,13,132,132,1064,1042
2014-10-17 12:00:00,0,0,0,0,NA,NA,NA,0,0,0,56,48,29.69,13,266,10,NA,63,49,93,58,52,42,29.88,29.56,25,7,10,10,7,9,0,0.01,"",11,147,153,233,230,234,235,0,6,13,132,132,1064,1042
2014-10-18 12:00:00,0,1,0,0,NA,NA,NA,0,0,0,46,40,30.08,9,337,10,NA,52,39,82,56,43,34,30.23,29.9,21,4,10,10,0,19,0,0.02,"",12,166,165,252,242,253,247,0,6,13,132,132,1064,1042
2014-10-19 12:00:00,0,0,0,0,NA,NA,NA,0,0,0,47,39,30.12,9,210,10,NA,57,36,89,43,45,33,30.24,29.93,18,0,10,10,0,18,0,0,"",12,184,177,270,254,271,259,0,6,13,132,132,1064,1042
2014-10-20 12:00:00,0,0,0,0,NA,NA,NA,0,0,0,58,46,29.89,9,308,10,NA,66,50,83,51,50,42,29.99,29.81,17,5,10,10,7,7,0,0,"",12,191,189,277,266,278,271,0,6,13,132,132,1064,1042
2014-10-21 12:00:00,0,0,0,0,NA,NA,NA,0,0,0,52,41,30.16,12,3,10,NA,54,49,74,50,45,38,30.27,29.99,21,7,10,10,0,13,0,0,"",13,204,202,290,279,291,284,0,6,13,132,132,1064,1042
2014-10-22 12:00:00,0,0,0,0,NA,NA,NA,0,0,0,50,38,30.31,5,115,10,NA,56,43,76,38,41,36,30.38,30.26,12,0,10,10,0,15,0,0,"",13,219,215,305,292,306,297,0,6,13,132,132,1064,1042
2014-10-23 12:00:00,0,0,0,0,NA,NA,NA,0,0,0,52,40,30.17,8,187,9,NA,62,41,89,36,43,38,30.27,30.06,13,5,10,5,2,13,0,NA,"",13,232,228,318,305,319,310,0,6,13,132,132,1064,1042
2014-10-24 12:00:00,0,0,0,0,NA,NA,NA,0,0,0,61,48,30.01,6,223,10,NA,68,54,77,41,52,44,30.07,29.93,12,0,10,9,10,4,0,0,"",14,236,242,322,319,323,324,0,6,13,132,132,1064,1042
2014-10-25 12:00:00,0,0,0,0,NA,NA,NA,0,0,0,64,43,29.92,10,275,8,NA,75,52,93,10,56,26,29.97,29.89,23,5,10,3,14,1,0,0,"",14,237,256,323,333,324,338,0,6,13,132,132,1064,1042
2014-10-26 12:00:00,0,0,0,0,NA,NA,NA,0,0,0,55,32,29.96,5,60,10,NA,66,44,58,15,42,26,30.04,29.87,12,0,10,10,4,10,0,0,"",14,247,270,333,347,334,352,0,6,13,132,132,1064,1042
2014-10-27 12:00:00,0,1,0,0,NA,NA,NA,0,0,0,67,51,29.67,14,185,10,NA,79,54,76,30,61,33,29.84,29.57,25,6,10,10,16,0,2,0.02,"",15,247,285,333,362,334,367,0,8,13,134,132,1066,1042
2014-10-28 12:00:00,0,1,0,0,NA,NA,NA,0,0,0,57,42,29.83,15,255,10,NA,66,48,87,30,59,34,29.98,29.63,26,8,10,7,8,8,0,0.03,"",15,255,300,341,377,342,382,0,8,13,134,132,1066,1042
2014-10-29 12:00:00,0,0,0,0,NA,NA,NA,0,0,0,45,33,30.08,9,279,10,NA,49,40,68,42,35,30,30.16,29.97,20,0,10,10,0,20,0,0,"",16,275,316,361,393,362,398,0,8,13,134,132,1066,1042
2014-10-30 12:00:00,0,0,0,0,NA,NA,NA,0,0,0,45,35,30.12,7,230,10,NA,53,37,83,43,37,32,30.17,30.05,14,0,10,10,0,20,0,NA,"",16,295,332,381,409,382,414,0,8,13,134,132,1066,1042
2014-10-31 12:00:00,0,1,1,0,NA,NA,NA,0,0,0,42,30,30.19,23,340,8,NA,49,34,89,45,39,25,30.35,30.02,40,8,10,1,0,23,0,0.04,"",16,318,348,404,426,405,431,0,8,16,134,135,1066,1045
2014-11-01 12:00:00,0,0,1,0,NA,NA,NA,0,0,0,39,28,30.42,11,17,10,NA,44,33,85,38,31,25,30.47,30.35,24,0,10,10,0,26,0,NA,"",17,26,17,430,443,431,448,0,0,0,134,135,1066,1045
2014-11-02 12:00:00,0,0,0,0,NA,NA,NA,0,0,0,41,26,30.35,10,198,10,NA,53,29,89,16,31,20,30.46,30.2,20,0,10,10,0,24,0,0,"",17,50,34,454,460,455,465,0,0,0,134,135,1066,1045
2014-11-03 12:00:00,0,0,0,0,NA,NA,NA,0,0,0,55,34,30.06,15,209,10,NA,64,45,53,23,44,25,30.19,29.94,25,10,10,10,4,10,0,0,"",18,60,52,464,478,465,483,0,0,0,134,135,1066,1045
2014-11-04 12:00:00,0,1,0,0,NA,NA,NA,0,0,0,53,43,29.96,15,234,10,NA,61,45,87,36,52,37,30.1,29.89,23,10,10,8,4,12,0,0.02,"",18,72,70,476,496,477,501,0,0,0,134,135,1066,1045
2014-11-05 12:00:00,0,1,0,0,NA,NA,NA,0,0,0,51,37,30.06,10,213,10,NA,63,39,86,26,40,33,30.17,29.85,20,5,10,10,1,14,0,NA,"",18,86,88,490,514,491,519,0,0,0,134,135,1066,1045
2014-11-06 12:00:00,0,0,0,0,NA,NA,NA,0,0,0,46,34,29.99,17,314,10,NA,52,40,80,43,44,25,30.23,29.77,29,9,10,10,0,19,0,NA,"",19,105,107,509,533,510,538,0,0,0,134,135,1066,1045
2014-11-07 12:00:00,0,0,0,0,NA,NA,NA,0,0,0,41,27,30.09,9,223,10,NA,45,37,63,34,32,25,30.23,29.83,16,4,10,10,0,24,0,0,"",19,129,126,533,552,534,557,0,0,0,134,135,1066,1045
2014-11-08 12:00:00,0,0,0,0,NA,NA,NA,0,0,0,44,31,29.87,12,280,10,NA,49,39,80,33,39,24,29.98,29.74,24,6,10,10,0,21,0,NA,"",20,150,146,554,572,555,577,0,0,0,134,135,1066,1045
2014-11-09 12:00:00,0,0,0,0,NA,NA,NA,0,0,0,45,30,29.87,10,213,10,NA,53,36,67,34,36,25,29.97,29.77,25,5,10,10,0,20,0,0,"",20,170,166,574,592,575,597,0,0,0,134,135,1066,1045
2014-11-10 12:00:00,0,0,0,0,NA,NA,NA,0,0,0,55,40,29.68,12,171,10,NA,65,44,74,33,43,36,29.83,29.53,26,4,10,10,4,10,0,0,"",21,180,187,584,613,585,618,0,0,0,134,135,1066,1045
2014-11-11 12:00:00,0,1,0,0,NA,NA,NA,0,0,0,47,35,29.82,15,277,9,NA,61,33,89,47,46,21,30.17,29.57,24,8,10,2,0,18,0,0.23,"",21,198,208,602,634,603,639,0,0,0,134,135,1066,1045
2014-11-12 12:00:00,0,0,1,0,NA,NA,NA,0,0,0,30,16,30.3,13,281,10,NA,33,27,64,35,21,12,30.34,30.18,20,10,10,10,0,35,0,NA,"",22,233,230,637,656,638,661,0,0,0,134,135,1066,1045
2014-11-13 12:00:00,0,0,1,0,NA,NA,NA,0,0,0,29,16,30.33,12,293,9,NA,31,26,69,42,18,14,30.35,30.3,18,7,10,2,0,36,0,NA,"",22,269,252,673,678,674,683,0,0,0,134,135,1066,1045
2014-11-14 12:00:00,0,0,1,0,NA,NA,NA,0,0,0,27,14,30.38,7,273,10,NA,29,24,69,39,17,12,30.41,30.31,14,4,10,9,0,38,0,NA,"",23,307,275,711,701,712,706,0,0,0,134,135,1066,1045
2014-11-15 12:00:00,0,0,1,0,NA,NA,NA,0,0,0,27,15,30.35,6,232,10,NA,33,21,78,31,21,12,30.43,30.24,14,0,10,9,0,38,0,NA,"",23,345,298,749,724,750,729,0,0,0,134,135,1066,1045
2014-11-16 12:00:00,0,0,1,0,NA,NA,NA,0,0,0,29,23,30.06,9,222,8,NA,33,25,82,54,27,17,30.22,29.91,18,5,10,2,0,36,0,NA,"",24,381,322,785,748,786,753,0,0,0,134,135,1066,1045
2014-11-17 12:00:00,0,0,1,0,NA,NA,NA,0,0,0,19,6,29.96,16,268,9,NA,25,13,74,37,14,1,30.04,29.88,30,9,10,3,0,46,0,NA,"",24,427,346,831,772,832,777,0,0,0,134,135,1066,1045
2014-11-18 12:00:00,0,0,1,0,NA,NA,NA,0,0,0,17,5,30.12,16,251,10,NA,21,12,73,35,8,3,30.2,29.98,26,8,10,9,0,48,0,NA,"",25,475,371,879,797,880,802,0,0,0,134,135,1066,1045
2014-11-19 12:00:00,0,0,1,0,NA,NA,NA,0,0,0,26,13,29.94,15,238,10,NA,33,19,66,34,18,6,30.1,29.81,26,10,10,8,0,39,0,NA,"",25,514,396,918,822,919,827,0,0,0,134,135,1066,1045
2014-11-20 12:00:00,0,0,0,0,NA,NA,NA,0,0,0,24,7,30.16,15,275,10,NA,30,17,71,19,13,2,30.38,30.05,25,7,10,10,0,41,0,0,"",26,555,422,959,848,960,853,0,0,0,134,135,1066,1045
2014-11-21 12:00:00,0,1,0,0,NA,NA,NA,0,0,0,25,6,30.4,8,196,10,NA,36,13,68,12,13,1,30.53,30.2,16,0,10,10,0,40,0,NA,"",26,595,448,999,874,1000,879,0,0,0,134,135,1066,1045
2014-11-22 12:00:00,0,1,0,0,NA,NA,NA,0,0,0,44,39,29.99,12,204,7,NA,54,34,93,41,47,15,30.18,29.86,21,8,10,2,0,21,0,0.05,"",27,616,475,1020,901,1021,906,0,0,0,134,135,1066,1045
2014-11-23 12:00:00,0,1,0,0,NA,NA,NA,0,0,0,52,47,29.57,10,173,8,NA,54,50,97,66,51,42,29.86,29.09,17,4,10,5,2,13,0,0.62,"",27,629,502,1033,928,1034,933,0,0,0,134,135,1066,1045
2014-11-24 12:00:00,1,1,1,0,NA,NA,NA,0,0,0,39,34,29.39,19,245,6,NA,51,27,96,65,50,20,29.87,29.08,32,5,10,0,0,26,0,0.35,"",28,655,530,1059,956,1060,961,0,0,0,134,135,1066,1045
2014-11-25 12:00:00,0,0,1,0,NA,NA,NA,0,0,0,26,17,30.1,12,249,9,NA,30,22,81,61,21,16,30.25,29.89,22,6,10,2,0,39,0,NA,"",28,694,558,1098,984,1099,989,0,0,0,134,135,1066,1045
2014-11-26 12:00:00,0,0,1,0,NA,NA,NA,0,0,0,27,20,30.19,6,126,9,NA,32,22,85,55,24,17,30.23,30.15,14,0,10,5,0,38,0,NA,"",29,732,587,1136,1013,1137,1018,0,0,0,134,135,1066,1045
2014-11-27 12:00:00,0,0,1,0,NA,NA,NA,0,0,0,25,17,30.36,10,310,9,NA,30,19,78,51,22,9,30.45,30.23,20,0,10,5,0,40,0,NA,"",29,772,616,1176,1042,1177,1047,0,0,0,134,135,1066,1045
2014-11-28 12:00:00,0,0,1,0,NA,NA,NA,0,0,0,28,19,30.18,10,174,10,NA,36,20,76,49,29,9,30.43,29.93,18,0,10,9,0,37,0,NA,"",30,809,646,1213,1072,1214,1077,0,0,0,134,135,1066,1045
2014-11-29 12:00:00,0,0,0,0,NA,NA,NA,0,0,0,44,39,29.7,14,196,10,NA,54,33,89,63,49,27,29.9,29.61,23,6,10,7,0,21,0,0,"",30,830,676,1234,1102,1235,1107,0,0,0,134,135,1066,1045
2014-11-30 12:00:00,0,0,0,0,NA,NA,NA,0,0,0,43,39,29.89,13,279,8,NA,56,29,93,61,50,17,30.32,29.64,22,8,10,4,0,22,0,NA,"",31,852,707,1256,1130,1257,1135,0,0,0,134,135,1066,1045
2014-12-01 12:00:00,0,0,1,0,NA,NA,NA,0,0,0,25,8,30.6,13,11,10,NA,29,21,69,20,18,-2,30.7,30.35,20,10,10,8,0,40,0,NA,"",31,40,31,NA,NA,1297,1166,0,0,0,NA,NA,1066,1045
2014-12-02 12:00:00,0,0,1,0,NA,NA,NA,0,0,0,28,22,30.25,10,196,9,NA,33,22,85,53,28,13,30.57,30.08,21,0,10,2,0,37,0,NA,"",31,77,62,NA,NA,1334,1197,0,0,0,NA,NA,1066,1045
2014-12-03 12:00:00,0,0,0,0,NA,NA,NA,0,0,0,33,20,30.26,11,264,10,NA,39,26,81,31,24,13,30.41,30.08,17,4,10,7,0,32,0,0,"",32,109,94,NA,NA,1366,1229,0,0,0,NA,NA,1066,1045
2014-12-04 12:00:00,0,0,0,0,NA,NA,NA,0,0,0,31,20,30.38,8,82,10,NA,37,25,65,37,25,11,30.45,30.26,14,4,10,8,0,34,0,0,"",32,143,126,NA,NA,1400,1261,0,0,0,NA,NA,1066,1045
2014-12-05 12:00:00,0,0,0,0,NA,NA,NA,0,0,0,38,32,30.23,6,106,5,NA,41,35,89,64,35,25,30.28,30.18,13,0,8,2,0,27,0,0,"",33,170,159,NA,NA,1427,1294,0,0,0,NA,NA,1066,1045
2014-12-06 12:00:00,0,0,0,0,NA,NA,NA,0,0,0,39,30,30.5,13,15,8,NA,43,34,83,48,35,25,30.67,30.26,24,7,10,2,0,26,0,0,"",33,196,192,NA,NA,1453,1327,0,0,0,NA,NA,1066,1045
2014-12-07 12:00:00,0,0,0,0,NA,NA,NA,0,0,0,35,22,30.55,9,129,10,NA,39,30,72,37,27,18,30.68,30.32,14,5,10,10,0,30,0,0,"",34,226,226,NA,NA,1483,1361,0,0,0,NA,NA,1066,1045
2014-12-08 12:00:00,0,1,0,0,NA,NA,NA,0,0,0,37,33,30.1,10,219,5,NA,39,35,96,63,38,27,30.3,30.01,15,7,10,1,0,28,0,0.1,"",34,254,260,NA,NA,1511,1395,0,0,0,NA,NA,1066,1045
2014-12-09 12:00:00,0,1,1,0,NA,NA,NA,0,0,0,37,33,30.31,13,345,7,NA,40,33,93,71,35,27,30.41,30.12,20,9,10,3,0,28,0,0.02,"",34,282,294,NA,NA,1539,1429,0,0,0,NA,NA,1066,1045
2014-12-10 12:00:00,0,0,1,0,NA,NA,NA,0,0,0,34,27,30.36,10,337,9,NA,36,31,79,62,28,23,30.42,30.29,14,7,10,7,0,31,0,NA,"",35,313,329,NA,NA,1570,1464,0,0,0,NA,NA,1066,1045
2014-12-11 12:00:00,0,0,0,0,NA,NA,NA,0,0,0,30,22,30.29,9,276,8,NA,34,26,85,52,24,20,30.32,30.24,14,6,10,6,0,35,0,0,"",35,348,364,NA,NA,1605,1499,0,0,0,NA,NA,1066,1045
2014-12-12 12:00:00,1,0,1,0,NA,NA,NA,0,0,0,32,28,30.31,9,260,5,NA,39,25,96,76,34,21,30.38,30.26,16,5,10,0,0,33,0,NA,"",35,381,399,NA,NA,1638,1534,0,0,0,NA,NA,1066,1045
2014-12-13 12:00:00,0,0,0,0,NA,NA,NA,0,0,0,43,39,30.19,9,234,6,NA,49,37,87,72,45,33,30.27,30.1,18,5,10,2,0,22,0,0,"",36,403,435,NA,NA,1660,1570,0,0,0,NA,NA,1066,1045
2014-12-14 12:00:00,0,1,0,0,NA,NA,NA,0,0,0,50,46,30.07,10,202,6,NA,53,47,97,77,47,44,30.12,30.02,16,5,10,2,0,15,0,NA,"",36,418,471,NA,NA,1675,1606,0,0,0,NA,NA,1066,1045
2014-12-15 12:00:00,0,1,0,0,NA,NA,NA,0,0,0,46,43,29.85,11,166,2,NA,48,43,93,81,45,41,30,29.67,17,5,5,1,0,19,0,0.12,"",36,437,507,NA,NA,1694,1642,0,0,0,NA,NA,1066,1045
2014-12-16 12:00:00,1,1,1,0,NA,NA,NA,0,0,0,40,39,29.82,11,270,6,NA,47,32,97,63,44,23,30.16,29.64,23,0,10,0,0,25,0,0.02,"",36,462,543,NA,NA,1719,1678,0,0,0,NA,NA,1066,1045
2014-12-17 12:00:00,0,0,1,0,NA,NA,NA,0,0,0,29,18,30.27,11,291,10,NA,32,26,75,51,23,16,30.34,30.17,18,7,10,10,0,36,0,NA,"",37,498,580,NA,NA,1755,1715,0,0,0,NA,NA,1066,1045
2014-12-18 12:00:00,0,0,1,0,NA,NA,NA,0,0,0,28,18,30.3,5,276,10,NA,31,25,69,52,21,16,30.36,30.25,10,0,10,9,0,37,0,NA,"",37,535,617,NA,NA,1792,1752,0,0,0,NA,NA,1066,1045
2014-12-19 12:00:00,0,0,1,0,NA,NA,NA,0,0,0,32,23,30.32,4,286,10,NA,34,29,79,52,25,22,30.36,30.3,12,0,10,7,0,33,0,NA,"",37,568,654,NA,NA,1825,1789,0,0,0,NA,NA,1066,1045
2014-12-20 12:00:00,0,0,1,0,NA,NA,NA,0,0,0,34,26,30.3,6,204,9,NA,35,32,80,59,27,25,30.33,30.25,10,4,10,8,0,31,0,NA,"",37,599,691,NA,NA,1856,1826,0,0,0,NA,NA,1066,1045
2014-12-21 12:00:00,0,0,0,0,NA,NA,NA,0,0,0,36,28,30.17,10,165,10,NA,38,34,79,60,30,27,30.28,30.06,16,6,10,9,0,29,0,0,"",38,628,729,NA,NA,1885,1864,0,0,0,NA,NA,1066,1045
2014-12-22 12:00:00,0,1,0,0,NA,NA,NA,0,0,0,38,34,29.8,10,123,5,NA,44,31,93,70,41,26,30.03,29.58,18,6,10,2,0,27,0,0.28,"",38,655,767,NA,NA,1912,1902,0,0,0,NA,NA,1066,1045
2014-12-23 12:00:00,0,1,0,0,NA,NA,NA,0,0,0,46,41,29.67,10,199,8,NA,50,42,97,50,46,36,29.78,29.55,21,5,10,1,0,19,0,0.12,"",38,674,805,NA,NA,1931,1940,0,0,0,NA,NA,1066,1045
2014-12-24 12:00:00,0,1,0,0,NA,NA,NA,0,0,0,41,35,29.6,8,295,9,NA,43,38,89,64,38,33,29.72,29.49,18,0,10,5,0,24,0,0.12,"",38,698,843,NA,NA,1955,1978,0,0,0,NA,NA,1066,1045
2014-12-25 12:00:00,0,0,0,0,NA,NA,NA,0,0,0,40,32,29.93,14,223,10,NA,44,35,83,52,35,29,30.05,29.69,21,9,10,10,0,25,0,0,"",38,723,881,NA,NA,1980,2016,0,0,0,NA,NA,1066,1045
2014-12-26 12:00:00,0,0,0,0,NA,NA,NA,0,0,0,45,37,30.04,10,201,10,NA,51,38,83,53,43,32,30.07,30.01,17,6,10,10,0,20,0,0,"",39,743,920,NA,NA,2000,2055,0,0,0,NA,NA,1066,1045
2014-12-27 12:00:00,0,1,0,0,NA,NA,NA,0,0,0,41,37,30.03,14,239,9,NA,50,32,93,56,47,25,30.13,29.97,29,9,10,6,0,24,0,NA,"",39,767,959,NA,NA,2024,2094,0,0,0,NA,NA,1066,1045
2014-12-28 12:00:00,0,0,0,0,NA,NA,NA,0,0,0,31,19,30.21,8,259,10,NA,36,26,78,32,24,16,30.3,30.14,17,4,10,10,0,34,0,0,"",39,801,998,NA,NA,2058,2133,0,0,0,NA,NA,1066,1045
2014-12-29 12:00:00,0,0,0,0,NA,NA,NA,0,0,0,30,20,30.39,9,358,10,NA,35,24,80,46,25,12,30.53,30.3,15,4,10,10,0,35,0,0,"",39,836,1037,NA,NA,2093,2172,0,0,0,NA,NA,1066,1045
2014-12-30 12:00:00,0,0,0,0,NA,NA,NA,0,0,0,19,1,30.66,11,313,10,NA,24,13,71,17,9,-6,30.72,30.54,16,8,10,10,0,46,0,0,"",39,882,1076,NA,NA,2139,2211,0,0,0,NA,NA,1066,1045
2014-12-31 12:00:00,0,0,0,0,NA,NA,NA,0,0,0,13,-1,30.45,15,248,10,NA,20,6,64,26,3,-8,30.66,30.21,24,10,10,10,0,52,0,0,"",39,934,1115,NA,NA,2191,2251,0,0,0,NA,NA,1066,1045
2015-01-01 12:00:00,0,0,0,0,NA,NA,NA,0,0,0,25,11,30.12,15,241,10,NA,32,17,63,33,16,4,30.19,30.01,24,6,10,10,0,40,0,0,"",39,40,39,NA,NA,2231,2290,0,0,0,NA,NA,0,0
2015-01-02 12:00:00,0,0,0,0,NA,NA,NA,0,0,0,28,19,30.28,5,193,10,NA,36,20,82,39,22,15,30.36,30.14,10,0,10,10,0,37,0,0,"",40,77,79,NA,NA,2268,2330,0,0,0,NA,NA,0,0
2015-01-03 12:00:00,0,1,1,0,NA,NA,NA,0,0,0,34,32,29.91,5,42,3,NA,37,31,100,61,36,22,30.17,29.76,12,0,10,1,0,31,0,0.55,"",40,108,119,NA,NA,2299,2370,0,0,0,NA,NA,0,0
2015-01-04 12:00:00,0,1,1,0,NA,NA,2,0,0,0,21,22,30.01,13,305,4,NA,36,5,97,44,35,-5,30.56,29.71,24,5,10,0,0,44,0,0.1,"",40,152,159,NA,NA,2343,2410,0,0,0,NA,NA,0,0
2015-01-05 12:00:00,0,0,1,0,NA,NA,3,0,0,0,5,-3,30.56,10,252,6,NA,10,-1,84,45,5,-10,30.73,30.37,17,0,10,0,0,60,0,0.11,"",40,212,199,NA,NA,2403,2450,0,0,0,NA,NA,0,0
2015-01-06 12:00:00,0,0,1,0,NA,NA,3,0,0,0,9,2,30.37,13,295,7,NA,12,5,80,50,5,-1,30.46,30.3,25,0,10,1,0,56,0,NA,"",40,268,239,NA,NA,2459,2490,0,0,0,NA,NA,0,0
2015-01-07 12:00:00,0,0,0,0,NA,NA,2,0,0,0,2,-10,30.71,16,302,10,NA,8,-4,67,31,-2,-14,30.86,30.4,26,9,10,10,0,63,0,0,"",40,331,279,NA,NA,2522,2530,0,0,0,NA,NA,0,0
2015-01-08 12:00:00,0,0,1,0,NA,NA,3,0,0,0,7,1,30.11,17,219,4,NA,20,-7,84,54,14,-14,30.71,29.83,29,10,10,0,0,58,0,0.05,"",40,389,319,NA,NA,2580,2570,0,0,0,NA,NA,0,0
2015-01-09 12:00:00,0,0,1,0,NA,NA,3,0,0,0,10,-3,30.3,16,278,8,NA,16,3,77,49,9,-7,30.51,29.93,30,12,10,1,0,55,0,NA,"",40,444,359,NA,NA,2635,2610,0,0,0,NA,NA,0,0
2015-01-10 12:00:00,0,0,0,0,NA,NA,3,0,0,0,13,3,30.44,13,215,10,NA,26,0,79,40,13,-6,30.52,30.32,24,7,10,10,0,52,0,0,"",40,496,399,NA,NA,2687,2650,0,0,0,NA,NA,0,0
2015-01-11 12:00:00,0,0,1,0,NA,NA,3,0,0,0,30,23,30.28,10,206,6,NA,34,25,92,43,28,14,30.32,30.24,16,5,10,0,0,35,0,0.12,"",40,531,439,NA,NA,2722,2690,0,0,0,NA,NA,0,0
2015-01-12 12:00:00,0,0,1,0,NA,NA,4,0,0,0,25,16,30.5,13,345,7,NA,30,19,96,53,29,10,30.71,30.24,24,0,10,2,0,40,0,0.03,"",40,571,479,NA,NA,2762,2730,0,0,0,NA,NA,0,0
2015-01-13 12:00:00,0,0,1,0,NA,NA,4,0,0,0,18,9,30.67,8,83,10,NA,23,13,81,49,13,7,30.78,30.49,20,0,10,7,0,47,0,NA,"",40,618,519,NA,NA,2809,2770,0,0,0,NA,NA,0,0
2015-01-14 12:00:00,0,0,0,0,NA,NA,3,0,0,0,13,7,30.38,7,212,10,NA,21,5,84,53,12,0,30.49,30.25,14,4,10,7,0,52,0,0,"",40,670,559,NA,NA,2861,2810,0,0,0,NA,NA,0,0
2015-01-15 12:00:00,0,0,0,0,NA,NA,3,0,0,0,27,19,30.09,11,230,10,NA,36,17,81,53,24,12,30.24,30,21,6,10,7,0,38,0,0,"",40,708,599,NA,NA,2899,2850,0,0,0,NA,NA,0,0
2015-01-16 12:00:00,0,0,0,0,NA,NA,3,0,0,0,29,24,30.15,7,157,8,NA,35,22,93,56,28,19,30.23,30.03,14,0,10,4,0,36,0,0,"",40,744,639,NA,NA,2935,2890,0,0,0,NA,NA,0,0
2015-01-17 12:00:00,0,0,0,0,NA,NA,2,0,0,0,37,31,29.74,16,215,9,NA,44,30,79,54,34,25,29.99,29.63,25,8,10,4,0,28,0,0,"",40,772,679,NA,NA,2963,2930,0,0,0,NA,NA,0,0
2015-01-18 12:00:00,0,0,0,0,NA,NA,NA,0,0,0,37,30,29.84,11,266,10,NA,43,31,89,46,32,28,30.03,29.68,21,6,10,10,0,28,0,0,"",40,800,719,NA,NA,2991,2970,0,0,0,NA,NA,0,0
2015-01-19 12:00:00,0,1,1,0,NA,NA,NA,0,0,0,35,29,30,5,103,9,NA,43,27,92,63,32,25,30.06,29.89,12,0,10,2,0,30,0,NA,"",40,830,759,NA,NA,3021,3010,0,0,0,NA,NA,0,0
2015-01-20 12:00:00,0,0,0,0,NA,NA,NA,0,0,0,37,32,29.93,7,354,5,NA,40,33,93,72,34,31,30.03,29.85,14,0,10,2,0,28,0,0.01,"",40,858,799,NA,NA,3049,3050,0,0,0,NA,NA,0,0
2015-01-21 12:00:00,0,0,1,0,NA,NA,NA,0,0,0,34,28,30.1,7,357,8,NA,36,31,92,55,32,22,30.31,29.97,14,0,10,2,0,31,0,NA,"",40,889,839,NA,NA,3080,3090,0,0,0,NA,NA,0,0
2015-01-22 12:00:00,0,0,0,0,NA,NA,NA,0,0,0,32,24,30.42,6,271,10,NA,34,30,76,59,25,22,30.47,30.3,15,4,10,4,0,33,0,0,"",40,922,879,NA,NA,3113,3130,0,0,0,NA,NA,0,0
2015-01-23 12:00:00,0,0,0,0,NA,NA,NA,0,0,0,32,24,30.13,12,230,8,NA,34,30,79,59,26,23,30.38,29.85,17,8,10,4,0,33,0,0,"",40,955,919,NA,NA,3146,3170,0,0,0,NA,NA,0,0
2015-01-24 12:00:00,0,0,0,0,NA,NA,NA,0,0,0,39,29,29.72,9,267,10,NA,45,32,85,57,34,25,29.81,29.65,17,0,10,8,0,26,0,0,"",40,981,959,NA,NA,3172,3210,0,0,0,NA,NA,0,0
2015-01-25 12:00:00,0,1,1,0,NA,NA,1,0,0,0,32,28,29.82,16,44,6,NA,38,26,93,54,34,17,30.02,29.67,26,6,10,1,0,33,0,0.06,"",40,1014,999,NA,NA,3205,3250,0,0,0,NA,NA,0,0
2015-01-26 12:00:00,0,0,1,0,NA,NA,1,0,0,0,25,21,29.95,6,159,6,NA,29,21,89,57,25,15,30.03,29.87,16,0,10,1,0,40,0,0.04,"",40,1054,1039,NA,NA,3245,3290,0,0,0,NA,NA,0,0
2015-01-27 12:00:00,0,0,1,0,NA,NA,1,0,0,0,29,21,30.15,6,60,8,NA,33,24,89,46,26,17,30.31,29.91,14,0,10,2,0,36,0,NA,"",40,1090,1079,NA,NA,3281,3330,0,0,0,NA,NA,0,0
2015-01-28 12:00:00,0,1,0,0,NA,NA,NA,0,0,0,30,20,30.15,11,167,10,NA,36,24,81,41,25,16,30.34,29.84,21,0,10,5,0,35,0,0.03,"",40,1125,1119,NA,NA,3316,3370,0,0,0,NA,NA,0,0
2015-01-29 12:00:00,0,0,1,0,NA,NA,NA,0,0,0,35,26,30,15,309,9,NA,39,31,78,39,30,20,30.35,29.71,24,6,10,3,0,30,0,NA,"",40,1155,1159,NA,NA,3346,3410,0,0,0,NA,NA,0,0
2015-01-30 12:00:00,0,0,1,0,NA,NA,NA,0,0,0,28,12,30.48,8,307,10,NA,32,23,68,25,21,8,30.58,30.32,23,0,10,9,0,37,0,NA,"",40,1192,1199,NA,NA,3383,3450,0,0,0,NA,NA,0,0
2015-01-31 12:00:00,0,1,1,0,NA,NA,NA,0,0,0,31,25,30.24,8,221,8,NA,39,23,89,53,31,15,30.38,30.14,17,0,10,1,0,34,0,0.13,"",40,1226,1239,NA,NA,3417,3496,0,0,0,NA,NA,0,0
2015-02-01 12:00:00,1,0,1,0,NA,NA,16,0,0,0,27,25,29.88,17,48,1,NA,33,21,92,83,31,18,30.16,29.74,30,8,2,0,0,38,0,0.12,"",40,38,40,NA,NA,3455,3536,0,0,0,NA,NA,0,0
2015-02-02 12:00:00,1,0,1,0,NA,NA,17,0,0,0,16,8,30.15,13,299,7,NA,22,9,85,43,18,1,30.31,29.88,25,7,10,0,0,49,0,NA,"",39,87,79,NA,NA,3504,3575,0,0,0,NA,NA,0,0
2015-02-03 12:00:00,1,0,1,0,NA,NA,17,0,0,0,19,17,30.13,7,197,6,NA,30,8,88,57,25,3,30.24,30.03,15,0,10,0,0,46,0,0.05,"",39,133,118,NA,NA,3550,3614,0,0,0,NA,NA,0,0
2015-02-04 12:00:00,0,0,1,0,NA,NA,16,0,0,0,21,16,30.17,9,328,5,NA,30,12,92,55,26,0,30.45,29.98,18,0,10,1,0,44,0,NA,"",39,177,157,NA,NA,3594,3653,0,0,0,NA,NA,0,0
2015-02-05 12:00:00,0,0,0,0,NA,NA,16,0,0,0,10,0,30.46,9,258,10,NA,17,3,85,32,6,-3,30.56,30.31,18,4,10,10,0,55,0,0,"",39,232,196,NA,NA,3649,3692,0,0,0,NA,NA,0,0
2015-02-06 12:00:00,0,0,0,0,NA,NA,15,0,0,0,24,15,30.18,9,198,10,NA,32,15,78,51,23,7,30.3,30,15,4,10,8,0,41,0,0,"",39,273,235,NA,NA,3690,3731,0,0,0,NA,NA,0,0
2015-02-07 12:00:00,0,0,0,0,NA,NA,14,0,0,0,35,31,29.8,9,195,10,NA,44,25,88,58,37,22,29.96,29.63,15,5,10,8,0,30,0,0,"",38,303,273,NA,NA,3720,3769,0,0,0,NA,NA,0,0
2015-02-08 12:00:00,0,1,0,0,NA,NA,7,0,0,0,37,33,29.77,11,360,5,NA,42,31,92,79,35,28,30.01,29.59,22,0,10,1,0,28,0,NA,"",38,331,311,NA,NA,3748,3807,0,0,0,NA,NA,0,0
2015-02-09 12:00:00,0,0,1,0,NA,NA,4,0,0,0,29,22,30.18,14,8,8,NA,31,26,86,62,26,19,30.3,30.02,23,7,10,5,0,36,0,NA,"",38,367,349,NA,NA,3784,3845,0,0,0,NA,NA,0,0
2015-02-10 12:00:00,0,0,1,0,NA,NA,4,0,0,0,29,19,30.22,8,107,10,NA,33,25,78,36,22,13,30.3,30.07,18,4,10,8,0,36,0,NA,"",38,403,387,NA,NA,3820,3883,0,0,0,NA,NA,0,0
2015-02-11 12:00:00,0,0,1,0,NA,NA,4,0,0,0,30,24,30.05,13,271,9,NA,38,21,82,54,30,10,30.15,29.98,24,7,10,7,0,35,0,NA,"",37,438,424,NA,NA,3855,3920,0,0,0,NA,NA,0,0
2015-02-12 12:00:00,0,0,1,0,NA,NA,3,0,0,0,16,1,30.41,14,319,9,NA,21,11,74,26,10,-2,30.53,30.16,28,5,10,1,0,49,0,NA,"",37,487,461,NA,NA,3904,3957,0,0,0,NA,NA,0,0
2015-02-13 12:00:00,0,0,1,0,NA,NA,3,0,0,0,18,9,30.21,11,231,10,NA,29,7,76,49,19,0,30.47,29.91,20,5,10,9,0,47,0,NA,"",37,534,498,NA,NA,3951,3994,0,0,0,NA,NA,0,0
2015-02-14 12:00:00,0,0,1,0,NA,NA,3,0,0,0,17,3,30.12,20,319,8,NA,29,4,78,26,21,-11,30.54,29.78,37,8,10,1,0,48,0,NA,"",37,582,535,NA,NA,3999,4031,0,0,0,NA,NA,0,0
2015-02-15 12:00:00,0,0,1,0,NA,NA,3,0,0,0,9,0,30.55,9,54,7,NA,17,0,81,35,6,-12,30.64,30.43,18,0,10,1,0,56,0,NA,"",36,638,571,NA,NA,4055,4067,0,0,0,NA,NA,0,0
2015-02-16 12:00:00,0,0,0,0,NA,NA,3,0,0,0,14,-4,30.21,5,178,10,NA,19,8,59,21,5,-11,30.43,30.01,10,0,10,10,0,51,0,0,"",36,689,607,NA,NA,4106,4103,0,0,0,NA,NA,0,0
2015-02-17 12:00:00,0,0,1,0,NA,NA,3,0,0,0,17,8,29.97,12,269,8,NA,22,11,80,35,14,-1,30.04,29.9,21,7,10,2,0,48,0,NA,"",36,737,643,NA,NA,4154,4139,0,0,0,NA,NA,0,0
2015-02-18 12:00:00,0,0,1,0,NA,NA,3,0,0,0,6,-6,30.11,15,299,9,NA,11,0,73,27,-1,-15,30.32,29.85,24,8,10,2,0,59,0,NA,"",35,796,678,NA,NA,4213,4174,0,0,0,NA,NA,0,0
2015-02-19 12:00:00,0,0,0,0,NA,NA,3,0,0,0,1,-14,30.42,11,302,10,NA,7,-5,58,25,-10,-17,30.47,30.33,21,4,10,10,0,64,0,0,"",35,860,713,NA,NA,4277,4209,0,0,0,NA,NA,0,0
2015-02-20 12:00:00,0,0,1,0,NA,NA,3,0,0,0,10,0,30.23,13,185,9,NA,20,-1,68,40,8,-10,30.45,30.03,22,4,10,2,0,55,0,NA,"",35,915,748,NA,NA,4332,4244,0,0,0,NA,NA,0,0
2015-02-21 12:00:00,0,0,0,0,NA,NA,3,0,0,0,26,18,30.03,5,158,9,NA,33,19,82,49,22,10,30.19,29.93,12,0,10,6,0,39,0,0,"",34,954,782,NA,NA,4371,4278,0,0,0,NA,NA,0,0
2015-02-22 12:00:00,0,0,0,0,NA,NA,3,0,0,0,19,5,30.47,13,326,10,NA,30,7,72,27,22,-9,30.73,30.2,20,6,10,7,0,46,0,0,"",34,1000,816,NA,NA,4417,4312,0,0,0,NA,NA,0,0
2015-02-23 12:00:00,0,0,0,0,NA,NA,3,0,0,0,8,-9,30.65,10,285,10,NA,15,0,63,23,-5,-13,30.8,30.35,18,4,10,10,0,57,0,0,"",34,1057,850,NA,NA,4474,4346,0,0,0,NA,NA,0,0
2015-02-24 12:00:00,0,0,1,0,NA,NA,3,0,0,0,19,8,29.9,15,237,9,NA,32,6,69,35,22,-4,30.31,29.71,26,9,10,2,0,46,0,NA,"",33,1103,883,NA,NA,4520,4379,0,0,0,NA,NA,0,0
2015-02-25 12:00:00,1,0,1,0,NA,NA,5,0,0,0,22,13,30.01,9,38,5,NA,28,16,89,25,20,0,30.07,29.89,16,0,10,0,0,43,0,0.06,"",33,1146,916,NA,NA,4563,4412,0,0,0,NA,NA,0,0
2015-02-26 12:00:00,0,0,1,0,NA,NA,7,0,0,0,15,9,30.23,13,10,4,NA,22,7,86,37,17,-5,30.5,30.02,23,7,10,0,0,50,0,0.01,"",33,1196,949,NA,NA,4613,4445,0,0,0,NA,NA,0,0
2015-02-27 12:00:00,0,0,0,0,NA,NA,7,0,0,0,9,-4,30.65,7,266,10,NA,17,0,73,27,-2,-6,30.75,30.5,14,4,10,10,0,56,0,0,"",32,1252,981,NA,NA,4669,4477,0,0,0,NA,NA,0,0
2015-02-28 12:00:00,0,0,1,0,NA,NA,6,0,0,0,12,4,30.68,5,165,8,NA,23,1,87,25,16,-5,30.81,30.48,14,0,10,2,0,53,0,NA,"",32,1305,1013,NA,NA,4722,4511,0,0,0,NA,NA,0,0
2015-03-01 12:00:00,0,0,1,0,NA,NA,6,0,0,0,23,16,30.38,7,242,9,NA,27,18,93,57,21,11,30.49,30.28,17,0,10,2,0,42,0,0.01,"",32,42,32,NA,NA,4764,4543,0,0,0,NA,NA,0,0
2015-03-02 12:00:00,0,0,0,0,NA,NA,6,0,0,0,25,13,30.47,7,245,10,NA,34,16,77,29,19,9,30.58,30.28,14,0,10,9,0,40,0,0,"",31,82,63,NA,NA,4804,4574,0,0,0,NA,NA,0,0
2015-03-03 12:00:00,0,1,1,0,NA,NA,5,0,0,0,32,26,29.87,13,206,6,NA,37,27,93,51,34,16,30.26,29.64,23,8,10,1,0,33,0,0.1,"",31,115,94,NA,NA,4837,4605,0,0,0,NA,NA,0,0
2015-03-04 12:00:00,0,0,0,0,NA,NA,4,0,0,0,24,9,30.16,12,303,10,NA,33,14,75,30,24,-2,30.4,29.89,22,7,10,10,0,41,0,0,"",31,156,125,NA,NA,4878,4636,0,0,0,NA,NA,0,0
2015-03-05 12:00:00,0,0,0,0,NA,NA,4,0,0,0,14,-3,30.53,10,305,10,NA,19,8,64,28,0,-6,30.62,30.35,16,6,10,10,0,51,0,0,"",30,207,155,NA,NA,4929,4666,0,0,0,NA,NA,0,0
2015-03-06 12:00:00,0,0,0,0,NA,NA,4,0,0,0,17,8,30.38,13,204,10,NA,27,6,73,42,17,-2,30.59,30.18,24,5,10,10,0,48,0,0,"",30,255,185,NA,NA,4977,4696,0,0,0,NA,NA,0,0
2015-03-07 12:00:00,0,0,0,0,NA,NA,4,0,0,0,36,27,30.1,11,248,10,NA,46,26,79,39,30,18,30.17,30.02,21,7,10,10,0,29,0,0,"",29,284,214,NA,NA,5006,4725,0,0,0,NA,NA,0,0
2015-03-08 12:00:00,0,0,1,0,NA,NA,1,0,0,0,37,27,30.19,7,246,10,NA,42,31,82,48,31,24,30.26,30.16,15,0,10,9,0,28,0,NA,"",29,312,243,NA,NA,5034,4754,0,0,0,NA,NA,0,0
2015-03-09 12:00:00,0,0,0,0,NA,NA,1,0,0,0,40,29,30.17,6,200,9,NA,52,28,89,27,35,24,30.23,30.11,14,0,10,1,0,25,0,0,"",29,337,272,NA,NA,5059,4783,0,0,0,NA,NA,0,0
2015-03-10 12:00:00,1,0,0,0,NA,NA,NA,0,0,0,46,39,30.04,7,211,4,NA,54,38,97,57,43,35,30.12,29.96,13,4,10,0,0,19,0,0,"",28,356,300,NA,NA,5078,4811,0,0,0,NA,NA,0,0
2015-03-11 12:00:00,1,0,0,0,NA,NA,NA,0,0,0,45,33,30.24,6,13,6,NA,54,36,97,24,39,24,30.46,30.06,16,0,10,0,0,20,0,0,"",28,376,328,NA,NA,5098,4839,0,0,0,NA,NA,0,0
2015-03-12 12:00:00,0,0,0,0,NA,NA,NA,0,0,0,46,28,30.46,9,131,10,NA,58,33,76,19,31,26,30.53,30.35,20,0,10,10,0,19,0,0,"",28,395,356,NA,NA,5117,4867,0,0,0,NA,NA,0,0
2015-03-13 12:00:00,0,0,0,0,NA,NA,NA,0,0,0,53,34,30.15,7,188,10,NA,65,41,83,21,44,29,30.32,29.99,13,4,10,10,2,12,0,0,"",27,407,383,NA,NA,5129,4894,0,0,0,NA,NA,0,0
2015-03-14 12:00:00,0,0,0,0,NA,NA,NA,0,0,0,51,36,30.05,9,317,10,NA,62,40,90,23,44,32,30.21,29.97,23,0,10,8,1,14,0,0,"",27,421,410,NA,NA,5143,4921,0,0,0,NA,NA,0,0
2015-03-15 12:00:00,0,0,0,0,NA,NA,NA,0,0,0,49,34,30.16,11,211,10,NA,64,34,82,25,41,30,30.3,30,22,0,10,10,0,16,0,0,"",27,437,437,NA,NA,5159,4948,0,0,0,NA,NA,0,0
2015-03-16 12:00:00,0,0,0,0,NA,NA,NA,0,0,0,59,40,29.89,14,247,10,NA,74,44,80,26,50,35,29.99,29.73,29,6,10,10,10,6,0,0,"",26,443,463,NA,NA,5165,4974,0,0,0,NA,NA,0,0
2015-03-17 12:00:00,0,0,0,0,NA,NA,NA,0,0,0,38,22,30.24,14,40,10,NA,44,31,80,18,38,11,30.37,29.96,32,4,10,10,0,27,0,0,"",26,470,489,NA,NA,5192,5000,0,0,0,NA,NA,0,0
2015-03-18 12:00:00,0,0,0,0,NA,NA,NA,0,0,0,40,14,30.33,5,166,10,NA,50,30,64,13,21,9,30.39,30.27,15,0,10,10,0,25,0,0,"",25,495,514,NA,NA,5217,5025,0,0,0,NA,NA,0,0
2015-03-19 12:00:00,0,0,0,0,NA,NA,NA,0,0,0,46,19,30.21,9,104,10,NA,50,41,62,16,30,13,30.29,30.12,18,4,10,10,0,19,0,0,"",25,514,539,NA,NA,5236,5050,0,0,0,NA,NA,0,0
2015-03-20 12:00:00,0,0,0,0,NA,NA,NA,0,0,0,46,36,30.09,10,216,9,NA,52,39,89,50,37,31,30.14,30.03,16,5,10,5,0,19,0,0,"",25,533,564,NA,NA,5255,5075,0,0,0,NA,NA,0,0
2015-03-21 12:00:00,0,0,0,0,NA,NA,NA,0,0,0,43,33,30.14,12,61,9,NA,50,35,93,48,38,27,30.26,29.97,20,5,10,5,0,22,0,0,"",24,555,588,NA,NA,5277,5099,0,0,0,NA,NA,0,0
2015-03-22 12:00:00,0,0,1,0,NA,NA,NA,0,0,0,34,21,30.3,13,50,10,NA,37,30,73,34,26,11,30.36,30.25,18,6,10,5,0,31,0,NA,"",24,586,612,NA,NA,5308,5123,0,0,0,NA,NA,0,0
2015-03-23 12:00:00,1,0,1,0,NA,NA,4,0,0,0,31,27,30.28,12,77,5,NA,32,30,93,61,28,22,30.32,30.22,20,8,10,0,0,34,0,0.15,"",24,620,636,NA,NA,5342,5147,0,0,0,NA,NA,0,0
2015-03-24 12:00:00,0,1,0,0,NA,NA,3,0,0,0,33,22,30.23,11,106,10,NA,40,25,84,35,29,17,30.34,29.94,18,5,10,9,0,32,0,0.04,"",23,652,659,NA,NA,5374,5170,0,0,0,NA,NA,0,0
2015-03-25 12:00:00,0,1,0,0,NA,NA,NA,0,0,0,41,36,29.96,12,236,7,NA,43,38,93,74,40,32,30.07,29.77,23,6,10,1,0,24,0,0.13,"",23,676,682,NA,NA,5398,5193,0,0,0,NA,NA,0,0
2015-03-26 12:00:00,0,0,1,0,NA,NA,NA,0,0,0,40,25,30.02,10,314,10,NA,46,34,76,30,30,18,30.09,29.96,18,4,10,9,0,25,0,NA,"",23,701,705,NA,NA,5423,5216,0,0,0,NA,NA,0,0
2015-03-27 12:00:00,0,0,1,0,NA,NA,1,0,0,0,30,17,30.17,13,12,7,NA,34,25,82,27,25,10,30.26,30.07,21,7,10,1,0,35,0,0.01,"",22,735,727,NA,NA,5457,5238,0,0,0,NA,NA,0,0
2015-03-28 12:00:00,0,0,0,0,NA,NA,NA,0,0,0,29,11,30.34,7,56,10,NA,37,21,68,14,15,4,30.39,30.26,13,0,10,10,0,36,0,0,"",22,771,749,NA,NA,5493,5260,0,0,0,NA,NA,0,0
2015-03-29 12:00:00,0,1,0,0,NA,NA,NA,0,0,0,40,24,30.03,15,206,10,NA,51,28,73,31,37,12,30.32,29.79,29,5,10,10,0,25,0,0.04,"",21,796,770,NA,NA,5518,5281,0,0,0,NA,NA,0,0
2015-03-30 12:00:00,0,0,0,0,NA,NA,NA,0,0,0,51,31,29.98,10,259,10,NA,64,37,73,19,35,27,30.08,29.76,23,5,10,10,0,14,0,0,"",21,810,791,NA,NA,5532,5302,0,0,0,NA,NA,0,0
2015-03-31 12:00:00,0,0,0,0,NA,NA,NA,0,0,0,49,36,29.88,10,15,9,NA,57,41,89,38,40,33,29.99,29.69,23,4,10,2,0,16,0,0,"",21,826,812,NA,NA,5548,5323,0,0,1,NA,NA,0,1
2015-04-01 12:00:00,0,0,0,0,NA,NA,NA,0,0,0,58,36,29.96,12,193,10,NA,74,41,73,15,39,35,30.07,29.81,22,0,10,10,9,7,0,0,"",20,7,20,NA,NA,5555,5343,0,0,0,NA,NA,0,1
2015-04-02 12:00:00,0,1,0,0,NA,NA,NA,0,1,0,59,45,29.73,10,233,9,NA,68,50,90,27,56,32,29.86,29.65,20,5,10,2,9,6,0,0.27,"",20,13,40,NA,NA,5561,5363,0,0,0,NA,NA,0,1
2015-04-03 12:00:00,0,0,0,0,NA,NA,NA,0,0,0,45,30,29.97,11,348,10,NA,57,33,79,23,34,27,30.21,29.81,20,5,10,10,0,20,0,NA,"",20,33,60,NA,NA,5581,5383,0,0,0,NA,NA,0,1
2015-04-04 12:00:00,0,0,0,0,NA,NA,NA,0,0,0,46,23,30.22,12,246,10,NA,61,31,79,13,28,19,30.31,30.11,28,4,10,10,0,19,0,0,"",19,52,79,NA,NA,5600,5402,0,0,0,NA,NA,0,1
2015-04-05 12:00:00,0,0,0,0,NA,NA,NA,0,0,0,58,24,30.05,12,218,10,NA,69,47,44,8,29,17,30.12,29.97,22,7,10,10,8,7,0,0,"",19,59,98,NA,NA,5607,5421,0,0,0,NA,NA,0,1
2015-04-06 12:00:00,0,1,0,0,NA,NA,NA,0,0,0,53,36,30,9,114,10,NA,64,41,79,35,41,31,30.08,29.97,20,4,10,9,3,12,0,0.07,"",18,71,116,NA,NA,5619,5439,0,0,0,NA,NA,0,1
2015-04-07 12:00:00,0,1,0,0,NA,NA,NA,0,0,0,45,41,30.05,12,34,4,NA,49,40,93,81,46,37,30.13,30.01,18,6,10,1,0,20,0,0.04,"",18,91,134,NA,NA,5639,5457,0,0,0,NA,NA,0,1
2015-04-08 12:00:00,1,1,0,0,NA,NA,NA,0,1,0,49,43,29.95,9,51,4,NA,54,43,100,69,46,39,30,29.86,20,0,9,0,0,16,0,0.08,"",18,107,152,NA,NA,5655,5475,0,0,0,NA,NA,0,1
2015-04-09 12:00:00,0,1,0,0,NA,NA,NA,0,1,0,60,55,29.66,14,169,5,NA,74,46,100,68,67,44,29.86,29.43,36,4,10,1,10,5,0,0.95,"",17,112,169,NA,NA,5660,5492,0,0,0,NA,NA,0,1
2015-04-10 12:00:00,0,0,0,0,NA,NA,NA,0,0,0,54,37,29.85,18,264,10,NA,65,42,76,25,41,30,30.17,29.57,36,5,10,10,2,11,0,NA,"",17,123,186,NA,NA,5671,5509,0,0,0,NA,NA,0,1
2015-04-11 12:00:00,0,0,0,0,NA,NA,NA,0,0,0,52,32,30.21,7,226,10,NA,64,39,79,19,37,26,30.28,30.16,16,0,10,10,1,13,0,0,"",17,136,203,NA,NA,5684,5526,0,0,0,NA,NA,0,1
2015-04-12 12:00:00,0,0,0,0,NA,NA,NA,0,0,0,59,34,30.08,10,173,10,NA,71,47,56,15,37,32,30.17,29.94,20,5,10,10,9,6,0,0,"",16,142,219,NA,NA,5690,5542,0,0,0,NA,NA,0,1
2015-04-13 12:00:00,0,1,0,0,NA,NA,NA,0,0,0,61,40,29.99,12,258,10,NA,69,53,90,15,55,25,30.18,29.85,24,6,10,8,13,4,0,0.14,"",16,146,235,NA,NA,5694,5558,0,0,0,NA,NA,0,1
2015-04-14 12:00:00,0,0,0,0,NA,NA,NA,0,0,0,57,23,30.23,6,57,10,NA,67,46,52,8,31,14,30.28,30.18,12,0,10,10,7,8,0,0,"",15,154,250,NA,NA,5702,5573,0,0,0,NA,NA,0,1
2015-04-15 12:00:00,0,0,0,0,NA,NA,NA,0,0,0,56,28,30.22,12,76,10,NA,67,44,48,15,32,23,30.28,30.16,22,5,10,10,6,9,0,0,"",15,163,265,NA,NA,5711,5588,0,0,0,NA,NA,0,1
2015-04-16 12:00:00,0,1,0,0,NA,NA,NA,0,0,0,56,41,30.11,7,57,8,NA,64,47,90,30,45,26,30.15,30.05,14,0,10,2,4,9,0,0.34,"",15,172,280,NA,NA,5720,5603,NA,0,0,NA,NA,0,1
2015-04-17 12:00:00,0,0,0,0,NA,NA,NA,0,0,0,65,47,30.04,4,208,9,NA,80,49,89,23,52,42,30.11,29.98,13,0,10,4,14,0,0,0,"",14,172,294,NA,NA,5720,5617,0,0,0,NA,NA,0,1
2015-04-18 12:00:00,0,0,0,0,NA,NA,NA,0,0,0,59,42,30.02,10,31,10,NA,68,50,70,37,51,33,30.08,29.96,24,0,10,10,8,6,0,0,"",14,178,308,NA,NA,5726,5631,0,0,0,NA,NA,0,1
2015-04-19 12:00:00,0,1,0,0,NA,NA,NA,0,0,0,60,43,29.6,10,63,8,NA,69,51,100,25,54,28,29.95,29.26,18,6,10,2,10,5,0,0.42,"",14,183,322,NA,NA,5731,5645,1,0,1,NA,NA,0,2
2015-04-20 12:00:00,0,1,0,0,NA,NA,NA,0,0,0,50,42,29.4,17,254,8,NA,56,43,94,44,54,30,29.64,29.23,29,6,10,2,0,15,0,NA,"",13,198,335,NA,NA,5746,5658,1,0,2,NA,NA,0,3
2015-04-21 12:00:00,0,0,0,0,NA,NA,NA,0,0,0,50,27,29.65,18,262,10,NA,58,41,71,14,35,21,29.72,29.61,36,7,10,10,0,15,0,0,"",13,213,348,NA,NA,5761,5671,1,0,3,NA,NA,0,4
2015-04-22 12:00:00,0,0,0,0,NA,NA,NA,0,0,0,43,23,29.82,14,286,10,NA,49,37,65,25,27,19,29.91,29.7,22,6,10,8,0,22,0,NA,"",13,235,361,NA,NA,5783,5684,1,0,4,NA,NA,0,5
2015-04-23 12:00:00,0,0,0,0,NA,NA,NA,0,0,0,45,23,30.02,8,312,10,NA,56,34,64,10,29,15,30.07,29.93,20,0,10,10,0,20,0,0,"",12,255,373,NA,NA,5803,5696,1,0,5,NA,NA,0,6
2015-04-24 12:00:00,0,1,0,0,NA,NA,NA,0,0,0,48,26,30.02,8,75,10,NA,60,35,87,10,40,12,30.11,29.9,22,0,10,7,0,17,0,0.29,"",12,272,385,NA,NA,5820,5708,1,0,6,NA,NA,0,7
2015-04-25 12:00:00,0,1,0,0,NA,NA,NA,0,0,0,45,39,29.81,14,61,9,NA,49,40,89,58,43,32,29.88,29.73,25,8,10,3,0,20,0,0.34,"",12,292,397,NA,NA,5840,5720,1,0,7,NA,NA,0,8
2015-04-26 12:00:00,0,0,0,0,NA,NA,NA,0,0,0,48,28,30,12,17,10,NA,57,39,73,21,33,23,30.05,29.88,24,6,10,10,0,17,0,0,"",11,309,408,NA,NA,5857,5731,1,0,8,NA,NA,0,9
2015-04-27 12:00:00,0,0,0,0,NA,NA,NA,0,0,0,50,33,30.11,13,17,10,NA,56,43,68,34,36,31,30.14,30.04,23,4,10,10,0,15,0,0,"",11,324,419,NA,NA,5872,5742,1,0,9,NA,NA,0,10
2015-04-28 12:00:00,0,0,0,0,NA,NA,NA,0,0,0,49,34,30.1,5,28,10,NA,60,38,80,31,37,32,30.19,30,16,0,10,10,0,16,0,0,"",10,340,429,NA,NA,5888,5752,1,0,10,NA,NA,0,11
2015-04-29 12:00:00,0,1,0,0,NA,NA,NA,0,0,0,53,36,29.94,8,15,10,NA,64,42,74,24,37,34,29.99,29.9,17,0,10,10,3,12,0,NA,"",10,352,439,NA,NA,5900,5762,1,0,11,NA,NA,0,12
2015-04-30 12:00:00,0,0,0,0,NA,NA,NA,0,0,0,47,35,30.01,13,12,10,NA,52,42,74,45,37,32,30.12,29.9,24,0,10,10,0,18,0,0,"",10,370,449,NA,NA,5918,5771,1,0,12,NA,NA,0,13
2015-05-01 12:00:00,0,0,0,0,NA,NA,NA,0,0,0,53,39,30.13,6,36,10,NA,65,40,86,28,42,35,30.19,30.09,12,0,10,10,2,12,0,0,"",10,12,10,NA,NA,5930,5781,1,0,1,NA,NA,0,14
2015-05-02 12:00:00,0,0,0,0,NA,NA,NA,0,0,0,66,37,30.02,7,215,10,NA,79,53,62,12,42,34,30.1,29.94,16,0,10,10,16,0,1,0,"",9,12,19,NA,NA,5930,5790,1,1,2,NA,NA,1,15
2015-05-03 12:00:00,0,1,0,0,NA,NA,NA,0,0,0,71,47,29.94,11,191,10,NA,82,60,87,17,61,40,29.98,29.88,24,6,10,9,21,0,6,0.2,"",9,12,28,NA,NA,5930,5799,1,7,3,NA,NA,7,16
2015-05-04 12:00:00,0,1,0,0,NA,NA,NA,0,1,0,66,53,30.05,9,165,10,NA,74,57,75,36,59,33,30.18,29.89,20,0,10,10,15,0,1,NA,"",9,12,37,NA,NA,5930,5808,1,8,4,NA,NA,8,17
2015-05-05 12:00:00,0,1,0,0,NA,NA,NA,0,1,0,56,50,30.2,9,27,5,NA,60,51,97,39,54,35,30.23,30.16,17,4,10,1,6,9,0,0.79,"",8,21,45,NA,NA,5939,5816,1,8,5,NA,NA,8,18
2015-05-06 12:00:00,1,0,0,0,NA,NA,NA,0,0,0,67,54,30.14,6,79,4,NA,82,51,100,50,62,49,30.2,30.06,14,0,10,0,16,0,2,0,"",8,21,53,NA,NA,5939,5824,1,10,6,NA,NA,10,19
2015-05-07 12:00:00,0,0,0,0,NA,NA,NA,0,0,0,72,54,29.98,10,179,10,NA,87,57,81,20,61,48,30.06,29.88,25,0,10,10,22,0,7,0,"",8,21,61,NA,NA,5939,5832,1,17,7,NA,NA,17,20
2015-05-08 12:00:00,0,1,0,0,NA,NA,NA,0,1,0,75,63,29.93,9,197,9,NA,84,66,94,43,65,61,29.98,29.89,25,5,10,2,24,0,10,0.28,"",8,21,69,NA,NA,5939,5840,1,27,8,NA,NA,27,21
2015-05-09 12:00:00,0,1,0,0,NA,NA,NA,0,0,0,58,53,30.04,9,22,6,NA,67,49,96,70,65,45,30.1,29.93,21,0,10,1,7,7,0,0.38,"",8,28,77,NA,NA,5946,5848,1,27,9,NA,NA,27,22
2015-05-10 12:00:00,0,1,0,0,NA,NA,NA,0,0,0,53,47,30.03,8,14,5,NA,58,47,97,75,50,45,30.07,29.97,14,5,10,1,2,12,0,0.16,"",7,40,84,NA,NA,5958,5855,1,27,10,NA,NA,27,23
2015-05-11 12:00:00,0,1,0,0,NA,NA,NA,0,0,0,61,55,29.85,13,208,9,NA,71,50,93,46,63,39,29.96,29.77,28,0,10,4,10,4,0,0.14,"",7,44,91,NA,NA,5962,5862,1,27,11,NA,NA,27,24
2015-05-12 12:00:00,0,1,0,0,NA,NA,NA,0,0,0,53,38,30.08,16,276,10,NA,58,47,66,38,41,34,30.32,29.91,28,6,10,10,4,12,0,NA,"",7,56,98,NA,NA,5974,5869,2,27,13,NA,NA,27,26
2015-05-13 12:00:00,0,0,0,0,NA,NA,NA,0,0,0,49,35,30.44,10,27,10,NA,53,45,74,40,37,34,30.52,30.33,17,5,10,10,0,16,0,0,"",7,72,105,NA,NA,5990,5876,2,27,15,NA,NA,27,28
2015-05-14 12:00:00,0,1,0,0,NA,NA,NA,0,0,0,58,44,30.24,10,128,10,NA,69,46,78,34,53,34,30.4,30.03,20,6,10,8,7,7,0,0.13,"",6,79,111,NA,NA,5997,5882,2,27,17,NA,NA,27,30
2015-05-15 12:00:00,0,1,0,0,NA,NA,NA,0,0,0,70,59,29.97,10,215,9,NA,79,60,87,48,65,54,30.03,29.93,17,0,10,2,20,0,5,0.03,"",6,79,117,NA,NA,5997,5888,2,32,19,NA,NA,32,32
2015-05-16 12:00:00,0,1,0,0,NA,NA,NA,0,0,0,75,65,29.98,9,183,10,NA,82,67,87,56,68,61,30.03,29.95,16,4,10,8,24,0,10,NA,"",6,79,123,NA,NA,5997,5894,2,42,21,NA,NA,42,34
2015-05-17 12:00:00,0,0,0,0,NA,NA,NA,0,0,0,77,66,29.92,14,173,8,NA,84,69,93,49,69,62,29.99,29.82,26,7,10,2,26,0,12,NA,"",6,79,129,NA,NA,5997,5900,2,54,23,NA,NA,54,36
2015-05-18 12:00:00,0,0,0,0,NA,NA,NA,0,0,0,66,55,29.99,15,245,10,NA,81,51,87,26,65,37,30.13,29.93,25,7,10,10,16,0,1,0,"",6,79,135,NA,NA,5997,5906,2,55,25,NA,NA,55,38
2015-05-19 12:00:00,0,0,0,0,NA,NA,NA,0,0,0,49,36,30.21,11,333,10,NA,54,44,71,50,39,30,30.26,30.14,17,8,10,10,0,16,0,0,"",5,95,140,NA,NA,6013,5911,2,55,27,NA,NA,55,40
2015-05-20 12:00:00,0,1,0,0,NA,NA,NA,0,0,0,47,32,30.21,9,28,10,NA,51,43,80,28,39,24,30.27,30.14,18,0,10,10,0,18,0,0.02,"",5,113,145,NA,NA,6031,5916,2,55,29,NA,NA,55,42
2015-05-21 12:00:00,0,1,0,0,NA,NA,NA,0,0,0,59,38,30.07,9,275,10,NA,70,47,74,17,42,34,30.13,30.01,18,4,10,10,8,6,0,NA,"",5,119,150,NA,NA,6037,5921,2,55,31,NA,NA,55,44
2015-05-22 12:00:00,0,0,0,0,NA,NA,NA,0,0,0,59,37,30.19,9,64,10,NA,68,50,74,15,44,24,30.29,30.02,17,4,10,10,9,6,0,0,"",5,125,155,NA,NA,6043,5926,2,55,33,NA,NA,55,46
2015-05-23 12:00:00,0,0,0,0,NA,NA,NA,0,0,0,68,40,30.26,7,151,10,NA,83,53,55,14,45,33,30.35,30.17,15,0,10,10,18,0,3,0,"",5,125,160,NA,NA,6043,5931,3,58,36,NA,NA,58,49
2015-05-24 12:00:00,0,1,0,0,NA,NA,NA,0,0,0,69,56,30.05,7,123,10,NA,76,62,90,37,65,45,30.17,29.89,18,0,10,5,19,0,4,0.44,"",4,125,164,NA,NA,6043,5935,3,62,39,NA,NA,62,52
2015-05-25 12:00:00,0,1,0,0,NA,NA,NA,0,0,0,75,63,29.87,14,203,10,NA,81,68,90,46,67,60,29.95,29.83,28,5,10,7,24,0,10,0.06,"",4,125,168,NA,NA,6043,5939,3,72,42,NA,NA,72,55
2015-05-26 12:00:00,0,1,0,0,NA,NA,NA,0,0,0,73,65,29.84,13,191,9,NA,77,69,90,58,68,60,29.94,29.74,31,8,10,1,23,0,8,0.42,"",4,125,172,NA,NA,6043,5943,3,80,45,NA,NA,80,58
2015-05-27 12:00:00,0,1,0,0,NA,NA,NA,0,0,0,71,59,29.96,12,245,10,NA,77,64,84,43,63,54,30.12,29.82,24,0,10,6,20,0,6,0.06,"",4,125,176,NA,NA,6043,5947,3,86,48,NA,NA,86,61
2015-05-28 12:00:00,0,0,0,0,NA,NA,NA,0,0,0,72,56,30.13,7,117,10,NA,84,60,83,30,58,53,30.19,30.03,16,0,10,10,22,0,7,0,"",3,125,179,NA,NA,6043,5950,3,93,51,NA,NA,93,64
2015-05-29 12:00:00,0,1,0,0,NA,NA,NA,0,0,0,78,65,29.96,11,196,10,NA,84,71,84,47,69,58,30.03,29.87,18,6,10,4,26,0,13,0.18,"",3,125,182,NA,NA,6043,5953,3,106,54,NA,NA,106,67
2015-05-30 12:00:00,0,1,0,0,NA,NA,NA,0,0,0,59,55,30.01,14,344,7,NA,73,45,94,76,67,42,30.12,29.91,28,4,10,2,10,6,0,0.79,"",3,131,185,NA,NA,6049,5956,3,106,57,NA,NA,106,70
2015-05-31 12:00:00,0,1,0,0,NA,NA,NA,0,0,0,51,42,30.16,15,17,7,NA,57,44,93,43,45,39,30.23,30.09,22,8,10,2,0,14,0,0.05,"",3,145,188,NA,NA,6063,5959,4,106,61,NA,NA,106,74
2015-06-01 12:00:00,0,0,0,0,NA,NA,NA,0,0,0,55,42,30.23,10,39,10,NA,62,48,83,43,46,34,30.26,30.19,18,5,10,10,4,10,0,0,"",3,10,3,NA,NA,6073,5962,4,0,4,NA,NA,106,78
2015-06-02 12:00:00,0,0,0,0,NA,NA,NA,0,0,0,58,45,30.14,5,83,10,NA,71,45,83,34,50,38,30.21,30.08,15,0,10,10,8,7,0,0,"",3,17,6,NA,NA,6080,5965,4,0,8,NA,NA,106,82
2015-06-03 12:00:00,0,0,0,0,NA,NA,NA,0,0,0,67,52,30.02,7,144,10,NA,79,55,81,30,55,47,30.09,29.95,14,0,10,10,17,0,2,0,"",2,17,8,NA,NA,6080,5967,NA,2,8,NA,NA,108,82
2015-06-04 12:00:00,0,0,0,0,NA,NA,NA,0,0,0,72,60,29.98,8,202,10,NA,82,62,78,43,63,54,30.02,29.93,14,5,10,9,22,0,7,0,"",2,17,10,NA,NA,6080,5969,4,9,12,NA,NA,115,86
2015-06-05 12:00:00,0,0,0,0,NA,NA,NA,0,0,0,65,55,30.09,15,16,9,NA,73,56,90,67,63,51,30.14,29.96,26,6,10,6,15,0,0,0,"",2,17,12,NA,NA,6080,5971,5,9,17,NA,NA,115,91
2015-06-06 12:00:00,0,0,0,0,NA,NA,NA,0,0,0,64,51,30.1,9,53,10,NA,73,54,86,41,54,48,30.17,29.98,16,4,10,8,13,1,0,0,"",2,18,14,NA,NA,6081,5973,5,9,22,NA,NA,115,96
2015-06-07 12:00:00,0,1,0,0,NA,NA,NA,0,0,0,72,64,29.77,12,191,8,NA,83,60,90,62,72,51,29.96,29.64,23,4,10,2,21,0,7,0.44,"",2,18,16,NA,NA,6081,5975,5,16,27,NA,NA,122,101
2015-06-08 12:00:00,0,1,0,0,NA,NA,NA,0,1,0,75,62,29.69,11,249,10,NA,86,63,90,26,68,55,29.77,29.61,29,0,10,5,25,0,10,0.1,"",1,18,17,NA,NA,6081,5976,5,26,32,NA,NA,132,106
2015-06-09 12:00:00,0,0,0,0,NA,NA,NA,0,0,0,74,59,29.76,9,235,10,NA,87,61,84,27,63,55,29.82,29.7,17,4,10,8,24,0,9,0,"",1,18,18,NA,NA,6081,5977,5,35,37,NA,NA,141,111
2015-06-10 12:00:00,0,1,0,0,NA,NA,NA,0,1,0,83,65,29.7,13,218,10,NA,94,71,79,36,70,60,29.79,29.66,25,5,10,10,33,0,18,0.09,"",1,18,19,NA,NA,6081,5978,6,53,43,NA,NA,159,117
2015-06-11 12:00:00,0,1,0,0,NA,NA,NA,0,1,0,72,60,29.81,7,52,8,NA,79,65,93,49,65,55,29.87,29.75,16,0,10,1,22,0,7,0.2,"",1,18,20,NA,NA,6081,5979,6,60,49,NA,NA,166,123
2015-06-12 12:00:00,0,1,0,0,NA,NA,NA,0,1,0,66,63,29.82,8,348,3,NA,74,58,97,84,70,56,29.95,29.69,20,0,10,1,15,0,1,0.17,"",1,18,21,NA,NA,6081,5980,6,61,55,NA,NA,167,129
2015-06-13 12:00:00,1,1,0,0,NA,NA,NA,0,1,0,73,64,29.92,7,178,7,NA,88,58,100,57,72,56,29.97,29.85,24,0,10,0,22,0,8,0.19,"",1,18,22,NA,NA,6081,5981,6,69,61,NA,NA,175,135
2015-06-14 12:00:00,0,1,0,0,NA,NA,NA,0,1,0,78,71,29.9,9,228,8,NA,85,70,96,54,73,69,29.94,29.87,18,0,10,1,28,0,13,0.98,"",1,18,23,NA,NA,6081,5982,7,82,68,NA,NA,188,142
2015-06-15 12:00:00,1,1,0,0,NA,NA,NA,0,1,1,77,72,29.9,7,236,7,NA,83,71,97,68,74,69,29.96,29.81,24,0,10,0,26,0,12,0.24,"",1,18,24,NA,NA,6081,5983,7,94,75,NA,NA,200,149
2015-06-16 12:00:00,0,1,0,0,NA,NA,NA,0,0,0,67,57,30.07,11,22,9,NA,74,60,94,33,71,45,30.15,29.96,15,6,10,2,17,0,2,NA,"",1,18,25,NA,NA,6081,5984,7,96,82,NA,NA,202,156
2015-06-17 12:00:00,0,1,0,0,NA,NA,NA,0,0,0,65,59,30,4,49,7,NA,72,58,90,55,67,46,30.06,29.94,9,0,10,2,14,0,0,0.33,"",1,18,26,NA,NA,6081,5985,7,96,89,NA,NA,202,163
2015-06-18 12:00:00,1,1,0,0,NA,NA,NA,0,1,0,71,66,29.94,10,243,6,NA,82,59,100,46,72,53,30.03,29.89,25,0,10,0,22,0,6,0.48,"",1,18,27,NA,NA,6081,5986,8,102,97,NA,NA,208,171
2015-06-19 12:00:00,0,0,0,0,NA,NA,NA,0,0,0,63,52,30.04,11,27,10,NA,68,57,78,56,56,48,30.1,29.95,16,7,10,10,12,2,0,0,"",1,20,28,NA,NA,6083,5987,8,102,105,NA,NA,208,179
2015-06-20 12:00:00,0,1,0,0,NA,NA,NA,0,1,0,70,61,29.85,7,314,10,NA,82,57,91,53,71,48,29.94,29.74,24,0,10,6,19,0,5,0.22,"",1,20,29,NA,NA,6083,5988,8,107,113,NA,NA,213,187
2015-06-21 12:00:00,0,1,0,0,NA,NA,NA,0,0,0,79,67,29.87,9,248,10,NA,87,70,90,33,70,62,29.94,29.79,16,5,10,10,28,0,14,NA,"",0,20,29,NA,NA,6083,5988,8,121,121,NA,NA,227,195
2015-06-22 12:00:00,0,1,0,0,NA,NA,NA,0,1,0,79,72,29.84,12,206,10,NA,85,72,93,68,76,68,29.96,29.68,31,4,10,8,28,0,14,0.04,"",0,20,29,NA,NA,6083,5988,9,135,130,NA,NA,241,204
2015-06-23 12:00:00,0,0,0,0,NA,NA,NA,0,0,0,74,58,29.98,9,2,10,NA,81,67,87,32,72,54,30.1,29.77,22,0,10,10,25,0,9,0,"",0,20,29,NA,NA,6083,5988,9,144,139,NA,NA,250,213
2015-06-24 12:00:00,0,0,0,0,NA,NA,NA,0,0,0,73,59,30.09,6,218,10,NA,79,66,71,40,62,55,30.14,30.02,15,0,10,10,22,0,8,0,"",0,20,29,NA,NA,6083,5988,9,152,148,NA,NA,258,222
2015-06-25 12:00:00,0,1,0,0,NA,NA,NA,0,1,0,74,66,29.95,9,81,7,NA,83,65,96,60,68,58,30.03,29.91,15,0,10,1,24,0,9,0.16,"",0,20,29,NA,NA,6083,5988,9,161,157,NA,NA,267,231
2015-06-26 12:00:00,0,1,0,0,NA,NA,NA,0,0,0,66,61,29.96,9,22,7,NA,70,61,93,75,64,57,30.01,29.92,17,5,10,2,16,0,1,0.7,"",0,20,29,NA,NA,6083,5988,9,162,166,NA,NA,268,240
2015-06-27 12:00:00,0,1,0,0,NA,NA,NA,0,0,0,68,52,29.95,10,5,10,NA,77,59,93,26,59,45,29.99,29.92,20,0,10,7,18,0,3,NA,"",0,20,29,NA,NA,6083,5988,10,165,176,NA,NA,271,250
2015-06-28 12:00:00,0,1,0,0,NA,NA,NA,0,0,0,70,54,29.86,6,207,10,NA,81,58,78,28,62,48,29.92,29.79,18,0,10,10,20,0,5,NA,"",0,20,29,NA,NA,6083,5988,10,170,186,NA,NA,276,260
2015-06-29 12:00:00,0,1,0,0,NA,NA,NA,0,0,0,71,64,29.78,5,149,9,NA,75,66,90,66,66,61,29.81,29.77,12,0,10,3,20,0,6,0.03,"",0,20,29,NA,NA,6083,5988,10,176,196,NA,NA,282,270
2015-06-30 12:00:00,0,0,0,0,NA,NA,NA,0,0,0,71,61,29.8,8,327,8,NA,80,61,93,44,65,55,29.9,29.74,20,0,10,4,20,0,6,0,"",0,20,29,NA,NA,6083,5990,10,182,210,NA,NA,288,284
2015-07-01 12:00:00,0,0,0,0,NA,NA,NA,0,0,0,63,53,29.96,9,46,10,NA,68,58,81,53,55,51,29.99,29.9,16,5,10,10,12,2,0,0,"",0,2,0,NA,NA,2,0,10,0,10,NA,NA,288,294
2015-07-02 12:00:00,0,0,0,0,NA,NA,NA,0,0,0,64,54,29.98,11,29,10,NA,71,56,90,51,57,51,30,29.95,17,6,10,5,12,1,0,0,"",0,3,0,NA,NA,3,0,10,0,20,NA,NA,288,304
2015-07-03 12:00:00,0,0,0,0,NA,NA,NA,0,0,0,69,55,29.94,6,59,10,NA,77,61,84,36,58,51,29.97,29.9,13,0,10,10,19,0,4,0,"",0,3,0,NA,NA,3,0,11,4,31,NA,NA,292,315
2015-07-04 12:00:00,0,0,0,0,NA,NA,NA,0,0,0,73,57,29.97,4,237,9,NA,84,62,81,32,59,55,30.03,29.93,12,0,10,4,23,0,8,0,"",0,3,0,NA,NA,3,0,11,12,42,NA,NA,300,326
2015-07-05 12:00:00,0,0,0,0,NA,NA,NA,0,0,0,75,60,30.02,5,201,9,NA,85,65,78,32,62,58,30.07,29.97,14,0,10,4,25,0,10,0,"",0,3,0,NA,NA,3,0,11,22,53,NA,NA,310,337
2015-07-06 12:00:00,0,1,0,0,NA,NA,NA,0,1,0,80,68,29.9,11,208,8,NA,88,71,88,51,70,63,29.99,29.8,23,4,10,2,30,0,15,0.56,"",0,3,0,NA,NA,3,0,11,37,64,NA,NA,325,348
2015-07-07 12:00:00,0,1,0,0,NA,NA,NA,0,0,0,67,54,29.96,14,13,8,NA,74,59,87,36,69,44,30.09,29.81,26,5,10,2,16,0,2,0.25,"",0,3,0,NA,NA,3,0,11,39,75,NA,NA,327,359
2015-07-08 12:00:00,0,1,0,0,NA,NA,NA,0,0,0,64,54,30.03,8,54,8,NA,68,59,90,53,60,46,30.11,29.91,13,5,10,1,14,1,0,NA,"",0,4,0,NA,NA,4,0,11,39,86,NA,NA,327,370
2015-07-09 12:00:00,0,1,0,0,NA,NA,NA,0,0,0,68,57,29.97,8,33,6,NA,74,61,90,47,61,54,30.05,29.84,15,0,10,1,17,0,3,0.04,"",0,4,0,NA,NA,4,0,11,42,97,NA,NA,330,381
2015-07-10 12:00:00,0,0,0,0,NA,NA,NA,0,0,0,73,56,30.08,4,154,9,NA,82,63,87,30,61,51,30.11,30.04,14,0,10,3,22,0,8,0,"",0,4,0,NA,NA,4,0,11,50,108,NA,NA,338,392
2015-07-11 12:00:00,0,1,0,0,NA,NA,NA,0,0,0,73,60,30.08,5,163,10,NA,81,65,84,45,66,54,30.14,30,13,0,10,9,24,0,8,0.03,"",0,4,0,NA,NA,4,0,11,58,119,NA,NA,346,403
2015-07-12 12:00:00,0,1,0,0,NA,NA,NA,0,0,0,76,66,29.95,7,88,9,NA,83,69,90,49,67,65,30.02,29.86,13,0,10,3,26,0,11,0.06,"",0,4,0,NA,NA,4,0,11,69,130,NA,NA,357,414
2015-07-13 12:00:00,0,1,0,0,NA,NA,NA,0,1,0,79,68,29.68,11,191,9,NA,88,70,87,52,77,64,29.85,29.52,30,5,10,1,29,0,14,0.66,"",0,4,0,NA,NA,4,0,11,83,141,NA,NA,371,425
2015-07-14 12:00:00,0,0,0,0,NA,NA,NA,0,0,0,74,63,29.66,13,334,10,NA,84,64,81,49,67,50,29.89,29.52,24,5,10,10,23,0,9,0,"",0,4,0,NA,NA,4,0,11,92,152,NA,NA,380,436
2015-07-15 12:00:00,0,0,0,0,NA,NA,NA,0,0,0,69,52,29.97,9,31,10,NA,76,62,73,29,58,44,30.02,29.89,17,6,10,10,18,0,4,0,"",0,4,0,NA,NA,4,0,11,96,163,NA,NA,384,447
2015-07-16 12:00:00,0,1,0,0,NA,NA,NA,0,1,0,71,62,29.91,9,138,8,NA,79,63,87,46,70,55,30.03,29.77,18,0,10,2,22,0,6,0.52,"",0,4,0,NA,NA,4,0,11,102,174,NA,NA,390,458
2015-07-17 12:00:00,0,1,0,0,NA,NA,NA,0,1,0,84,71,29.75,8,233,9,NA,93,74,87,44,76,69,29.81,29.71,18,0,10,5,32,0,19,0.03,"",0,4,0,NA,NA,4,0,11,121,185,NA,NA,409,469
2015-07-18 12:00:00,0,1,0,0,NA,NA,NA,0,1,0,85,71,29.81,9,196,10,NA,93,76,79,57,78,66,29.89,29.75,29,4,10,9,33,0,20,0.03,"",0,4,0,NA,NA,4,0,11,141,196,NA,NA,429,480
2015-07-19 12:00:00,0,0,0,0,NA,NA,NA,0,0,0,80,67,29.84,7,268,10,NA,88,72,84,33,73,58,29.88,29.81,22,0,10,10,32,0,15,0,"",0,4,0,NA,NA,4,0,11,156,207,NA,NA,444,491
2015-07-20 12:00:00,0,0,0,0,NA,NA,NA,0,0,0,79,63,29.78,7,253,10,NA,89,68,76,35,69,59,29.86,29.71,16,0,10,10,28,0,14,0,"",0,4,0,NA,NA,4,0,11,170,218,NA,NA,458,502
2015-07-21 12:00:00,0,0,0,0,NA,NA,NA,0,0,0,76,54,29.85,8,23,10,NA,82,70,69,26,65,49,29.92,29.75,15,0,10,10,26,0,11,0,"",0,4,0,NA,NA,4,0,11,181,229,NA,NA,469,513
2015-07-22 12:00:00,0,0,0,0,NA,NA,NA,0,0,0,76,54,29.94,5,114,10,NA,84,67,68,26,59,50,29.97,29.92,13,0,10,10,25,0,11,0,"",0,4,0,NA,NA,4,0,11,192,240,NA,NA,480,524
2015-07-23 12:00:00,0,0,0,0,NA,NA,NA,0,0,0,77,57,29.97,4,95,10,NA,86,67,71,27,60,55,29.99,29.95,14,0,10,10,27,0,12,0,"",0,4,0,NA,NA,4,0,11,204,251,NA,NA,492,535
2015-07-24 12:00:00,0,0,0,0,NA,NA,NA,0,0,0,78,60,29.96,8,203,10,NA,87,69,68,31,63,58,30.01,29.89,21,0,10,10,28,0,13,0,"",0,4,0,NA,NA,4,0,11,217,262,NA,NA,505,546
2015-07-25 12:00:00,0,0,0,0,NA,NA,NA,0,0,0,83,68,29.89,9,244,10,NA,92,73,76,50,71,63,29.92,29.86,20,5,10,10,32,0,18,0,"",0,4,0,NA,NA,4,0,11,235,273,NA,NA,523,557
2015-07-26 12:00:00,0,1,0,0,NA,NA,NA,0,0,0,77,64,29.92,5,70,10,NA,82,71,71,52,68,60,29.94,29.9,12,0,10,10,26,0,12,NA,"",0,4,0,NA,NA,4,0,11,247,284,NA,NA,535,568
2015-07-27 12:00:00,0,0,0,0,NA,NA,NA,0,0,0,81,64,29.96,8,78,10,NA,90,71,84,29,70,61,29.99,29.92,17,0,10,5,30,0,16,0,"",0,4,0,NA,NA,4,0,11,263,295,NA,NA,551,579
2015-07-28 12:00:00,0,0,0,0,NA,NA,NA,0,0,0,84,68,29.92,7,159,10,NA,94,74,76,34,73,62,29.97,29.82,16,4,10,10,33,0,19,0,"",0,4,0,NA,NA,4,0,11,282,306,NA,NA,570,590
2015-07-29 12:00:00,0,1,0,0,NA,NA,NA,0,1,0,82,64,29.93,10,276,9,NA,90,74,82,15,74,48,29.99,29.87,22,5,10,2,34,0,17,0.07,"",0,4,0,NA,NA,4,0,11,299,317,NA,NA,587,601
2015-07-30 12:00:00,0,0,0,0,NA,NA,NA,0,0,0,80,55,30,11,279,10,NA,90,69,65,18,60,51,30.04,29.96,17,7,10,10,29,0,15,0,"",0,4,0,NA,NA,4,0,11,314,328,NA,NA,602,612
2015-07-31 12:00:00,0,0,0,0,NA,NA,NA,0,0,0,80,54,29.95,11,287,10,NA,90,70,64,15,64,46,30,29.9,28,5,10,10,30,0,15,NA,"",0,4,0,NA,NA,4,1,10,329,338,NA,NA,617,622
2015-08-01 12:00:00,0,0,0,0,NA,NA,NA,0,0,0,78,56,29.92,10,263,10,NA,89,66,64,23,64,51,29.97,29.86,20,5,10,10,27,0,13,0,"",0,0,0,NA,NA,4,1,10,13,10,NA,NA,630,632
2015-08-02 12:00:00,0,1,0,0,NA,NA,NA,0,1,0,82,66,29.74,16,241,9,NA,95,68,87,37,70,62,29.86,29.62,36,6,10,2,30,0,17,1.06,"",0,0,0,NA,NA,4,1,10,30,20,NA,NA,647,642
2015-08-03 12:00:00,0,0,0,0,NA,NA,NA,0,0,0,76,56,29.8,9,287,10,NA,84,68,87,18,65,44,29.88,29.71,20,0,10,10,26,0,11,0,"",0,0,0,NA,NA,4,1,10,41,30,NA,NA,658,652
2015-08-04 12:00:00,0,0,0,0,NA,NA,NA,0,0,0,74,55,29.94,7,289,10,NA,84,64,73,25,60,50,30.01,29.88,20,0,10,10,24,0,9,0,"",0,0,0,NA,NA,4,1,10,50,40,NA,NA,667,662
2015-08-05 12:00:00,0,0,0,0,NA,NA,NA,0,0,0,74,57,30,7,100,10,NA,83,65,78,26,62,50,30.04,29.96,16,0,10,10,24,0,9,0,"",0,0,0,NA,NA,4,1,10,59,50,NA,NA,676,672
2015-08-06 12:00:00,0,0,0,0,NA,NA,NA,0,0,0,77,60,29.92,9,63,10,NA,84,70,78,33,64,56,29.95,29.88,16,6,10,10,28,0,12,0,"",0,0,0,NA,NA,4,1,10,71,60,NA,NA,688,682
2015-08-07 12:00:00,0,0,0,0,NA,NA,NA,0,0,0,77,57,29.87,9,183,10,NA,85,68,76,28,65,53,29.92,29.83,15,4,10,10,26,0,12,0,"",0,0,0,NA,NA,4,1,10,83,70,NA,NA,700,692
2015-08-08 12:00:00,0,0,0,0,NA,NA,NA,0,0,0,78,63,29.89,7,201,10,NA,85,71,79,53,67,59,29.94,29.81,13,0,10,7,28,0,13,0,"",0,0,0,NA,NA,4,1,10,96,80,NA,NA,713,702
2015-08-09 12:00:00,0,1,0,0,NA,NA,NA,0,0,0,77,66,29.93,5,168,8,NA,83,70,84,47,68,63,29.99,29.87,14,0,10,4,26,0,12,NA,"",0,0,0,NA,NA,4,1,10,108,90,NA,NA,725,712
2015-08-10 12:00:00,0,1,0,0,NA,NA,NA,0,1,0,79,67,29.85,6,333,8,NA,86,71,85,51,69,65,29.89,29.81,21,0,10,2,28,0,14,0.25,"",0,0,0,NA,NA,4,1,10,122,100,NA,NA,739,722
2015-08-11 12:00:00,0,0,0,0,NA,NA,NA,0,0,0,75,60,30.01,7,21,10,NA,82,68,81,39,65,52,30.08,29.89,20,0,10,10,25,0,10,0,"",0,0,0,NA,NA,4,1,10,132,110,NA,NA,749,732
2015-08-12 12:00:00,0,0,0,0,NA,NA,NA,0,0,0,68,61,30.14,2,25,14,NA,75,60,99,65,63,59,30.2,30.11,12,0,20,10,18,0,2,0,"",NA,NA,NA,NA,NA,NA,NA,NA,NA,NA,NA,NA,NA,NA
2015-08-13 12:00:00,0,0,0,0,NA,NA,NA,0,0,0,67,61,30.1,3,231,14,NA,77,66,83,57,61,61,30.14,30.06,16,0,20,10,17,0,2,0,"",NA,NA,NA,NA,NA,NA,NA,NA,NA,NA,NA,NA,NA,NA
2015-08-14 12:00:00,0,1,0,0,NA,NA,NA,0,1,0,81,66,30.07,9,247,9,NA,90,71,81,41,71,63,30.14,30.02,32,4,10,5,31,0,16,0.17,"",0,0,0,NA,NA,4,1,10,167,140,NA,NA,784,762
2015-08-15 12:00:00,0,1,0,0,NA,NA,NA,0,1,0,80,68,30.08,6,208,10,NA,90,70,87,48,71,63,30.13,30.03,25,0,10,1,29,0,15,0.17,"",0,0,0,NA,NA,4,1,10,182,150,NA,NA,799,772
2015-08-16 12:00:00,0,0,0,0,NA,NA,NA,0,0,0,82,68,30.05,9,219,10,NA,91,72,84,35,70,63,30.1,29.99,18,4,10,10,32,0,17,0,"",0,0,0,NA,NA,4,1,9,199,159,NA,NA,816,781
2015-08-17 12:00:00,0,1,0,0,NA,NA,NA,0,1,0,81,67,29.98,8,205,9,NA,90,72,84,45,69,65,30.04,29.92,26,0,10,1,30,0,16,0.41,"",0,0,0,NA,NA,4,1,9,215,168,NA,NA,832,790
2015-08-18 12:00:00,0,1,0,0,NA,NA,NA,0,1,0,77,67,29.8,9,183,8,NA,84,70,87,47,71,65,29.97,29.67,33,4,10,2,27,0,12,0.94,"",0,0,0,NA,NA,4,1,9,227,177,NA,NA,844,799
2015-08-19 12:00:00,0,1,0,0,NA,NA,NA,0,0,0,72,60,29.68,15,214,10,NA,79,64,81,34,66,53,29.74,29.62,24,10,10,10,22,0,7,NA,"",0,0,0,NA,NA,4,1,9,234,186,NA,NA,851,808
2015-08-20 12:00:00,0,0,0,0,NA,NA,NA,0,0,0,69,51,29.84,14,250,10,NA,76,61,78,29,56,46,30.01,29.71,25,6,10,10,18,0,4,0,"",0,0,0,NA,NA,4,1,9,238,195,NA,NA,855,817
2015-08-21 12:00:00,0,0,0,0,NA,NA,NA,0,0,0,72,55,30.05,9,195,10,NA,84,60,78,32,59,51,30.09,30.02,17,4,10,10,22,0,7,0,"",0,0,0,NA,NA,4,1,9,245,204,NA,NA,862,826
2015-08-22 12:00:00,0,0,0,0,NA,NA,NA,0,0,0,75,55,30.04,9,167,10,NA,83,66,68,27,57,53,30.1,29.96,21,5,10,10,24,0,10,0,"",0,0,0,NA,NA,4,1,9,255,213,NA,NA,872,835
2015-08-23 12:00:00,0,1,0,0,NA,NA,NA,0,0,0,72,60,29.86,12,227,9,NA,79,65,91,34,69,49,29.94,29.82,24,7,10,1,24,0,7,0.09,"",0,0,0,NA,NA,4,1,9,262,222,NA,NA,879,844
2015-08-24 12:00:00,0,0,0,0,NA,NA,NA,0,0,0,67,47,29.93,14,269,10,NA,76,57,74,28,50,43,29.98,29.89,29,7,10,10,16,0,2,0,"",0,0,0,NA,NA,4,1,9,264,231,NA,NA,881,853
2015-08-25 12:00:00,0,0,0,0,NA,NA,NA,0,0,0,68,50,30,9,325,10,NA,73,62,68,39,54,45,30.06,29.95,18,5,10,10,18,0,3,0,"",0,0,0,NA,NA,4,1,9,267,240,NA,NA,884,862
2015-08-26 12:00:00,0,0,0,0,NA,NA,NA,0,0,0,63,52,30.13,6,355,10,NA,67,59,75,48,53,50,30.18,30.06,10,0,10,10,14,2,0,0,"",0,2,0,NA,NA,6,1,8,267,248,NA,NA,884,870
2015-08-27 12:00:00,0,0,0,0,NA,NA,NA,0,0,0,66,54,30.15,5,117,10,NA,75,56,83,41,58,52,30.22,30.11,14,0,10,8,16,0,1,0,"",0,2,0,NA,NA,6,1,8,268,256,NA,NA,885,878
2015-08-28 12:00:00,0,0,0,0,NA,NA,NA,0,0,0,69,58,30.09,6,160,10,NA,76,62,78,48,63,55,30.13,30.04,10,0,10,10,18,0,4,NA,"",0,2,0,NA,NA,6,1,8,272,264,NA,NA,889,886
2015-08-29 12:00:00,0,1,0,0,NA,NA,NA,0,0,0,71,64,30.01,6,55,7,NA,76,66,87,61,67,58,30.06,29.97,13,4,10,2,20,0,6,0.37,"",0,2,0,NA,NA,6,1,8,278,272,NA,NA,895,894
2015-08-30 12:00:00,0,0,0,0,NA,NA,NA,0,0,0,72,64,30.03,5,45,7,NA,78,66,90,58,65,62,30.08,29.99,9,0,10,2,22,0,7,0,"",0,2,0,NA,NA,6,1,7,285,279,NA,NA,902,901
2015-08-31 12:00:00,0,0,0,0,NA,NA,NA,0,0,0,76,66,30.02,3,158,7,NA,87,65,90,46,69,62,30.07,29.98,12,0,10,2,26,0,11,0,"",0,2,0,NA,NA,6,5,7,296,288,NA,NA,913,910
2015-09-01 12:00:00,0,0,0,0,NA,NA,NA,0,0,0,82,71,30,9,197,10,NA,89,74,85,48,73,68,30.03,29.96,20,5,10,9,31,0,17,0,"",1,0,1,0,1,6,6,7,17,7,17,7,930,917
2015-09-02 12:00:00,0,0,0,0,NA,NA,NA,0,0,0,83,68,29.97,8,230,10,NA,92,73,82,37,70,67,30.04,29.92,17,4,10,8,32,0,18,0,"",1,0,2,0,2,6,7,7,35,14,35,14,948,924
2015-09-03 12:00:00,0,0,0,0,NA,NA,NA,0,0,0,84,67,29.9,10,240,10,NA,93,74,79,34,70,66,29.95,29.84,21,5,10,6,34,0,19,NA,"",1,0,3,0,3,6,8,7,54,21,54,21,967,931
2015-09-04 12:00:00,0,0,0,0,NA,NA,NA,0,0,0,80,67,29.98,6,73,10,NA,87,72,81,57,68,65,30.03,29.92,16,0,10,10,28,0,15,0,"",1,0,4,0,4,6,9,7,69,28,69,28,982,938
2015-09-05 12:00:00,0,0,0,0,NA,NA,NA,0,1,0,80,67,30.06,7,164,10,NA,87,73,82,50,69,65,30.12,30.01,16,0,10,9,28,0,15,0.02,"",1,0,5,0,5,6,10,6,84,34,84,34,997,944
2015-09-06 12:00:00,0,0,0,0,NA,NA,NA,0,0,0,84,65,30,9,193,10,NA,94,74,71,27,67,63,30.05,29.93,18,4,10,10,34,0,19,0,"",1,0,6,0,6,6,11,6,103,40,103,40,1016,950
2015-09-07 12:00:00,0,0,0,0,NA,NA,NA,0,0,0,84,67,29.94,8,215,10,NA,90,77,69,40,71,65,29.97,29.9,14,4,10,10,33,0,19,NA,"",1,0,7,0,7,6,12,6,122,46,122,46,1035,956
2015-09-08 12:00:00,1,1,0,0,NA,NA,NA,0,1,0,79,70,29.84,9,226,8,NA,88,70,91,57,72,66,29.92,29.77,25,4,10,0,29,0,14,0.91,"",1,0,8,0,8,6,13,6,136,52,136,52,1049,962
2015-09-09 12:00:00,0,0,0,0,NA,NA,NA,0,0,0,70,58,29.95,6,23,10,NA,78,62,90,29,66,47,30,29.88,14,0,10,10,22,0,5,0,"",1,0,9,0,9,6,14,5,141,57,141,57,1054,967
2015-09-10 12:00:00,0,1,0,0,NA,NA,NA,0,1,0,68,57,29.93,5,251,10,NA,77,59,90,46,61,53,29.98,29.88,25,0,10,7,18,0,3,0.2,"",1,0,10,0,10,6,15,5,144,62,144,62,1057,972
2015-09-11 12:00:00,0,1,0,0,NA,NA,NA,0,0,0,63,54,29.97,10,351,10,NA,69,57,90,48,59,47,30.03,29.9,22,0,10,6,13,2,0,0.23,"",1,2,11,2,11,8,16,5,144,67,144,67,1057,977
2015-09-12 12:00:00,0,1,0,0,NA,NA,NA,0,0,0,60,46,30.03,11,350,10,NA,66,53,86,28,50,39,30.06,30.01,21,5,10,8,10,5,0,0.16,"",2,7,13,7,13,13,18,5,144,72,144,72,1057,982
2015-09-13 12:00:00,0,0,0,0,NA,NA,NA,0,0,0,61,44,30.02,8,256,10,NA,71,50,77,25,46,42,30.06,29.97,14,4,10,10,10,4,0,0,"",2,11,15,11,15,17,20,4,144,76,144,76,1057,986
2015-09-14 12:00:00,0,0,0,0,NA,NA,NA,0,0,0,70,50,30.04,13,194,10,NA,83,56,67,25,53,44,30.09,30.01,22,6,10,10,18,0,5,0,"",2,11,17,11,17,17,22,4,149,80,149,80,1062,990
2015-09-15 12:00:00,0,0,0,0,NA,NA,NA,0,0,0,75,51,30.17,10,184,10,NA,84,65,65,15,54,44,30.22,30.1,20,7,10,10,24,0,10,0,"",2,11,19,11,19,17,24,4,159,84,159,84,1072,994
2015-09-16 12:00:00,0,0,0,0,NA,NA,NA,0,0,0,73,52,30.15,10,182,10,NA,84,61,63,24,55,50,30.22,30.07,21,0,10,10,24,0,8,0,"",2,11,21,11,21,17,26,4,167,88,167,88,1080,998
2015-09-17 12:00:00,0,1,0,0,NA,NA,NA,0,1,0,77,61,29.95,12,180,10,NA,87,66,73,36,67,55,30.07,29.81,21,4,10,2,26,0,12,0.26,"",2,11,23,11,23,17,28,3,179,91,179,91,1092,1001
2015-09-18 12:00:00,0,1,0,0,NA,NA,NA,0,1,0,73,67,29.81,7,177,6,NA,79,67,97,67,70,64,29.86,29.68,21,0,10,1,23,0,8,3.15,"",3,11,26,11,26,17,31,3,187,94,187,94,1100,1004
2015-09-19 12:00:00,0,1,0,0,NA,NA,NA,0,1,0,64,56,29.88,9,331,8,NA,71,57,94,36,66,43,30.12,29.67,23,0,10,1,14,1,0,0.04,"",3,12,29,12,29,18,34,3,187,97,187,97,1100,1007
2015-09-20 12:00:00,0,0,0,0,NA,NA,NA,0,0,0,63,49,30.16,5,113,10,NA,72,53,84,31,54,44,30.22,30.12,12,0,10,10,12,2,0,0,"",3,14,32,14,32,20,37,3,187,100,187,100,1100,1010
2015-09-21 12:00:00,0,0,0,0,NA,NA,NA,0,0,0,65,49,30.12,7,123,10,NA,73,56,83,24,56,43,30.17,30.09,13,4,10,10,15,0,0,0,"",3,14,35,14,35,20,40,3,187,103,187,103,1100,1013
2015-09-22 12:00:00,0,0,0,0,NA,NA,NA,0,0,0,69,50,30.16,5,145,10,NA,81,57,87,22,57,47,30.21,30.11,13,0,10,10,18,0,4,0,"",4,14,39,14,39,20,44,2,191,105,191,105,1104,1015
2015-09-23 12:00:00,0,0,0,0,NA,NA,NA,0,0,0,71,52,30.22,6,87,10,NA,80,61,70,28,58,46,30.26,30.19,15,0,10,10,20,0,6,0,"",4,14,43,14,43,20,48,2,197,107,197,107,1110,1017
2015-09-24 12:00:00,0,0,0,0,NA,NA,NA,0,0,0,70,56,30.23,6,65,10,NA,78,62,75,38,58,51,30.27,30.21,13,0,10,10,20,0,5,0,"",4,14,47,14,47,20,52,2,202,109,202,109,1115,1019
2015-09-25 12:00:00,0,0,0,0,NA,NA,NA,0,0,0,70,59,30.21,9,37,10,NA,76,64,81,52,62,56,30.24,30.18,17,0,10,10,20,0,5,0,"",5,14,52,14,52,20,57,2,207,111,207,111,1120,1021
2015-09-26 12:00:00,0,0,0,0,NA,NA,NA,0,0,0,69,56,30.2,9,82,10,NA,76,61,81,44,60,51,30.26,30.14,16,4,10,10,18,0,4,0,"",5,14,57,14,57,20,62,2,211,113,211,113,1124,1023
2015-09-27 12:00:00,0,1,0,0,NA,NA,NA,0,0,0,72,60,30.07,7,147,10,NA,76,67,81,55,62,54,30.14,30.01,13,4,10,10,20,0,7,NA,"",5,14,62,14,62,20,67,2,218,115,218,115,1131,1025
2015-09-28 12:00:00,0,0,0,0,NA,NA,NA,0,0,0,74,63,29.97,6,201,10,NA,81,67,84,46,65,62,30.02,29.91,14,0,10,10,24,0,9,0,"",6,14,68,14,68,20,73,2,227,117,227,117,1140,1027
2015-09-29 12:00:00,0,0,0,0,NA,NA,NA,0,0,0,66,55,30.02,15,16,10,NA,72,59,87,56,63,48,30.12,29.89,24,0,10,4,16,0,1,NA,"",6,14,74,14,74,20,79,2,228,119,228,119,1141,1029
2015-09-30 12:00:00,0,0,0,0,NA,NA,NA,0,0,0,59,43,30.18,17,36,10,NA,63,55,64,36,47,40,30.24,30.11,25,10,10,10,10,6,0,0,"",6,20,80,20,77,26,82,2,228,119,228,119,1141,1029
2015-10-01 12:00:00,0,0,0,0,NA,NA,NA,0,0,0,57,41,30.29,21,53,10,NA,60,53,62,40,42,39,30.33,30.24,32,13,10,10,7,8,0,0,"",7,8,7,28,84,34,89,1,0,1,228,120,1141,1030
2015-10-02 12:00:00,0,0,0,0,NA,NA,NA,0,0,0,58,40,30.31,23,53,10,NA,62,53,66,31,43,37,30.34,30.27,28,16,10,10,8,7,0,0,"",7,15,14,35,91,41,96,1,0,2,228,121,1141,1031
2015-10-03 12:00:00,0,1,0,0,NA,NA,NA,0,0,0,52,41,30.2,19,57,9,NA,55,49,83,50,45,35,30.23,30.18,26,16,10,2,2,13,0,0.04,"",7,28,21,48,98,54,103,1,0,3,228,122,1141,1032
2015-10-04 12:00:00,0,0,0,0,NA,NA,NA,0,0,0,56,49,30.18,13,44,10,NA,60,51,83,67,52,44,30.21,30.15,18,9,10,9,5,9,0,0,"",7,37,28,57,105,63,110,1,0,4,228,123,1141,1033
2015-10-05 12:00:00,0,0,0,0,NA,NA,NA,0,0,0,59,54,30.16,8,35,6,NA,61,57,89,71,54,52,30.2,30.14,13,6,9,3,9,6,0,0,"",8,43,36,63,113,69,118,1,0,5,228,124,1141,1034
2015-10-06 12:00:00,0,0,0,0,NA,NA,NA,0,0,0,63,54,30.14,6,26,7,NA,68,58,90,51,55,52,30.18,30.09,9,0,10,1,12,2,0,NA,"",8,45,44,65,121,71,126,1,0,6,228,125,1141,1035
2015-10-07 12:00:00,0,0,0,0,NA,NA,NA,0,0,0,65,54,30.13,8,65,9,NA,73,56,89,49,56,51,30.15,30.08,15,0,10,3,14,0,0,0,"",8,45,52,65,129,71,134,1,0,7,228,126,1141,1036
2015-10-08 12:00:00,0,0,0,0,NA,NA,NA,0,1,0,67,54,29.95,9,205,10,NA,79,55,80,38,59,47,30.11,29.85,22,0,10,7,16,0,2,NA,"",9,45,61,65,138,71,143,1,2,8,230,127,1143,1037
2015-10-09 12:00:00,0,0,0,0,NA,NA,NA,0,0,0,58,48,30.1,11,4,10,NA,67,49,77,38,58,43,30.24,29.88,21,0,10,8,10,7,0,0,"",9,52,70,72,147,78,152,1,2,9,230,128,1143,1038
2015-10-10 12:00:00,0,0,0,0,NA,NA,NA,0,0,0,56,42,30.13,7,224,10,NA,66,45,86,32,44,41,30.25,29.96,15,0,10,10,6,9,0,0,"",9,61,79,81,156,87,161,1,2,10,230,129,1143,1039
2015-10-11 12:00:00,0,0,0,0,NA,NA,NA,0,0,0,67,46,29.78,13,208,10,NA,80,53,71,26,51,43,29.94,29.64,24,7,10,10,16,0,2,0,"",10,61,89,81,166,87,171,1,4,11,232,130,1145,1040
2015-10-12 12:00:00,0,0,0,0,NA,NA,NA,0,0,0,67,47,29.52,15,244,10,NA,77,56,70,18,56,37,29.61,29.46,32,12,10,9,19,0,2,0,"",10,61,99,81,176,87,181,1,6,12,234,131,1147,1041
2015-10-13 12:00:00,0,0,0,0,NA,NA,NA,0,0,0,58,41,29.71,10,295,10,NA,64,51,66,35,43,38,29.86,29.56,22,0,10,10,8,7,0,0,"",10,68,109,88,186,94,191,1,6,13,234,132,1147,1042
2015-10-14 12:00:00,0,0,0,0,NA,NA,NA,0,0,0,55,37,29.97,7,293,10,NA,65,45,76,23,42,34,30.03,29.86,16,4,10,10,4,10,0,0,"",11,78,120,98,197,104,202,0,6,13,234,132,1147,1042
2015-10-15 12:00:00,0,0,0,0,NA,NA,NA,0,0,0,60,33,30.02,12,265,10,NA,71,49,61,14,39,18,30.14,29.93,29,5,10,10,10,5,0,0,"",11,83,131,103,208,109,213,0,6,13,234,132,1147,1042
2015-10-16 12:00:00,0,0,0,0,NA,NA,NA,0,0,0,49,28,30.26,10,311,10,NA,56,42,60,22,33,23,30.34,30.15,18,7,10,10,0,16,0,0,"",11,99,142,119,219,125,224,0,6,13,234,132,1147,1042
2015-10-17 12:00:00,0,0,0,0,NA,NA,NA,0,0,0,45,22,30.42,8,309,10,NA,54,36,63,17,28,16,30.49,30.34,18,0,10,10,0,20,0,0,"",11,119,153,139,230,145,235,0,6,13,234,132,1147,1042
2015-10-18 12:00:00,0,0,0,0,NA,NA,NA,0,0,0,48,27,30.43,4,228,10,NA,61,35,70,14,35,23,30.52,30.33,10,0,10,10,0,17,0,0,"",12,136,165,156,242,162,247,0,6,13,234,132,1147,1042
2015-10-19 12:00:00,0,0,0,0,NA,NA,NA,0,0,0,61,31,30.13,18,204,10,NA,74,47,42,16,37,24,30.32,30,29,7,10,10,10,4,0,0,"",12,140,177,160,254,166,259,0,6,13,234,132,1147,1042
2015-10-20 12:00:00,0,1,0,0,NA,NA,NA,0,0,0,66,38,30.08,11,204,10,NA,77,55,75,16,51,34,30.14,30.01,22,5,10,9,16,0,1,0.09,"",12,140,189,160,266,166,271,0,7,13,235,132,1148,1042
2015-10-21 12:00:00,0,0,0,0,NA,NA,NA,0,0,0,68,52,30.08,12,215,10,NA,77,59,70,38,57,46,30.12,29.99,22,7,10,10,18,0,3,0,"",13,140,202,160,279,166,284,0,10,13,238,132,1151,1042
2015-10-22 12:00:00,0,0,0,0,NA,NA,NA,0,0,0,60,45,30.23,9,36,10,NA,64,55,70,45,54,42,30.3,30.1,15,5,10,10,10,5,0,0,"",13,145,215,165,292,171,297,0,10,13,238,132,1151,1042
2015-10-23 12:00:00,0,1,0,0,NA,NA,NA,0,0,0,60,47,30.09,11,124,9,NA,66,54,87,39,60,39,30.26,29.89,20,6,10,6,9,5,0,0.04,"",13,150,228,170,305,176,310,0,10,13,238,132,1151,1042
2015-10-24 12:00:00,0,1,0,0,NA,NA,NA,0,0,0,60,54,29.89,15,248,9,NA,68,51,87,51,62,41,30.12,29.77,30,9,10,1,10,5,0,0.12,"",14,155,242,175,319,181,324,0,10,13,238,132,1151,1042
2015-10-25 12:00:00,0,0,0,0,NA,NA,NA,0,0,0,53,37,30.33,5,357,10,NA,63,42,85,24,40,33,30.39,30.16,13,0,10,10,2,12,0,0,"",14,167,256,187,333,193,338,0,10,13,238,132,1151,1042
2015-10-26 12:00:00,0,0,0,0,NA,NA,NA,0,0,0,52,39,30.36,7,92,10,NA,62,42,74,34,45,35,30.42,30.3,15,0,10,10,2,13,0,0,"",14,180,270,200,347,206,352,0,10,13,238,132,1151,1042
2015-10-27 12:00:00,0,1,0,0,NA,NA,NA,0,0,0,54,44,30.05,13,100,8,NA,57,51,89,43,49,37,30.3,29.75,23,5,10,1,4,11,0,0.38,"",15,191,285,211,362,217,367,0,10,13,238,132,1151,1042
2015-10-28 12:00:00,0,1,0,0,NA,NA,NA,0,0,0,49,48,29.49,14,211,5,NA,58,39,93,51,55,28,29.71,29.41,33,8,10,1,0,16,0,0.16,"",15,207,300,227,377,233,382,0,10,13,238,132,1151,1042
2015-10-29 12:00:00,0,0,0,0,NA,NA,NA,0,0,0,43,33,29.74,15,265,10,NA,48,38,74,52,39,28,29.99,29.55,26,6,10,10,0,22,0,NA,"",16,229,316,249,393,255,398,0,10,13,238,132,1151,1042
2015-10-30 12:00:00,0,0,0,0,NA,NA,NA,0,0,0,47,36,30.1,6,210,10,NA,57,37,89,35,40,33,30.16,30.01,13,0,10,10,0,18,0,0,"",16,247,332,267,409,273,414,0,10,13,238,132,1151,1042
2015-10-31 12:00:00,0,1,0,0,NA,NA,NA,0,0,0,50,44,29.82,11,180,6,NA,54,46,90,61,50,37,30.04,29.68,24,8,10,2,0,15,0,0.76,"",16,262,348,282,426,288,431,0,10,16,238,135,1151,1045
2015-11-01 12:00:00,0,0,0,0,NA,NA,NA,0,0,0,56,42,29.89,11,227,10,NA,65,46,86,30,47,38,29.99,29.77,17,5,10,8,5,9,0,0,"",17,9,17,291,443,297,448,0,0,0,238,135,1151,1045
2015-11-02 12:00:00,0,0,0,0,NA,NA,NA,0,0,0,62,44,29.98,11,202,10,NA,74,50,80,20,47,36,30.02,29.94,21,6,10,10,12,3,0,0,"",17,12,34,294,460,300,465,0,0,0,238,135,1151,1045
2015-11-03 12:00:00,0,0,0,0,NA,NA,NA,0,0,0,62,51,30.09,6,189,9,NA,73,50,94,39,56,45,30.14,30.02,15,0,10,1,12,3,0,0,"",18,15,52,297,478,303,483,0,0,0,238,135,1151,1045
2015-11-04 12:00:00,1,0,0,0,NA,NA,NA,0,0,0,62,53,30.1,7,197,6,NA,73,50,96,49,59,46,30.16,30.04,16,0,10,0,12,3,0,0,"",18,18,70,300,496,306,501,0,0,0,238,135,1151,1045
2015-11-05 12:00:00,0,1,0,0,NA,NA,NA,0,0,0,66,57,29.91,15,197,9,NA,71,61,87,47,60,53,30.04,29.67,25,7,10,5,16,0,1,NA,"",18,18,88,300,514,306,519,0,1,0,239,135,1152,1045
2015-11-06 12:00:00,0,1,0,0,NA,NA,NA,0,0,0,55,45,29.92,14,262,8,NA,67,43,87,53,61,35,30.21,29.63,30,6,10,1,4,10,0,0.47,"",19,28,107,310,533,316,538,0,1,0,239,135,1152,1045
2015-11-07 12:00:00,0,0,0,0,NA,NA,NA,0,0,0,47,32,30.32,9,277,10,NA,55,38,82,27,36,26,30.43,30.21,24,0,10,10,0,18,0,0,"",19,46,126,328,552,334,557,0,1,0,239,135,1152,1045
2015-11-08 12:00:00,0,0,0,0,NA,NA,NA,0,0,0,44,26,30.4,4,194,10,NA,54,34,79,20,29,23,30.48,30.32,10,0,10,10,0,21,0,0,"",20,67,146,349,572,355,577,0,1,0,239,135,1152,1045
2015-11-09 12:00:00,0,0,0,0,NA,NA,NA,0,0,0,46,30,30.24,4,126,10,NA,56,35,73,20,37,25,30.32,30.14,12,0,10,10,0,19,0,0,"",20,86,166,368,592,374,597,0,1,0,239,135,1152,1045
2015-11-10 12:00:00,0,0,0,0,NA,NA,NA,0,0,0,48,32,30.08,4,241,10,NA,58,38,77,24,35,30,30.16,30,9,0,10,9,0,17,0,0,"",21,103,187,385,613,391,618,0,1,0,239,135,1152,1045
2015-11-11 12:00:00,0,1,0,0,NA,NA,NA,0,1,0,54,42,29.65,13,168,8,NA,64,43,89,39,50,30,29.99,29.3,33,4,10,0,4,11,0,0.73,"",21,114,208,396,634,402,639,0,1,0,239,135,1152,1045
2015-11-12 12:00:00,0,1,0,0,NA,NA,NA,0,0,0,51,37,29.55,23,250,8,NA,58,44,82,41,48,28,29.9,29.26,38,14,10,2,0,14,0,0.02,"",22,128,230,410,656,416,661,0,1,0,239,135,1152,1045
2015-11-13 12:00:00,0,0,0,0,NA,NA,NA,0,0,0,42,25,30.08,15,282,10,NA,48,36,67,22,28,21,30.27,29.92,30,6,10,10,0,23,0,0,"",22,151,252,433,678,439,683,0,1,0,239,135,1152,1045
2015-11-14 12:00:00,0,0,0,0,NA,NA,NA,0,0,0,45,28,30.25,9,204,10,NA,58,31,72,25,35,23,30.34,30.18,18,0,10,10,0,20,0,0,"",23,171,275,453,701,459,706,0,1,0,239,135,1152,1045
2015-11-15 12:00:00,0,0,0,0,NA,NA,NA,0,0,0,55,32,30.22,10,209,10,NA,66,44,60,17,34,31,30.27,30.18,21,5,10,10,5,10,0,0,"",23,181,298,463,724,469,729,0,1,0,239,135,1152,1045
2015-11-16 12:00:00,0,1,0,0,NA,NA,NA,0,0,0,53,37,30.13,11,161,9,NA,58,48,86,30,45,31,30.18,30.06,21,5,10,2,2,12,0,0.03,"",24,193,322,475,748,481,753,0,1,0,239,135,1152,1045
2015-11-17 12:00:00,0,1,0,0,NA,NA,NA,0,0,0,56,49,29.87,16,145,8,NA,63,49,88,55,54,45,30.06,29.7,29,8,10,2,5,9,0,0.44,"",24,202,346,484,772,490,777,0,1,0,239,135,1152,1045
2015-11-18 12:00:00,0,1,0,0,NA,NA,NA,0,0,0,57,48,29.56,18,182,8,NA,63,50,83,48,55,37,29.69,29.46,36,14,10,1,6,8,0,0.26,"",25,210,371,492,797,498,802,0,1,0,239,135,1152,1045
2015-11-19 12:00:00,0,0,0,0,NA,NA,NA,0,0,0,44,26,29.92,19,244,10,NA,50,37,76,25,39,16,30.16,29.68,32,13,10,10,0,21,0,NA,"",25,231,396,513,822,519,827,0,1,0,239,135,1152,1045
2015-11-20 12:00:00,0,0,1,0,NA,NA,1,0,0,0,38,22,30.27,10,302,6,NA,43,33,89,22,31,11,30.32,30.17,16,4,10,1,0,27,0,0.12,"",26,258,422,540,848,546,853,0,1,0,239,135,1152,1045
2015-11-21 12:00:00,1,1,1,0,NA,NA,4,0,0,0,28,29,30.05,13,32,3,NA,35,21,96,61,33,13,30.24,29.91,28,6,10,0,0,37,0,0.55,"",26,295,448,577,874,583,879,0,1,0,239,135,1152,1045
2015-11-22 12:00:00,0,0,0,0,NA,NA,4,0,0,0,21,13,30.21,8,211,10,NA,29,13,84,47,19,8,30.28,30.08,14,5,10,10,0,44,0,0,"",27,339,475,621,901,627,906,0,1,0,239,135,1152,1045
2015-11-23 12:00:00,0,0,0,0,NA,NA,3,0,0,0,33,24,30.09,9,229,10,NA,39,27,79,52,28,19,30.23,30.01,15,4,10,10,0,32,0,0,"",27,371,502,653,928,659,933,0,1,0,239,135,1152,1045
2015-11-24 12:00:00,0,0,0,0,NA,NA,2,0,0,0,36,28,30.31,5,152,9,NA,45,26,85,46,31,24,30.38,30.25,15,0,10,7,0,29,0,0,"",28,400,530,682,956,688,961,0,1,0,239,135,1152,1045
2015-11-25 12:00:00,0,1,0,0,NA,NA,1,0,0,0,46,34,30.23,13,174,10,NA,53,39,73,44,41,30,30.29,30.18,21,6,10,7,0,19,0,0.02,"",28,419,558,701,984,707,989,0,1,0,239,135,1152,1045
2015-11-26 12:00:00,0,1,0,0,NA,NA,NA,0,0,0,56,49,30.21,15,195,8,NA,62,50,83,64,53,43,30.27,30.15,22,9,10,2,6,9,0,0.54,"",29,428,587,710,1013,716,1018,0,1,0,239,135,1152,1045
2015-11-27 12:00:00,0,1,0,0,NA,NA,NA,0,0,0,48,38,30.32,16,10,5,NA,57,38,90,64,53,30,30.43,30.13,24,4,10,2,0,17,0,0.81,"",29,445,616,727,1042,733,1047,0,1,0,239,135,1152,1045
2015-11-28 12:00:00,0,1,0,0,NA,NA,NA,0,0,0,38,29,30.39,12,20,10,NA,40,36,73,50,31,26,30.41,30.35,18,7,10,10,0,27,0,NA,"",30,472,646,754,1072,760,1077,0,1,0,239,135,1152,1045
2015-11-29 12:00:00,0,0,0,0,NA,NA,NA,0,0,0,37,27,30.36,9,41,10,NA,43,30,75,36,32,22,30.41,30.28,15,0,10,10,0,28,0,0,"",30,500,676,782,1102,788,1107,0,1,0,239,135,1152,1045
2015-11-30 12:00:00,0,1,0,0,NA,NA,NA,0,0,0,43,33,30.08,12,101,8,NA,46,39,93,48,41,25,30.27,29.88,21,5,10,2,0,22,0,0.15,"",31,522,707,804,1130,810,1135,0,1,0,239,135,1152,1045
2015-12-01 12:00:00,0,1,0,0,NA,NA,NA,0,1,0,42,36,29.84,11,211,7,NA,45,39,93,46,43,28,29.87,29.8,24,5,10,2,0,23,0,0.15,"",31,23,31,NA,NA,833,1166,0,0,0,NA,NA,1152,1045
2015-12-02 12:00:00,1,1,1,0,NA,NA,NA,0,0,0,36,29,29.82,9,273,6,NA,39,33,89,60,33,24,30.09,29.73,18,5,10,0,0,29,0,0.13,"",31,52,62,NA,NA,862,1197,0,0,0,NA,NA,1152,1045
2015-12-03 12:00:00,0,0,0,0,NA,NA,NA,0,0,0,34,29,30.32,10,261,7,NA,37,31,82,63,30,25,30.45,30.11,17,5,10,5,0,31,0,0,"",32,83,94,NA,NA,893,1229,0,0,0,NA,NA,1152,1045
2015-12-04 12:00:00,0,0,0,0,NA,NA,NA,0,0,0,41,33,30.56,9,212,4,NA,48,33,93,47,35,29,30.63,30.44,16,6,10,1,0,24,0,0,"",32,107,126,NA,NA,917,1261,0,0,0,NA,NA,1152,1045
2015-12-05 12:00:00,1,0,0,0,NA,NA,NA,0,0,0,38,30,30.6,8,187,5,NA,45,30,93,51,32,27,30.68,30.47,13,4,10,0,0,27,0,0,"",33,134,159,NA,NA,944,1294,0,0,0,NA,NA,1152,1045
2015-12-06 12:00:00,0,0,0,0,NA,NA,NA,0,0,0,40,32,30.32,5,207,10,NA,48,32,86,44,35,29,30.47,30.23,10,0,10,8,0,25,0,0,"",33,159,192,NA,NA,969,1327,0,0,0,NA,NA,1152,1045
2015-12-07 12:00:00,1,0,0,0,NA,NA,NA,0,0,0,37,34,30.19,7,216,2,NA,40,33,96,80,36,30,30.28,30.04,17,0,7,0,0,28,0,NA,"",34,187,226,NA,NA,997,1361,0,0,0,NA,NA,1152,1045
2015-12-08 12:00:00,0,0,0,0,NA,NA,NA,0,0,0,45,37,29.91,10,183,8,NA,49,40,83,61,41,34,30.05,29.73,16,7,10,5,0,20,0,0,"",34,207,260,NA,NA,1017,1395,0,0,0,NA,NA,1152,1045
2015-12-09 12:00:00,0,0,0,0,NA,NA,NA,0,0,0,49,39,29.73,8,221,9,NA,55,43,86,48,41,36,29.8,29.65,15,6,10,3,0,16,0,0,"",34,223,294,NA,NA,1033,1429,0,0,0,NA,NA,1152,1045
2015-12-10 12:00:00,0,0,0,0,NA,NA,NA,0,0,0,52,38,29.61,16,206,10,NA,60,43,76,42,41,36,29.77,29.47,35,8,10,10,1,13,0,0,"",35,236,329,NA,NA,1046,1464,0,0,0,NA,NA,1152,1045
2015-12-11 12:00:00,0,1,0,0,NA,NA,NA,0,0,0,50,36,29.79,7,172,10,NA,55,44,77,34,46,32,29.85,29.63,18,0,10,7,0,15,0,NA,"",35,251,364,NA,NA,1061,1499,0,0,0,NA,NA,1152,1045
2015-12-12 12:00:00,0,1,0,0,NA,NA,NA,0,0,0,56,52,29.92,4,166,3,NA,60,51,93,74,55,47,29.99,29.81,12,0,10,1,6,9,0,NA,"",35,260,399,NA,NA,1070,1534,0,0,0,NA,NA,1152,1045
2015-12-13 12:00:00,0,1,0,0,NA,NA,NA,0,1,0,59,56,29.77,13,171,7,NA,64,54,89,75,58,52,29.95,29.44,21,0,10,2,9,6,0,0.78,"",36,266,435,NA,NA,1076,1570,0,0,0,NA,NA,1152,1045
2015-12-14 12:00:00,0,1,0,0,NA,NA,NA,0,0,0,53,45,29.35,15,212,10,NA,62,43,83,59,56,35,29.6,29.22,39,9,10,6,2,12,0,0.37,"",36,278,471,NA,NA,1088,1606,0,0,0,NA,NA,1152,1045
2015-12-15 12:00:00,0,0,0,0,NA,NA,NA,0,0,0,43,35,29.85,9,55,10,NA,44,41,82,57,39,32,29.96,29.6,16,4,10,9,0,22,0,NA,"",36,300,507,NA,NA,1110,1642,0,0,0,NA,NA,1152,1045
2015-12-16 12:00:00,0,1,0,0,NA,NA,NA,0,0,0,45,36,29.7,16,188,9,NA,55,35,83,48,46,25,29.89,29.55,28,9,10,2,0,20,0,0.09,"",36,320,543,NA,NA,1130,1678,0,0,0,NA,NA,1152,1045
2015-12-17 12:00:00,0,0,0,0,NA,NA,NA,0,0,0,33,21,29.9,14,263,10,NA,36,30,69,41,25,19,30,29.74,25,5,10,10,0,32,0,0,"",37,352,580,NA,NA,1162,1715,0,0,0,NA,NA,1152,1045
2015-12-18 12:00:00,0,0,1,0,NA,NA,NA,0,0,0,30,17,30.02,13,260,9,NA,33,26,75,36,23,10,30.15,29.95,24,7,10,2,0,35,0,NA,"",37,387,617,NA,NA,1197,1752,0,0,0,NA,NA,1152,1045
2015-12-19 12:00:00,0,0,0,0,NA,NA,NA,0,0,0,25,11,30.36,11,245,10,NA,32,17,66,31,17,6,30.45,30.13,22,4,10,10,0,40,0,NA,"",37,427,654,NA,NA,1237,1789,0,0,0,NA,NA,1152,1045
2015-12-20 12:00:00,0,1,0,0,NA,NA,NA,0,0,0,40,25,30.07,16,192,10,NA,51,28,68,27,35,18,30.35,29.88,26,6,10,10,0,25,0,0.03,"",37,452,691,NA,NA,1262,1826,0,0,0,NA,NA,1152,1045
2015-12-21 12:00:00,0,1,0,0,NA,NA,NA,0,0,0,49,43,29.76,11,228,6,NA,54,43,93,73,49,36,29.86,29.68,22,0,10,1,0,16,0,0.72,"",38,468,729,NA,NA,1278,1864,0,0,0,NA,NA,1152,1045
2015-12-22 12:00:00,0,1,0,0,NA,NA,NA,0,0,0,41,35,29.83,9,233,5,NA,44,37,89,71,41,31,29.9,29.73,16,4,10,1,0,24,0,0.01,"",38,492,767,NA,NA,1302,1902,0,0,0,NA,NA,1152,1045
2015-12-23 12:00:00,1,1,0,0,NA,NA,NA,0,1,0,52,49,29.4,16,166,4,NA,61,42,93,62,57,33,29.7,29.14,44,5,10,0,2,13,0,0.84,"",38,505,805,NA,NA,1315,1940,0,0,0,NA,NA,1152,1045
2015-12-24 12:00:00,0,1,0,0,NA,NA,NA,0,0,0,40,31,29.9,12,218,10,NA,44,36,76,51,35,28,30.07,29.55,31,0,10,10,0,25,0,NA,"",38,530,843,NA,NA,1340,1978,0,0,0,NA,NA,1152,1045
2015-12-25 12:00:00,0,0,0,0,NA,NA,NA,0,0,0,41,32,30.29,9,26,10,NA,46,36,83,54,35,30,30.39,30.09,16,5,10,8,0,24,0,0,"",38,554,881,NA,NA,1364,2016,0,0,0,NA,NA,1152,1045
2015-12-26 12:00:00,0,1,0,0,NA,NA,NA,0,0,0,43,38,30.1,10,53,5,NA,45,41,93,54,42,31,30.31,29.99,20,5,10,1,0,22,0,0.24,"",39,576,920,NA,NA,1386,2055,0,0,0,NA,NA,1152,1045
2015-12-27 12:00:00,0,1,0,0,NA,NA,NA,0,0,0,40,32,30.25,19,18,9,NA,43,36,89,57,39,25,30.38,30.06,29,13,10,3,0,25,0,0.16,"",39,601,959,NA,NA,1411,2094,0,0,0,NA,NA,1152,1045
2015-12-28 12:00:00,0,1,1,0,NA,NA,NA,0,0,0,37,30,29.86,21,79,5,NA,42,32,93,53,38,25,30.34,29.46,32,9,10,1,0,28,0,1.82,"",39,629,998,NA,NA,1439,2133,0,0,0,NA,NA,1152,1045
2015-12-29 12:00:00,0,0,1,0,NA,NA,NA,0,0,0,36,28,29.93,14,246,9,NA,41,31,85,62,35,24,30.21,29.55,23,6,10,2,0,29,0,NA,"",39,658,1037,NA,NA,1468,2172,0,0,0,NA,NA,1152,1045
2015-12-30 12:00:00,1,0,1,0,NA,NA,4,0,0,0,30,23,30.22,9,247,6,NA,31,28,88,58,25,20,30.27,30.17,15,5,10,0,0,35,0,0.06,"",39,693,1076,NA,NA,1503,2211,0,0,0,NA,NA,1152,1045
2015-12-31 12:00:00,0,0,1,0,NA,NA,3,0,0,0,27,18,30.3,13,256,10,NA,29,24,75,51,21,15,30.34,30.22,21,8,10,9,0,38,0,NA,"",39,731,1115,NA,NA,1541,2251,0,0,0,NA,NA,1152,1045
2016-01-01 12:00:00,0,0,1,0,NA,NA,2,0,0,0,26,17,30.21,15,250,10,NA,31,20,72,53,22,11,30.27,30.14,24,9,10,6,0,39,0,NA,"",39,39,39,NA,NA,1580,2290,0,0,0,NA,NA,0,0
2016-01-02 12:00:00,0,0,0,0,NA,NA,2,0,0,0,28,19,30.09,12,251,10,NA,33,22,78,52,23,16,30.17,29.98,22,7,10,10,0,37,0,0,"",40,76,79,NA,NA,1617,2330,0,0,0,NA,NA,0,0
2016-01-03 12:00:00,0,0,1,0,NA,NA,2,0,0,0,28,18,30.18,12,318,10,NA,31,24,72,45,21,15,30.32,29.99,21,7,10,10,0,37,0,NA,"",40,113,119,NA,NA,1654,2370,0,0,0,NA,NA,0,0
2016-01-04 12:00:00,0,0,1,0,NA,NA,2,0,0,0,29,17,30.47,11,360,10,NA,32,25,69,42,20,15,30.58,30.32,22,8,10,3,0,36,0,NA,"",40,149,159,NA,NA,1690,2410,0,0,0,NA,NA,0,0
2016-01-05 12:00:00,0,0,0,0,NA,NA,2,0,0,0,28,18,30.51,9,183,10,NA,34,21,81,46,21,12,30.61,30.4,17,6,10,10,0,37,0,0,"",40,186,199,NA,NA,1727,2450,0,0,0,NA,NA,0,0
2016-01-06 12:00:00,0,0,0,0,NA,NA,1,0,0,0,32,21,30.3,8,187,10,NA,39,25,72,45,26,17,30.39,30.21,15,5,10,10,0,33,0,0,"",40,219,239,NA,NA,1760,2490,0,0,0,NA,NA,0,0
2016-01-07 12:00:00,0,0,0,0,NA,NA,1,0,0,0,40,25,30.09,7,145,10,NA,43,36,65,40,29,23,30.19,29.97,10,5,10,10,0,25,0,NA,"",40,244,279,NA,NA,1785,2530,0,0,0,NA,NA,0,0
2016-01-08 12:00:00,0,1,0,0,NA,15.7,0,0,0,0,39,38,29.77,6,162,4,NA,42,36,100,76,41,30,29.93,29.7,10,4,10,1,0,26,0,0.19,"",41,285,328,NA,NA,2058,2739,0,0,0,NA,NA,0,0
2016-01-09 12:00:00,0,1,1,0,NA,NA,1,0,0,0,36,33,29.8,10,312,3,NA,44,27,93,78,41,21,29.87,29.74,25,0,10,0,0,29,0,0.27,"",40,295,359,NA,NA,1836,2610,0,0,0,NA,NA,0,0
2016-01-10 12:00:00,0,0,1,0,NA,NA,1,0,0,0,16,5,30,18,288,10,NA,27,4,78,49,19,-6,30.16,29.78,26,13,10,7,0,49,0,NA,"",40,344,399,NA,NA,1885,2650,0,0,0,NA,NA,0,0
2016-01-11 12:00:00,0,0,1,0,NA,NA,3,0,0,0,14,9,29.93,11,215,5,NA,26,2,81,52,21,-7,30.19,29.68,29,7,10,1,0,51,0,0.06,"",40,395,439,NA,NA,1936,2690,0,0,0,NA,NA,0,0
2016-01-12 12:00:00,0,0,1,0,NA,NA,2,0,0,0,14,2,29.98,16,282,8,NA,22,5,71,38,12,-5,30.27,29.69,29,7,10,2,0,51,0,NA,"",40,446,479,NA,NA,1987,2730,0,0,0,NA,NA,0,0
2016-01-13 12:00:00,0,0,1,0,NA,NA,2,0,0,0,16,5,30.07,9,219,10,NA,29,2,76,52,20,-6,30.28,29.84,18,5,10,8,0,49,0,NA,"",40,495,519,NA,NA,2036,2770,0,0,0,NA,NA,0,0
2016-01-14 12:00:00,0,0,0,0,NA,NA,2,0,0,0,37,29,29.68,11,202,10,NA,45,28,79,52,37,21,29.81,29.55,21,6,10,10,0,28,0,0,"",40,523,559,NA,NA,2064,2810,0,0,0,NA,NA,0,0
2016-01-15 12:00:00,0,1,1,0,NA,NA,NA,0,0,0,38,33,29.48,13,245,8,NA,43,32,86,67,37,24,29.68,29.39,21,8,10,3,0,27,0,0.02,"",40,550,599,NA,NA,2091,2850,0,0,0,NA,NA,0,0
2016-01-16 12:00:00,0,0,0,0,NA,NA,NA,0,0,0,23,16,29.87,13,296,10,NA,32,14,69,45,23,-1,30.02,29.65,23,8,10,10,0,42,0,0,"",40,592,639,NA,NA,2133,2890,0,0,0,NA,NA,0,0
2016-01-17 12:00:00,0,0,0,0,NA,NA,NA,0,0,0,8,-9,30.16,16,290,10,NA,14,1,61,31,-3,-12,30.31,30.04,25,10,10,9,0,57,0,NA,"",40,649,679,NA,NA,2190,2930,0,0,0,NA,NA,0,0
2016-01-18 12:00:00,0,0,0,0,NA,NA,NA,0,0,0,4,-10,30.37,12,279,10,NA,10,-2,61,30,-6,-13,30.45,30.31,18,9,10,10,0,61,0,0,"",40,710,719,NA,NA,2251,2970,0,0,0,NA,NA,0,0
2016-01-19 12:00:00,0,0,0,0,NA,NA,NA,0,0,0,10,-3,30.52,6,235,10,NA,18,2,64,28,4,-9,30.61,30.44,13,0,10,10,0,55,0,0,"",40,765,759,NA,NA,2306,3010,0,0,0,NA,NA,0,0
2016-01-20 12:00:00,0,0,1,0,NA,NA,1,0,0,0,19,11,30.31,3,240,7,NA,25,13,81,50,13,5,30.41,30.21,12,0,10,1,0,46,0,0.03,"",40,811,799,NA,NA,2352,3050,0,0,0,NA,NA,0,0
2016-01-21 12:00:00,0,0,0,0,NA,NA,1,0,0,0,24,14,30.38,3,206,9,NA,32,16,81,40,17,10,30.44,30.31,8,0,10,8,0,41,0,0,"",40,852,839,NA,NA,2393,3090,0,0,0,NA,NA,0,0
2016-01-22 12:00:00,0,0,1,0,NA,NA,1,0,0,0,27,19,30.27,11,30,7,NA,32,21,78,33,23,13,30.32,30.24,20,4,10,2,0,38,0,0.01,"",40,890,879,NA,NA,2431,3130,0,0,0,NA,NA,0,0
2016-01-23 12:00:00,0,0,1,0,NA,NA,NA,0,0,0,30,20,30.21,6,299,9,NA,35,24,78,38,24,17,30.27,30.1,12,0,10,7,0,35,0,NA,"",40,925,919,NA,NA,2466,3170,0,0,0,NA,NA,0,0
2016-01-24 12:00:00,0,0,0,0,NA,NA,NA,0,0,0,31,20,30.01,8,203,10,NA,37,24,76,47,26,14,30.09,29.96,17,4,10,7,0,34,0,0,"",40,959,959,NA,NA,2500,3210,0,0,0,NA,NA,0,0
2016-01-25 12:00:00,0,1,0,0,NA,NA,NA,0,0,0,36,29,29.78,11,184,7,NA,43,29,89,55,38,21,29.96,29.63,28,6,10,2,0,29,0,0.06,"",40,988,999,NA,NA,2529,3250,0,0,0,NA,NA,0,0
2016-01-26 12:00:00,0,0,1,0,NA,NA,NA,0,0,0,33,23,30.02,16,265,9,NA,38,27,89,48,32,16,30.26,29.69,26,10,10,3,0,32,0,NA,"",40,1020,1039,NA,NA,2561,3290,0,0,0,NA,NA,0,0
2016-01-27 12:00:00,0,0,1,0,NA,NA,NA,0,0,0,31,18,30.15,13,232,10,NA,35,26,70,38,24,13,30.3,29.83,25,8,10,9,0,34,0,NA,"",40,1054,1079,NA,NA,2595,3330,0,0,0,NA,NA,0,0
2016-01-28 12:00:00,0,1,1,0,NA,NA,NA,0,0,0,36,25,29.74,15,286,10,NA,41,31,75,43,29,15,29.88,29.66,23,12,10,8,0,29,0,NA,"",40,1083,1119,NA,NA,2624,3370,0,0,0,NA,NA,0,0
2016-01-29 12:00:00,0,0,0,0,NA,NA,NA,0,0,0,31,15,29.93,11,207,10,NA,37,24,62,23,25,11,30.06,29.72,18,0,10,10,0,34,0,0,"",40,1117,1159,NA,NA,2658,3410,0,0,0,NA,NA,0,0
2016-01-30 12:00:00,0,0,0,0,NA,NA,NA,0,0,0,43,32,29.69,9,217,10,NA,49,36,79,47,36,26,29.73,29.65,21,4,10,9,0,22,0,NA,"",40,1139,1199,NA,NA,2680,3450,0,0,0,NA,NA,0,0
2016-01-31 12:00:00,0,1,0,0,NA,NA,NA,0,0,0,42,39,29.63,9,235,8,NA,49,34,90,72,46,31,29.87,29.47,18,5,10,5,0,23,0,0.02,"",40,1162,1239,NA,NA,2703,3496,0,0,0,NA,NA,0,0
2016-02-01 12:00:00,0,0,0,0,NA,NA,NA,0,0,0,39,29,30.04,5,250,10,NA,47,31,92,41,31,26,30.14,29.89,8,0,10,7,0,26,0,0,"",40,26,40,NA,NA,2729,3536,0,0,0,NA,NA,0,0
2016-02-02 12:00:00,1,1,0,0,NA,NA,NA,0,1,0,38,34,29.71,11,69,3,NA,40,36,100,67,38,30,30.16,29.46,26,0,9,0,0,27,0,0.08,"",39,53,79,NA,NA,2756,3575,0,0,0,NA,NA,0,0
2016-02-03 12:00:00,1,1,1,0,NA,NA,NA,0,0,0,34,30,29.69,13,244,7,NA,39,29,100,62,37,21,30.11,29.46,24,6,10,0,0,31,0,NA,"",39,84,118,NA,NA,2787,3614,0,0,0,NA,NA,0,0
2016-02-04 12:00:00,0,0,1,0,NA,NA,NA,0,0,0,27,15,30.25,10,244,10,NA,32,21,72,31,20,11,30.31,30.12,18,7,10,9,0,38,0,NA,"",39,122,157,NA,NA,2825,3653,0,0,0,NA,NA,0,0
2016-02-05 12:00:00,0,0,1,0,NA,NA,NA,0,0,0,31,21,30.35,7,255,9,NA,34,27,82,41,25,18,30.4,30.27,13,4,10,1,0,34,0,NA,"",39,156,196,NA,NA,2859,3692,0,0,0,NA,NA,0,0
2016-02-06 12:00:00,0,0,0,0,NA,NA,NA,0,0,0,34,24,30.24,8,216,9,NA,42,27,78,43,28,20,30.35,30.08,15,5,10,7,0,30,0,0,"",NA,NA,NA,NA,NA,NA,NA,NA,NA,NA,NA,NA,NA,NA
2016-02-07 12:00:00,0,0,0,0,NA,NA,NA,0,0,0,40,28,29.84,13,228,10,NA,46,34,76,48,31,26,30.07,29.71,23,7,10,10,0,25,0,0,"",38,212,273,NA,NA,2915,3769,0,0,0,NA,NA,0,0
2016-02-08 12:00:00,0,0,1,0,NA,NA,NA,0,0,0,29,21,29.71,11,277,8,NA,34,23,82,51,28,16,29.78,29.63,17,6,10,1,0,36,0,NA,"",38,248,311,NA,NA,2951,3807,0,0,0,NA,NA,0,0
2016-02-09 12:00:00,0,0,1,0,NA,NA,1,0,0,0,19,10,29.86,14,309,5,NA,23,15,78,43,16,5,30.01,29.73,21,8,10,1,0,46,0,NA,"",38,294,349,NA,NA,2997,3845,0,0,0,NA,NA,0,0
2016-02-10 12:00:00,0,0,1,0,NA,NA,1,0,0,0,15,1,30.11,11,312,10,NA,19,11,61,32,4,-1,30.24,30,20,7,10,10,0,50,0,NA,"",38,344,387,NA,NA,3047,3883,0,0,0,NA,NA,0,0
2016-02-11 12:00:00,0,0,0,0,NA,NA,1,0,0,0,17,0,30.33,7,298,10,NA,24,9,59,20,5,-3,30.39,30.24,14,0,10,10,0,48,0,0,"",37,392,424,NA,NA,3095,3920,0,0,0,NA,NA,0,0
2016-02-12 12:00:00,0,0,1,0,NA,NA,NA,0,0,0,17,3,30.27,16,291,10,NA,25,9,65,23,11,-9,30.53,30.15,29,5,10,2,0,48,0,NA,"",37,440,461,NA,NA,3143,3957,0,0,0,NA,NA,0,0
2016-02-13 12:00:00,0,0,0,0,NA,NA,NA,0,0,0,12,-8,30.6,9,312,10,NA,19,4,52,16,-1,-12,30.67,30.53,22,0,10,10,0,53,0,0,"",37,493,498,NA,NA,3196,3994,0,0,0,NA,NA,0,0
2016-02-14 12:00:00,0,0,1,0,NA,NA,1,0,0,0,16,7,30.24,12,136,5,NA,19,13,78,36,13,-1,30.52,30.03,20,6,10,0,0,49,0,0.01,"",37,542,535,NA,NA,3245,4031,0,0,0,NA,NA,0,0
2016-02-15 12:00:00,0,0,1,0,NA,NA,1,0,0,0,24,20,29.91,7,224,4,NA,29,19,92,70,24,14,30.04,29.82,12,4,6,2,0,41,0,NA,"",36,583,571,NA,NA,3286,4067,0,0,0,NA,NA,0,0
2016-02-16 12:00:00,0,0,1,0,NA,NA,1,0,0,0,32,24,29.89,5,294,5,NA,37,26,82,50,27,20,30.03,29.82,14,0,10,0,0,33,0,0.03,"",36,616,607,NA,NA,3319,4103,0,0,0,NA,NA,0,0
2016-02-17 12:00:00,0,0,0,0,NA,NA,1,0,0,0,32,19,30.27,6,2,9,NA,36,27,79,36,24,15,30.41,30.05,13,0,10,5,0,33,0,0,"",36,649,643,NA,NA,3352,4139,0,0,0,NA,NA,0,0
2016-02-18 12:00:00,0,0,0,0,NA,NA,NA,0,0,0,34,24,30.26,14,142,10,NA,42,26,72,46,30,16,30.44,29.92,25,8,10,9,0,31,0,0,"",35,680,678,NA,NA,3383,4174,0,0,0,NA,NA,0,0
2016-02-19 12:00:00,0,0,0,0,NA,NA,NA,0,0,0,54,35,29.7,24,221,10,NA,65,42,59,35,45,30,29.88,29.5,45,15,10,10,4,11,0,0,"",35,691,713,NA,NA,3394,4209,0,0,0,NA,NA,0,0
2016-02-20 12:00:00,0,0,0,0,NA,NA,NA,0,0,0,51,31,29.9,11,262,10,NA,60,42,63,26,35,26,30.02,29.8,23,5,10,10,0,14,0,0,"",35,705,748,NA,NA,3408,4244,0,0,0,NA,NA,0,0
2016-02-21 12:00:00,0,0,0,0,NA,NA,NA,0,0,0,40,29,30.13,11,17,10,NA,44,35,79,53,33,25,30.24,30.02,17,5,10,10,0,25,0,0,"",34,730,782,NA,NA,3433,4278,0,0,0,NA,NA,0,0
2016-02-22 12:00:00,0,0,0,0,NA,NA,NA,0,0,0,37,25,30.19,4,63,10,NA,45,28,82,34,29,23,30.23,30.14,12,0,10,10,0,28,0,0,"",34,758,816,NA,NA,3461,4312,0,0,0,NA,NA,0,0
2016-02-23 12:00:00,0,0,0,0,NA,NA,NA,0,0,0,39,25,30.09,9,59,10,NA,46,31,82,25,29,20,30.18,29.94,18,0,10,7,0,26,0,0,"",34,784,850,NA,NA,3487,4346,0,0,0,NA,NA,0,0
2016-02-24 12:00:00,1,0,1,0,NA,NA,2,0,0,0,36,27,29.65,25,2,4,NA,39,32,88,44,29,23,29.91,29.55,37,13,10,0,0,29,0,0.04,"",33,813,883,NA,NA,3516,4379,0,0,0,NA,NA,0,0
2016-02-25 12:00:00,0,0,1,0,NA,NA,2,0,0,0,35,21,29.97,18,330,9,NA,38,32,75,34,25,14,30.2,29.73,25,14,10,3,0,30,0,NA,"",33,843,916,NA,NA,3546,4412,0,0,0,NA,NA,0,0
2016-02-26 12:00:00,0,0,1,0,NA,NA,NA,0,0,0,32,17,30.23,9,276,10,NA,35,28,72,28,22,12,30.31,30.15,22,6,10,10,0,33,0,NA,"",33,876,949,NA,NA,3579,4445,0,0,0,NA,NA,0,0
2016-02-27 12:00:00,0,0,0,0,NA,NA,NA,0,0,0,42,27,29.95,14,213,10,NA,55,28,75,23,36,21,30.13,29.77,21,9,10,10,0,23,0,0,"",32,899,981,NA,NA,3602,4477,0,0,0,NA,NA,0,0
2016-02-28 12:00:00,0,1,0,0,NA,NA,NA,0,0,0,51,37,29.6,18,242,10,NA,64,38,79,40,46,27,29.79,29.44,31,13,10,6,0,14,0,0.05,"",32,913,1013,NA,NA,3616,4511,0,0,0,NA,NA,0,0
2016-02-29 12:00:00,0,1,0,0,NA,NA,NA,0,0,0,43,26,29.94,16,296,10,NA,55,30,75,29,31,20,30.06,29.82,25,9,10,10,0,22,0,NA,"",32,935,1045,NA,NA,3638,4543,0,0,0,NA,NA,0,0
2016-03-01 12:00:00,1,1,1,0,NA,NA,NA,0,0,0,27,21,29.89,18,9,7,NA,33,20,85,53,27,10,30.12,29.75,28,7,10,0,0,38,0,0.06,"",32,38,32,NA,NA,3676,4543,0,0,0,NA,NA,0,0
2016-03-02 12:00:00,0,0,1,0,NA,NA,NA,0,0,0,24,8,30.18,7,243,10,NA,33,14,75,21,23,0,30.25,30.13,14,0,10,2,0,41,0,NA,"",31,79,63,NA,NA,3717,4574,0,0,0,NA,NA,0,0
2016-03-03 12:00:00,0,0,1,0,NA,NA,1,0,0,0,31,25,30.1,9,65,5,NA,33,29,89,56,27,17,30.16,30.03,17,0,10,1,0,34,0,0.05,"",31,113,94,NA,NA,3751,4605,0,0,0,NA,NA,0,0
2016-03-04 12:00:00,0,0,1,0,NA,NA,1,0,0,0,31,20,30.18,8,200,8,NA,39,23,85,38,25,15,30.26,30.07,15,0,10,1,0,34,0,0.03,"",31,147,125,NA,NA,3785,4636,0,0,0,NA,NA,0,0
2016-03-05 12:00:00,0,0,1,0,NA,NA,1,0,0,0,35,28,30.12,8,271,7,NA,40,29,85,53,33,25,30.3,29.99,16,0,10,4,0,30,0,NA,"",30,177,155,NA,NA,3815,4666,0,0,0,NA,NA,0,0
2016-03-06 12:00:00,0,0,0,0,NA,NA,NA,0,0,0,44,31,30.13,13,190,10,NA,53,35,70,40,37,26,30.31,29.93,22,5,10,9,0,21,0,0,"",30,198,185,NA,NA,3836,4696,0,0,0,NA,NA,0,0
2016-03-07 12:00:00,0,0,0,0,NA,NA,NA,0,0,0,55,41,29.89,13,192,10,NA,62,47,67,41,47,34,29.93,29.85,21,9,10,10,4,10,0,NA,"",29,208,214,NA,NA,3846,4725,0,0,0,NA,NA,0,0
2016-03-08 12:00:00,0,0,0,0,NA,NA,NA,0,0,0,66,50,29.87,14,199,10,NA,73,58,72,40,54,45,29.92,29.81,25,9,10,10,16,0,1,0,"",29,208,243,NA,NA,3846,4754,0,1,0,NA,NA,1,0
2016-03-09 12:00:00,0,1,0,0,NA,NA,NA,0,0,0,59,53,29.89,10,229,10,NA,65,53,87,64,56,42,29.99,29.79,17,5,10,4,10,6,0,0.06,"",29,214,272,NA,NA,3852,4783,0,1,0,NA,NA,1,0
2016-03-10 12:00:00,0,0,0,0,NA,NA,NA,0,0,0,47,37,30.11,9,30,10,NA,53,41,74,55,41,34,30.27,30.01,16,6,10,9,0,18,0,0,"",28,232,300,NA,NA,3870,4811,0,1,0,NA,NA,1,0
2016-03-11 12:00:00,0,0,0,0,NA,NA,NA,0,0,0,45,32,30.34,6,79,10,NA,53,37,82,32,34,30,30.42,30.26,13,0,10,10,0,20,0,0,"",28,252,328,NA,NA,3890,4839,0,1,0,NA,NA,1,0
2016-03-12 12:00:00,0,0,0,0,NA,NA,NA,0,0,0,49,40,30.13,5,86,7,NA,60,38,89,53,43,32,30.25,29.96,12,0,10,2,0,16,0,NA,"",28,268,356,NA,NA,3906,4867,0,1,0,NA,NA,1,0
2016-03-13 12:00:00,0,1,0,0,NA,NA,NA,0,0,0,47,44,29.79,8,44,4,NA,50,43,100,66,47,39,29.95,29.67,17,4,9,2,0,18,0,0.75,"",27,286,383,NA,NA,3924,4894,0,1,0,NA,NA,1,0
2016-03-14 12:00:00,0,1,0,0,NA,NA,NA,0,0,0,49,43,29.72,5,44,7,NA,54,43,100,63,45,40,29.8,29.65,10,0,10,2,0,16,0,0.11,"",27,302,410,NA,NA,3940,4921,0,1,0,NA,NA,1,0
2016-03-15 12:00:00,0,1,0,0,NA,NA,NA,0,1,0,56,47,29.66,12,104,6,NA,64,47,90,58,53,41,29.8,29.37,28,4,10,2,5,9,0,0.09,"",27,311,437,NA,NA,3949,4948,0,1,0,NA,NA,1,0
2016-03-16 12:00:00,0,1,0,0,NA,NA,NA,0,0,0,53,38,29.58,23,247,9,NA,59,47,83,22,54,26,29.81,29.37,41,13,10,2,4,12,0,0.13,"",26,323,463,NA,NA,3961,4974,0,1,0,NA,NA,1,0
2016-03-17 12:00:00,0,0,0,0,NA,NA,NA,0,0,0,51,27,29.86,15,257,10,NA,58,43,58,18,30,24,29.94,29.8,28,7,10,10,0,14,0,0,"",26,337,489,NA,NA,3975,5000,0,1,0,NA,NA,1,0
2016-03-18 12:00:00,0,0,0,0,NA,NA,NA,0,0,0,43,28,30.09,10,9,10,NA,50,35,76,39,32,22,30.17,29.96,16,4,10,10,0,22,0,0,"",25,359,514,NA,NA,3997,5025,0,1,0,NA,NA,1,0
2016-03-19 12:00:00,0,0,0,0,NA,NA,NA,0,0,0,42,29,30.17,9,32,10,NA,47,36,76,48,31,25,30.24,30.11,17,4,10,10,0,23,0,0,"",25,382,539,NA,NA,4020,5050,0,1,0,NA,NA,1,0
2016-03-20 12:00:00,0,0,0,0,NA,NA,NA,0,0,0,39,25,30.19,9,36,10,NA,45,33,73,32,28,22,30.23,30.16,20,0,10,10,0,26,0,0,"",25,408,564,NA,NA,4046,5075,0,1,0,NA,NA,1,0
2016-03-21 12:00:00,0,0,0,0,NA,NA,NA,0,0,0,41,23,30.13,6,247,10,NA,50,32,70,23,27,20,30.22,30,15,4,10,10,0,24,0,0,"",24,432,588,NA,NA,4070,5099,0,1,0,NA,NA,1,0
2016-03-22 12:00:00,0,0,0,0,NA,NA,NA,0,0,0,56,33,29.76,14,209,10,NA,67,44,53,21,39,28,29.98,29.63,23,6,10,10,6,9,0,0,"",24,441,612,NA,NA,4079,5123,0,1,0,NA,NA,1,0
2016-03-23 12:00:00,0,1,0,0,NA,NA,NA,0,0,0,43,36,29.83,13,25,6,NA,47,39,93,65,40,34,29.88,29.74,22,8,8,1,0,22,0,0.06,"",24,463,636,NA,NA,4101,5147,0,1,0,NA,NA,1,0
2016-03-24 12:00:00,1,1,1,0,NA,NA,NA,0,0,0,36,34,29.61,13,354,4,NA,40,31,100,63,39,23,29.91,29.47,26,5,10,0,0,29,0,1.11,"",23,492,659,NA,NA,4130,5170,0,1,0,NA,NA,1,0
2016-03-25 12:00:00,0,0,0,0,NA,NA,NA,0,0,0,38,27,30.08,7,56,10,NA,45,31,76,46,31,22,30.17,29.93,18,0,10,10,0,27,0,0,"",23,519,682,NA,NA,4157,5193,0,1,0,NA,NA,1,0
2016-03-26 12:00:00,0,0,0,0,NA,NA,NA,0,0,0,45,33,30.15,8,118,10,NA,55,35,82,38,36,29,30.21,30.08,15,4,10,10,0,20,0,0,"",23,539,705,NA,NA,4177,5216,0,1,0,NA,NA,1,0
2016-03-27 12:00:00,0,1,0,0,NA,NA,NA,0,0,0,54,39,29.92,10,244,10,NA,66,42,86,39,43,36,30.08,29.82,23,0,10,3,4,11,0,0.17,"",22,550,727,NA,NA,4188,5238,0,1,0,NA,NA,1,0
2016-03-28 12:00:00,0,0,0,0,NA,NA,NA,0,0,0,46,35,30.08,9,328,10,NA,53,39,76,36,38,32,30.25,29.88,21,0,10,10,0,19,0,0,"",22,569,749,NA,NA,4207,5260,0,1,0,NA,NA,1,0
2016-03-29 12:00:00,0,0,0,0,NA,NA,NA,0,0,0,48,29,30.27,5,117,10,NA,60,35,83,18,35,24,30.36,30.14,16,0,10,9,0,17,0,0,"",21,586,770,NA,NA,4224,5281,0,1,0,NA,NA,1,0
2016-03-30 12:00:00,0,1,0,0,NA,NA,NA,0,1,0,54,44,29.76,15,179,8,NA,62,46,90,32,55,28,30.12,29.52,28,8,10,2,3,11,0,0.38,"",21,597,791,NA,NA,4235,5302,0,1,0,NA,NA,1,0
2016-03-31 12:00:00,0,1,0,0,NA,NA,NA,0,1,0,58,50,29.41,17,235,9,NA,70,45,90,50,57,39,29.59,29.25,32,7,10,2,8,7,0,0.05,"",21,604,812,NA,NA,4242,5323,0,1,1,NA,NA,1,1
2016-04-01 12:00:00,0,1,0,0,NA,NA,NA,0,0,0,44,35,29.73,9,325,10,NA,51,37,86,33,40,22,29.85,29.6,29,0,10,8,0,21,0,0.11,"",20,21,20,NA,NA,4263,5343,0,0,0,NA,NA,1,1
2016-04-02 12:00:00,0,1,1,0,NA,NA,NA,0,0,0,36,22,29.75,17,290,8,NA,42,29,85,27,28,11,30.07,29.52,39,5,10,0,0,29,0,0.01,"",20,50,40,NA,NA,4292,5363,0,0,0,NA,NA,1,1
2016-04-03 12:00:00,0,1,0,0,NA,NA,NA,0,0,0,51,27,29.83,17,219,10,NA,72,29,71,18,42,13,30.07,29.55,33,4,10,10,0,14,0,NA,"",20,64,60,NA,NA,4306,5383,0,0,0,NA,NA,1,1
2016-04-04 12:00:00,0,0,1,0,NA,NA,NA,0,0,0,35,25,30.17,15,8,9,NA,39,31,79,43,30,18,30.43,29.81,25,8,10,2,0,30,0,NA,"",19,94,79,NA,NA,4336,5402,0,0,0,NA,NA,1,1
2016-04-05 12:00:00,0,1,0,0,NA,NA,NA,0,0,0,38,20,30.35,10,118,10,NA,47,29,64,26,31,8,30.51,30.03,22,5,10,9,0,27,0,0.02,"",19,121,98,NA,NA,4363,5421,0,0,0,NA,NA,1,1
2016-04-06 12:00:00,0,1,0,0,NA,NA,NA,0,1,0,47,40,29.61,12,242,7,NA,50,43,89,44,47,28,29.94,29.51,21,5,10,2,0,18,0,0.43,"",18,139,116,NA,NA,4381,5439,0,0,0,NA,NA,1,1
2016-04-07 12:00:00,0,1,1,0,NA,NA,NA,0,0,0,39,30,29.69,14,319,9,NA,43,35,82,40,38,22,29.89,29.54,25,9,10,1,0,26,0,0.02,"",18,165,134,NA,NA,4407,5457,0,0,0,NA,NA,1,1
2016-04-08 12:00:00,0,1,1,0,NA,NA,1,0,0,0,37,26,29.87,14,296,8,NA,44,29,86,37,34,13,30.03,29.78,30,5,10,0,0,28,0,0.08,"",18,193,152,NA,NA,4435,5475,0,0,0,NA,NA,1,1
2016-04-09 12:00:00,0,0,1,0,NA,NA,1,0,0,0,31,14,30.21,13,23,10,NA,37,24,75,27,23,9,30.32,30,25,0,10,4,0,34,0,NA,"",17,227,169,NA,NA,4469,5492,0,0,0,NA,NA,1,1
2016-04-10 12:00:00,0,1,1,0,NA,NA,NA,0,0,0,43,34,29.89,13,183,8,NA,51,34,93,38,49,17,30.16,29.74,25,7,10,2,0,22,0,0.13,"",17,249,186,NA,NA,4491,5509,0,0,0,NA,NA,1,1
2016-04-11 12:00:00,0,0,0,0,NA,NA,NA,0,0,0,46,34,29.91,11,282,9,NA,52,40,96,23,49,18,30.17,29.77,23,4,10,3,0,19,0,0,"",17,268,203,NA,NA,4510,5526,0,0,0,NA,NA,1,1
2016-04-12 12:00:00,0,0,0,0,NA,NA,NA,0,0,0,40,22,30.35,8,41,10,NA,46,33,68,25,28,18,30.4,30.19,15,4,10,10,0,25,0,0,"",16,293,219,NA,NA,4535,5542,0,0,0,NA,NA,1,1
2016-04-13 12:00:00,0,0,0,0,NA,NA,NA,0,0,0,47,28,30.32,8,106,10,NA,57,37,68,30,33,22,30.38,30.25,16,4,10,10,0,18,0,0,"",16,311,235,NA,NA,4553,5558,0,0,0,NA,NA,1,1
2016-04-14 12:00:00,0,0,0,0,NA,NA,NA,0,0,0,51,27,30.26,9,100,10,NA,61,40,58,16,35,20,30.33,30.19,15,5,10,10,1,14,0,0,"",15,325,250,NA,NA,4567,5573,0,0,0,NA,NA,1,1
2016-04-15 12:00:00,0,0,0,0,NA,NA,NA,0,0,0,57,33,30.22,8,84,10,NA,69,45,58,20,36,27,30.26,30.19,15,5,10,10,7,8,0,0,"",15,333,265,NA,NA,4575,5588,0,0,0,NA,NA,1,1
2016-04-16 12:00:00,0,0,0,0,NA,NA,NA,0,0,0,63,39,30.28,7,76,10,NA,77,48,66,18,45,34,30.32,30.22,16,0,10,10,12,2,0,0,"",15,335,280,NA,NA,4577,5603,NA,0,0,NA,NA,1,1
2016-04-17 12:00:00,0,0,0,0,NA,NA,NA,0,0,0,66,38,30.34,7,89,10,NA,80,51,59,13,42,36,30.41,30.3,17,0,10,10,16,0,1,0,"",14,335,294,NA,NA,4577,5617,0,1,0,NA,NA,2,1
2016-04-18 12:00:00,0,0,0,0,NA,NA,NA,0,0,0,68,39,30.25,5,104,10,NA,83,53,55,12,41,36,30.32,30.17,15,0,10,10,18,0,3,0,"",14,335,308,NA,NA,4577,5631,0,4,0,NA,NA,5,1
2016-04-19 12:00:00,0,0,0,0,NA,NA,NA,0,0,0,55,41,30.2,11,25,10,NA,61,48,69,46,44,38,30.24,30.16,21,8,10,10,4,10,0,0,"",14,345,322,NA,NA,4587,5645,1,4,1,NA,NA,5,2
2016-04-20 12:00:00,0,1,0,0,NA,NA,NA,0,0,0,64,43,30.04,10,140,9,NA,73,54,87,28,55,34,30.17,29.93,20,6,10,3,13,1,0,0.33,"",13,346,335,NA,NA,4588,5658,1,4,2,NA,NA,5,3
