"date","fog","rain","snow","snow_fall","mtd_snow","since_jul_snow","snow_depth","hail","thunder","tornado","mean_temp","mean_dewp","mean_pressure","mean_wind_spd","mean_wind_dir","mean_visib","humid","max_temp","min_temp","max_humid","min_humid","max_dew_pt","min_dew_pt","max_pressure","min_pressure","max_wind_spd","min_wind_spd","max_vis","min_vis","gdegree","heating_days","cooling_days","precip","precip_source","heating_day_normal","mtd_heating_degree","mtd_heating_degree_normal","since_sep_heating","since_sep_heating_normal","since_jul_heating","since_jul_heating_normal","cooling_degree_normal","mtd_cooling_day","mtd_cooling_day_normal","since_sep_cooling","since_sep_cooling_normal","since_jan_cooling","since_jan_cooling_normal"
2015-04-20 12:00:00,0,0,0,0,0,0,NA,0,0,0,63,51,29.89,2,265,8,NA,70,55,86,51,53,50,29.92,29.83,8,0,10,4,12,2,0,0,"",3,23,72,NA,NA,415,1004,2,35,23,NA,NA,229,66
2015-04-21 12:00:00,0,0,0,0,0,0,NA,0,0,0,63,48,29.91,2,-1,10,NA,67,58,80,48,51,46,29.95,29.87,7,0,10,10,12,2,0,0,"",3,25,75,NA,NA,417,1007,2,35,25,NA,NA,229,68
2015-04-22 12:00:00,0,0,0,0,0,0,NA,0,0,0,63,51,29.89,2,238,10,NA,69,57,86,47,53,48,29.91,29.88,8,0,10,9,13,2,0,0,"",3,27,78,NA,NA,419,1010,2,35,27,NA,NA,229,70
2015-04-23 12:00:00,0,0,0,0,0,0,NA,0,0,0,62,51,29.9,2,277,10,NA,69,55,86,49,53,49,29.95,29.88,10,0,10,9,12,3,0,0,"",3,30,81,NA,NA,422,1013,2,35,29,NA,NA,229,72
2015-04-24 12:00:00,0,0,0,0,0,0,NA,0,0,0,62,52,29.98,1,280,10,NA,67,57,86,58,53,50,30.01,29.91,7,0,10,10,12,3,0,0,"",3,33,84,NA,NA,425,1016,2,35,31,NA,NA,229,74
2015-04-25 12:00:00,0,0,0,0,0,0,NA,0,0,0,61,52,29.94,3,272,10,NA,66,56,86,52,56,49,29.99,29.85,14,0,10,10,10,4,0,NA,"",3,37,87,NA,NA,429,1019,2,35,33,NA,NA,229,76
2015-04-26 12:00:00,0,0,0,0,0,0,NA,0,0,0,66,48,29.93,4,125,10,NA,77,54,83,24,50,37,29.99,29.85,12,0,10,10,16,0,1,0,"",3,37,90,NA,NA,429,1022,2,36,35,NA,NA,230,78
2015-04-27 12:00:00,0,0,0,0,0,0,NA,0,0,0,70,45,29.92,3,280,10,NA,82,57,80,19,52,34,29.95,29.88,12,0,10,9,20,0,5,0,"",3,37,93,NA,NA,429,1025,2,41,37,NA,NA,235,80
2015-04-28 12:00:00,0,0,0,0,0,0,NA,0,0,0,77,41,29.91,2,344,10,NA,92,61,58,12,51,30,29.95,29.87,10,0,10,9,25,0,12,0,"",2,37,95,NA,NA,429,1027,2,53,39,NA,NA,247,82
2015-04-29 12:00:00,0,0,0,0,0,0,NA,0,0,0,75,49,29.86,1,290,10,NA,89,60,84,15,55,33,29.93,29.79,10,0,10,8,24,0,10,0,"",2,37,97,NA,NA,429,1029,2,63,41,NA,NA,257,84
2015-04-30 12:00:00,0,0,0,0,0,0,NA,0,0,0,73,53,29.82,2,282,9,NA,86,60,84,20,57,39,29.86,29.79,8,0,10,7,22,0,8,0,"",2,37,99,NA,NA,429,1033,2,71,44,NA,NA,265,87
2015-05-01 12:00:00,0,0,0,0,0,0,NA,0,0,0,71,52,29.87,2,280,8,NA,84,57,93,26,58,40,29.88,29.84,9,0,10,3,20,0,6,0,"",2,0,2,NA,NA,429,1035,2,6,2,NA,NA,271,89
2015-05-02 12:00:00,0,0,0,0,0,0,NA,0,0,0,70,51,29.84,2,275,9,NA,80,59,80,38,56,45,29.89,29.8,10,0,10,7,19,0,5,0,"",2,0,4,NA,NA,429,1037,2,11,4,NA,NA,276,91
2015-05-03 12:00:00,0,0,0,0,0,0,NA,0,0,0,66,52,29.89,2,225,9,NA,74,58,80,53,55,48,29.92,29.84,10,0,10,7,15,0,1,0,"",2,0,6,NA,NA,429,1039,2,12,6,NA,NA,277,93
2015-05-04 12:00:00,0,0,0,0,0,0,NA,0,0,0,63,51,29.95,2,267,10,NA,69,56,86,55,52,49,29.99,29.91,9,0,10,7,12,2,0,0,"",2,2,8,NA,NA,431,1041,2,12,8,NA,NA,277,95
2015-05-05 12:00:00,0,0,0,0,0,0,NA,0,0,0,63,49,29.97,3,114,10,NA,67,58,77,52,50,48,30,29.92,8,0,10,9,12,2,0,0,"",2,4,10,NA,NA,433,1043,2,12,10,NA,NA,277,97
2015-05-06 12:00:00,0,0,0,0,0,0,NA,0,0,0,63,49,29.88,1,275,10,NA,67,58,80,52,52,47,29.95,29.83,9,0,10,6,12,2,0,0,"",2,6,12,NA,NA,435,1045,2,12,12,NA,NA,277,99
2015-05-07 12:00:00,0,1,0,0,0,0,NA,0,0,0,60,49,29.86,2,268,10,NA,65,54,83,52,51,46,29.88,29.84,9,0,10,4,9,5,0,0.03,"",2,11,14,NA,NA,440,1047,2,12,14,NA,NA,277,101
2015-05-08 12:00:00,0,1,0,0,0,0,NA,0,0,0,57,48,29.92,3,133,9,NA,63,50,83,55,50,45,30.05,29.85,9,0,10,2,6,8,0,0.18,"",2,19,16,NA,NA,448,1049,2,12,16,NA,NA,277,103
2015-05-09 12:00:00,0,0,0,0,0,0,NA,0,0,0,62,51,30.05,1,277,9,NA,69,55,86,52,52,49,30.07,30.01,9,0,10,7,10,3,0,0,"",2,22,18,NA,NA,451,1051,2,12,18,NA,NA,277,105
2015-05-10 12:00:00,0,0,0,0,0,0,NA,0,0,0,63,52,29.97,1,290,10,NA,72,54,89,51,53,50,30.04,29.91,9,0,10,8,13,2,0,0,"",2,24,20,NA,NA,453,1053,2,12,20,NA,NA,277,107
2015-05-11 12:00:00,0,0,0,0,0,0,NA,0,0,0,67,54,29.87,2,260,9,NA,76,57,86,49,57,51,29.94,29.8,9,0,10,6,16,0,2,0,"",2,24,22,NA,NA,453,1055,2,14,22,NA,NA,279,109
2015-05-12 12:00:00,0,0,0,0,0,0,NA,0,0,0,65,52,29.88,2,165,10,NA,72,57,87,44,55,47,29.93,29.83,9,0,10,7,14,0,0,0,"",2,24,24,NA,NA,453,1057,2,14,24,NA,NA,279,111
2015-05-13 12:00:00,0,0,0,0,0,0,NA,0,0,0,64,49,29.93,4,125,10,NA,69,58,77,45,52,46,29.99,29.87,9,0,10,10,12,1,0,0,"",2,25,26,NA,NA,454,1059,2,14,26,NA,NA,279,113
2015-05-14 12:00:00,0,1,0,0,0,0,NA,0,0,0,61,51,29.89,2,133,7,NA,68,53,93,48,54,46,29.93,29.85,8,0,10,1,10,4,0,0.69,"",1,29,27,NA,NA,458,1060,2,14,28,NA,NA,279,115
2015-05-15 12:00:00,0,1,0,0,0,0,NA,0,0,0,61,50,29.86,3,267,10,NA,66,55,83,52,52,47,29.9,29.83,13,0,10,5,10,4,0,0.03,"",1,33,28,NA,NA,462,1061,2,14,30,NA,NA,279,117
2015-05-16 12:00:00,0,0,0,0,0,0,NA,0,0,0,64,52,29.97,2,87,10,NA,71,56,83,55,55,49,30.02,29.89,8,0,10,10,12,1,0,0,"",1,34,29,NA,NA,463,1062,2,14,32,NA,NA,279,119
2015-05-17 12:00:00,0,0,0,0,0,0,NA,0,0,0,65,53,30,1,100,10,NA,72,58,80,53,54,52,30.04,29.98,9,0,10,6,16,0,0,0,"",1,34,30,NA,NA,463,1063,2,14,34,NA,NA,279,121
2015-05-18 12:00:00,0,0,0,0,0,0,NA,0,0,0,66,52,30.02,1,110,10,NA,71,60,78,55,54,48,30.05,29.99,9,0,10,7,14,0,1,NA,"",1,34,31,NA,NA,463,1064,2,15,36,NA,NA,280,123
2015-05-19 12:00:00,0,0,0,0,0,0,NA,0,0,0,65,51,30.02,2,100,10,NA,73,56,80,51,53,47,30.07,29.97,8,0,10,10,14,0,0,0,"",1,34,32,NA,NA,463,1065,2,15,38,NA,NA,280,125
2015-05-20 12:00:00,0,0,0,0,0,0,NA,0,0,0,65,51,29.95,1,-1,10,NA,72,57,86,47,53,50,29.97,29.91,10,0,10,10,14,0,0,0,"",1,34,33,NA,NA,463,1066,2,15,40,NA,NA,280,127
2015-05-21 12:00:00,0,0,0,0,0,0,NA,0,0,0,64,51,29.95,1,-1,10,NA,71,57,86,49,53,47,29.98,29.92,9,0,10,10,14,1,0,0,"",1,35,34,NA,NA,464,1067,2,15,42,NA,NA,280,129
2015-05-22 12:00:00,0,0,0,0,0,0,NA,0,0,0,63,51,30.01,2,260,10,NA,69,57,86,52,53,49,30.06,29.96,10,0,10,9,12,2,0,0,"",1,37,35,NA,NA,466,1068,2,15,44,NA,NA,280,131
2015-05-23 12:00:00,0,0,0,0,0,0,NA,0,0,0,64,52,30.05,1,190,10,NA,71,57,80,53,54,50,30.08,30,10,0,10,10,14,1,0,0,"",1,38,36,NA,NA,467,1069,2,15,46,NA,NA,280,133
2015-05-24 12:00:00,0,0,0,0,0,0,NA,0,0,0,64,51,29.98,2,205,10,NA,70,58,75,53,53,49,30.02,29.93,10,0,10,10,14,1,0,0,"",1,39,37,NA,NA,468,1070,2,15,48,NA,NA,280,135
2015-05-25 12:00:00,0,0,0,0,0,0,NA,0,0,0,64,54,29.97,1,272,10,NA,71,57,86,57,55,52,30,29.94,9,0,10,7,14,1,0,0,"",1,40,38,NA,NA,469,1071,2,15,50,NA,NA,280,137
2015-05-26 12:00:00,0,0,0,0,0,0,NA,0,0,0,64,54,29.98,1,272,10,NA,69,59,80,63,56,53,30,29.96,9,0,10,7,14,1,0,0,"",1,41,39,NA,NA,470,1072,2,15,52,NA,NA,280,139
2015-05-27 12:00:00,0,0,0,0,0,0,NA,0,0,0,65,54,29.98,2,275,9,NA,72,58,80,53,55,53,30,29.94,10,0,10,5,15,0,0,0,"",1,41,40,NA,NA,470,1073,2,15,54,NA,NA,280,141
2015-05-28 12:00:00,0,0,0,0,0,0,NA,0,0,0,66,55,29.96,2,263,8,NA,75,57,87,53,56,53,30,29.9,9,0,10,4,15,0,1,0,"",1,41,41,NA,NA,470,1074,2,16,56,NA,NA,281,143
2015-05-29 12:00:00,0,0,0,0,0,0,NA,0,0,0,68,56,29.93,1,280,6,NA,77,58,87,54,58,55,29.96,29.87,8,0,10,2,16,0,3,0,"",1,41,42,NA,NA,470,1075,2,19,58,NA,NA,284,145
2015-05-30 12:00:00,0,0,0,0,0,0,NA,0,0,0,68,57,29.92,1,260,5,NA,77,59,93,57,59,56,29.96,29.86,9,0,10,2,17,0,3,0,"",1,41,43,NA,NA,470,1076,3,22,61,NA,NA,287,148
2015-05-31 12:00:00,0,0,0,0,0,0,NA,0,0,0,66,56,29.93,1,270,7,NA,73,59,90,61,58,54,29.96,29.9,8,0,10,3,16,0,1,0,"",1,41,44,NA,NA,470,1076,3,23,67,NA,NA,288,154
2015-06-01 12:00:00,0,0,0,0,0,0,NA,0,0,0,67,55,29.98,1,205,8,NA,75,59,87,53,57,54,30,29.96,10,0,10,4,16,0,2,0,"",1,0,1,NA,NA,470,1077,3,2,3,NA,NA,290,157
2015-06-02 12:00:00,0,0,0,0,0,0,NA,0,0,0,68,57,29.97,2,227,10,NA,76,60,84,54,58,55,29.99,29.91,8,0,10,10,18,0,3,0,"",1,0,2,NA,NA,470,1078,3,5,6,NA,NA,293,160
2015-06-03 12:00:00,0,1,0,0,0,0,NA,0,0,0,68,56,29.92,3,135,9,NA,74,61,84,53,59,54,29.96,29.86,9,0,10,2,18,0,3,NA,"",1,0,3,NA,NA,470,1079,3,8,9,NA,NA,296,163
2015-06-04 12:00:00,0,0,0,0,0,0,NA,0,0,0,66,55,29.86,1,278,10,NA,70,61,84,57,57,53,29.9,29.82,7,0,10,5,15,0,1,NA,"",1,0,4,NA,NA,470,1080,3,9,12,NA,NA,297,166
2015-06-05 12:00:00,0,0,0,0,0,0,NA,0,0,0,67,53,29.85,3,105,10,NA,73,60,84,47,56,49,29.89,29.83,10,0,10,8,16,0,2,NA,"",1,0,5,NA,NA,470,1081,3,11,15,NA,NA,299,169
2015-06-06 12:00:00,0,0,0,0,0,0,NA,0,0,0,65,55,29.9,2,270,10,NA,72,58,84,61,56,54,29.93,29.86,9,0,10,10,14,0,0,0,"",1,0,6,NA,NA,470,1082,3,11,18,NA,NA,299,172
2015-06-07 12:00:00,0,0,0,0,0,0,NA,0,0,0,69,57,29.87,2,297,10,NA,77,60,84,54,59,55,29.91,29.79,10,0,10,10,18,0,4,0,"",0,0,6,NA,NA,470,1082,3,15,21,NA,NA,303,175
2015-06-08 12:00:00,0,0,0,0,0,0,NA,0,0,0,73,59,29.84,2,287,7,NA,85,60,90,44,61,57,29.87,29.78,9,0,10,1,22,0,8,0,"",0,0,6,NA,NA,470,1082,3,23,24,NA,NA,311,178
2015-06-09 12:00:00,0,1,0,0,0,0,NA,0,0,0,74,59,29.81,3,314,10,NA,86,62,90,37,63,55,29.88,29.77,9,0,10,7,23,0,9,0.01,"",0,0,6,NA,NA,470,1082,3,32,27,NA,NA,320,181
2015-06-10 12:00:00,0,0,0,0,0,0,NA,0,0,0,68,61,29.89,2,250,9,NA,73,62,87,68,63,59,29.94,29.85,9,0,10,5,18,0,3,0,"",0,0,6,NA,NA,470,1082,4,35,31,NA,NA,323,185
2015-06-11 12:00:00,0,0,0,0,0,0,NA,0,0,0,69,61,29.86,2,285,6,NA,75,62,93,64,61,60,29.9,29.81,8,0,10,2,18,0,4,0,"",0,0,6,NA,NA,470,1082,4,39,35,NA,NA,327,189
2015-06-12 12:00:00,0,0,0,0,0,0,NA,0,0,0,68,60,29.83,1,272,8,NA,72,63,93,68,61,59,29.85,29.79,7,0,10,5,18,0,3,0,"",0,0,6,NA,NA,470,1082,4,42,39,NA,NA,330,193
2015-06-13 12:00:00,0,0,0,0,0,0,NA,0,0,0,68,60,29.81,1,140,9,NA,72,63,93,68,60,58,29.84,29.77,7,0,10,5,18,0,3,0,"",0,0,6,NA,NA,470,1082,4,45,43,NA,NA,333,197
2015-06-14 12:00:00,0,0,0,0,0,0,NA,0,0,0,70,60,29.79,2,277,8,NA,77,63,90,60,61,58,29.83,29.75,9,0,10,4,19,0,5,0,"",0,0,6,NA,NA,470,1082,4,50,47,NA,NA,338,201
2015-06-15 12:00:00,0,0,0,0,0,0,NA,0,0,0,70,60,29.83,2,273,7,NA,78,62,93,56,62,58,29.87,29.8,9,0,10,3,20,0,5,0,"",0,0,6,NA,NA,470,1082,4,55,51,NA,NA,343,205
2015-06-16 12:00:00,0,0,0,0,0,0,NA,0,0,0,70,60,29.88,2,277,6,NA,79,61,93,56,62,58,29.91,29.85,8,0,10,3,20,0,5,0,"",0,0,6,NA,NA,470,1082,4,60,55,NA,NA,348,209
2015-06-17 12:00:00,0,0,0,0,0,0,NA,0,0,0,70,60,29.89,2,-1,6,NA,78,62,93,60,62,59,29.92,29.86,8,0,10,2,20,0,5,0,"",0,0,6,NA,NA,470,1082,5,65,60,NA,NA,353,214
2015-06-18 12:00:00,0,0,0,0,0,0,NA,0,0,0,72,59,29.91,1,275,7,NA,81,62,90,51,62,58,29.94,29.87,9,0,10,2,21,0,7,0,"",0,0,6,NA,NA,470,1082,5,72,65,NA,NA,360,219
2015-06-19 12:00:00,0,0,0,0,0,0,NA,0,0,0,70,58,29.84,1,265,6,NA,82,58,93,42,62,53,29.88,29.79,9,0,10,1,19,0,5,0,"",0,0,6,NA,NA,470,1082,5,77,70,NA,NA,365,224
2015-06-20 12:00:00,0,0,0,0,0,0,NA,0,0,0,74,60,29.82,1,145,8,NA,85,63,87,40,62,58,29.86,29.78,10,0,10,4,24,0,9,0,"",0,0,6,NA,NA,470,1082,5,86,75,NA,NA,374,229
2015-06-21 12:00:00,0,0,0,0,0,0,NA,0,0,0,73,61,29.91,2,263,8,NA,82,64,87,54,63,57,29.94,29.85,9,0,10,6,22,0,8,0,"",0,0,6,NA,NA,470,1082,5,94,80,NA,NA,382,234
2015-06-22 12:00:00,0,0,0,0,0,0,NA,0,0,0,73,57,29.92,1,250,10,NA,83,62,93,42,60,53,29.94,29.88,8,0,10,8,22,0,8,0,"",0,0,6,NA,NA,470,1082,5,102,85,NA,NA,390,239
2015-06-23 12:00:00,0,0,0,0,0,0,NA,0,0,0,74,58,29.9,2,0,10,NA,84,63,90,42,61,54,29.94,29.84,10,0,10,8,22,0,9,0,"",0,0,6,NA,NA,470,1082,6,111,91,NA,NA,399,245
2015-06-24 12:00:00,0,0,0,0,0,0,NA,0,0,0,73,58,29.87,1,260,10,NA,83,63,84,47,62,54,29.9,29.85,12,0,10,8,22,0,8,0,"",0,0,6,NA,NA,470,1082,6,119,97,NA,NA,407,251
2015-06-25 12:00:00,0,0,0,0,0,0,NA,0,0,0,72,60,29.92,2,268,9,NA,81,62,93,51,62,56,29.96,29.89,8,0,10,6,22,0,7,0,"",0,0,6,NA,NA,470,1082,6,126,103,NA,NA,414,257
2015-06-26 12:00:00,0,0,0,0,0,0,NA,0,0,0,69,59,29.95,2,270,7,NA,78,60,97,56,61,58,29.97,29.92,10,0,10,2,18,0,4,0,"",0,0,6,NA,NA,470,1082,6,130,109,NA,NA,418,263
2015-06-27 12:00:00,0,0,0,0,0,0,NA,0,0,0,70,59,29.95,1,293,10,NA,77,62,90,60,60,58,30.03,29.9,9,0,10,10,19,0,5,NA,"",0,0,6,NA,NA,470,1082,6,135,115,NA,NA,423,269
2015-06-28 12:00:00,0,0,0,0,0,0,NA,0,0,0,77,60,29.88,1,210,10,NA,86,67,81,44,63,58,29.92,29.82,9,0,10,10,25,0,12,NA,"",0,0,6,NA,NA,470,1082,7,147,122,NA,NA,435,276
2015-06-29 12:00:00,0,0,0,0,0,0,NA,0,0,0,80,60,29.87,1,90,10,NA,91,68,73,41,64,56,29.9,29.84,8,0,10,10,30,0,15,0,"",0,0,6,NA,NA,470,1082,7,162,129,NA,NA,450,283
2015-06-30 12:00:00,0,1,0,0,0,0,NA,0,0,0,78,60,29.86,1,270,10,NA,89,67,84,24,65,46,29.93,29.77,12,0,10,10,28,0,13,NA,"",0,0,6,NA,NA,470,1084,7,175,134,NA,NA,463,288
2015-07-01 12:00:00,0,0,0,0,0,0,NA,0,0,0,76,62,29.89,2,285,10,NA,84,67,87,44,64,59,29.94,29.84,8,0,10,8,25,0,11,0,"",0,0,0,NA,NA,0,0,7,11,7,NA,NA,474,295
2015-07-02 12:00:00,0,0,0,0,0,0,NA,0,0,0,74,62,29.94,2,270,10,NA,83,65,81,47,63,60,29.99,29.91,12,0,10,10,24,0,9,0,"",0,0,0,NA,NA,0,0,7,20,14,NA,NA,483,302
2015-07-03 12:00:00,0,0,0,0,0,0,NA,0,0,0,72,61,29.9,1,273,9,NA,80,63,87,54,62,58,29.96,29.83,9,0,10,5,22,0,7,0,"",0,0,0,NA,NA,0,0,7,27,21,NA,NA,490,309
2015-07-04 12:00:00,0,0,0,0,0,0,NA,0,0,0,71,59,29.88,1,-1,9,NA,79,63,90,54,61,58,29.94,29.84,8,0,10,4,20,0,6,0,"",0,0,0,NA,NA,0,0,7,33,28,NA,NA,496,316
2015-07-05 12:00:00,0,0,0,0,0,0,NA,0,0,0,70,59,29.96,2,-1,9,NA,75,64,84,60,61,58,30.02,29.92,8,0,10,6,20,0,5,0,"",0,0,0,NA,NA,0,0,8,38,36,NA,NA,501,324
2015-07-06 12:00:00,0,0,0,0,0,0,NA,0,0,0,70,60,30,1,-1,9,NA,75,64,84,64,61,59,30.06,29.96,8,0,10,7,18,0,5,0,"",0,0,0,NA,NA,0,0,8,43,44,NA,NA,506,332
2015-07-07 12:00:00,0,0,0,0,0,0,NA,0,0,0,71,60,29.94,1,280,8,NA,77,65,84,60,61,59,30,29.86,8,0,10,4,20,0,6,0,"",0,0,0,NA,NA,0,0,8,49,52,NA,NA,512,340
2015-07-08 12:00:00,0,0,0,0,0,0,NA,0,0,0,71,59,29.86,2,200,10,NA,75,66,78,64,61,57,29.89,29.81,8,0,10,7,20,0,6,0,"",0,0,0,NA,NA,0,0,8,55,60,NA,NA,518,348
2015-07-09 12:00:00,0,0,0,0,0,0,NA,0,0,0,70,57,29.88,1,270,10,NA,76,64,84,49,60,54,29.91,29.83,9,0,10,9,20,0,5,0,"",0,0,0,NA,NA,0,0,8,60,68,NA,NA,523,356
2015-07-10 12:00:00,0,0,0,0,0,0,NA,0,0,0,69,56,29.91,2,180,10,NA,76,62,78,49,59,54,29.94,29.88,12,0,10,10,18,0,4,0,"",0,0,0,NA,NA,0,0,8,64,76,NA,NA,527,364
2015-07-11 12:00:00,0,0,0,0,0,0,NA,0,0,0,71,59,29.95,1,270,10,NA,79,62,90,52,60,58,29.99,29.9,9,0,10,10,20,0,6,0,"",0,0,0,NA,NA,0,0,8,70,84,NA,NA,533,372
2015-07-12 12:00:00,0,0,0,0,0,0,NA,0,0,0,72,58,29.97,2,250,10,NA,81,62,84,50,60,56,29.99,29.92,9,0,10,10,22,0,7,0,"",0,0,0,NA,NA,0,0,8,77,92,NA,NA,540,380
2015-07-13 12:00:00,0,0,0,0,0,0,NA,0,0,0,74,59,29.92,2,191,10,NA,84,64,81,47,62,56,29.96,29.86,9,0,10,10,23,0,9,0,"",0,0,0,NA,NA,0,0,8,86,100,NA,NA,549,388
2015-07-14 12:00:00,0,0,0,0,0,0,NA,0,0,0,74,60,29.87,2,222,10,NA,84,64,87,46,62,59,29.9,29.82,9,0,10,7,23,0,9,0,"",0,0,0,NA,NA,0,0,8,95,108,NA,NA,558,396
2015-07-15 12:00:00,0,0,0,0,0,0,NA,0,0,0,73,59,29.89,2,164,10,NA,81,65,87,45,61,57,29.94,29.86,10,0,10,9,23,0,8,0,"",0,0,0,NA,NA,0,0,9,103,117,NA,NA,566,405
2015-07-16 12:00:00,0,0,0,0,0,0,NA,0,0,0,73,60,29.91,2,270,10,NA,81,65,87,52,61,59,29.95,29.86,10,0,10,10,22,0,8,0,"",0,0,0,NA,NA,0,0,9,111,126,NA,NA,574,414
2015-07-17 12:00:00,0,0,0,0,0,0,NA,0,0,0,72,60,29.86,1,295,9,NA,81,63,90,51,62,59,29.91,29.79,8,0,10,7,22,0,7,0,"",0,0,0,NA,NA,0,0,9,118,135,NA,NA,581,423
2015-07-18 12:00:00,0,1,0,0,0,0,NA,0,0,0,76,62,29.95,2,4,7,NA,87,65,90,30,67,52,30.03,29.87,9,0,10,1,25,0,11,0.36,"",0,0,0,NA,NA,0,0,9,129,144,NA,NA,592,432
2015-07-19 12:00:00,0,1,0,0,0,0,NA,0,0,0,82,67,29.98,2,88,10,NA,92,72,82,43,70,63,30.04,29.91,13,0,10,10,32,0,17,0.02,"",0,0,0,NA,NA,0,0,9,146,153,NA,NA,609,441
2015-07-20 12:00:00,0,0,0,0,0,0,NA,0,0,0,78,66,29.97,2,283,10,NA,85,70,90,55,68,65,30.02,29.92,12,0,10,10,27,0,13,NA,"",0,0,0,NA,NA,0,0,9,159,162,NA,NA,622,450
2015-07-21 12:00:00,0,0,0,0,0,0,NA,0,0,0,75,66,29.91,2,278,10,NA,80,70,84,64,67,65,29.95,29.83,9,0,10,8,25,0,10,0,"",0,0,0,NA,NA,0,0,9,169,171,NA,NA,632,459
2015-07-22 12:00:00,0,0,0,0,0,0,NA,0,0,0,75,65,29.87,2,273,10,NA,81,68,90,58,66,62,29.91,29.83,10,0,10,8,24,0,10,0,"",0,0,0,NA,NA,0,0,9,179,180,NA,NA,642,468
2015-07-23 12:00:00,0,0,0,0,0,0,NA,0,0,0,75,64,29.95,1,210,10,NA,82,68,87,58,65,63,30.01,29.91,8,0,10,7,24,0,10,0,"",0,0,0,NA,NA,0,0,9,189,189,NA,NA,652,477
2015-07-24 12:00:00,0,0,0,0,0,0,NA,0,0,0,76,64,30.02,2,270,9,NA,85,67,93,51,66,63,30.07,29.98,10,0,10,6,25,0,11,0,"",0,0,0,NA,NA,0,0,9,200,198,NA,NA,663,486
2015-07-25 12:00:00,0,0,0,0,0,0,NA,0,0,0,77,63,29.96,2,270,10,NA,87,67,87,45,66,59,30.02,29.9,10,0,10,9,26,0,12,0,"",0,0,0,NA,NA,0,0,9,212,207,NA,NA,675,495
2015-07-26 12:00:00,0,0,0,0,0,0,NA,0,0,0,76,63,29.9,1,220,10,NA,85,67,84,47,64,60,29.94,29.88,9,0,10,9,25,0,11,0,"",0,0,0,NA,NA,0,0,9,223,216,NA,NA,686,504
2015-07-27 12:00:00,0,0,0,0,0,0,NA,0,0,0,75,61,29.9,2,225,10,NA,82,67,87,45,63,58,29.94,29.85,8,0,10,10,23,0,10,0,"",0,0,0,NA,NA,0,0,9,233,225,NA,NA,696,513
2015-07-28 12:00:00,0,0,0,0,0,0,NA,0,0,0,76,63,29.87,1,268,9,NA,85,66,87,48,64,62,29.92,29.83,10,0,10,6,25,0,11,0,"",0,0,0,NA,NA,0,0,9,244,234,NA,NA,707,522
2015-07-29 12:00:00,0,0,0,0,0,0,NA,0,0,0,74,63,29.92,2,282,8,NA,82,65,93,54,64,62,29.98,29.89,9,0,10,4,22,0,9,0,"",0,0,0,NA,NA,0,0,9,253,243,NA,NA,716,531
2015-07-30 12:00:00,0,0,0,0,0,0,NA,0,0,0,76,64,29.97,2,280,10,NA,83,68,84,58,66,62,30.02,29.95,9,0,10,9,25,0,11,0,"",0,0,0,NA,NA,0,0,9,264,252,NA,NA,727,540
2015-07-31 12:00:00,0,0,0,0,0,0,NA,0,0,0,76,65,29.98,2,268,9,NA,84,67,87,55,67,64,30.04,29.92,9,0,10,6,26,0,11,0,"",0,0,0,NA,NA,0,0,9,275,259,NA,NA,738,547
2015-08-01 12:00:00,0,0,0,0,0,0,NA,0,0,0,75,63,29.93,2,273,9,NA,83,67,93,54,65,62,29.98,29.87,9,0,10,5,24,0,10,0,"",0,0,0,NA,NA,0,0,9,10,9,NA,NA,748,556
2015-08-02 12:00:00,0,0,0,0,0,0,NA,0,0,0,75,63,29.87,1,260,10,NA,84,66,87,55,65,60,29.92,29.81,9,0,10,8,24,0,10,0,"",0,0,0,NA,NA,0,0,9,20,18,NA,NA,758,565
2015-08-03 12:00:00,0,0,0,0,0,0,NA,0,0,0,76,63,29.87,1,113,10,NA,84,67,87,55,65,59,29.9,29.84,9,0,10,8,24,0,11,0,"",0,0,0,NA,NA,0,0,9,31,27,NA,NA,769,574
2015-08-04 12:00:00,0,0,0,0,0,0,NA,0,0,0,78,61,29.89,2,141,10,NA,88,67,81,40,65,56,29.91,29.86,10,0,10,8,26,0,13,0,"",0,0,0,NA,NA,0,0,9,44,36,NA,NA,782,583
2015-08-05 12:00:00,0,0,0,0,0,0,NA,0,0,0,78,60,29.88,1,235,10,NA,88,67,81,35,64,55,29.93,29.84,10,0,10,10,28,0,13,0,"",0,0,0,NA,NA,0,0,9,57,45,NA,NA,795,592
2015-08-06 12:00:00,0,0,0,0,0,0,NA,0,0,0,77,62,29.85,1,-1,10,NA,86,67,87,51,65,60,29.87,29.81,9,0,10,10,25,0,12,0,"",0,0,0,NA,NA,0,0,9,69,54,NA,NA,807,601
2015-08-07 12:00:00,0,0,0,0,0,0,NA,0,0,0,74,61,29.89,1,170,9,NA,81,66,87,54,62,60,29.93,29.84,9,0,10,2,23,0,9,0,"",0,0,0,NA,NA,0,0,9,78,63,NA,NA,816,610
2015-08-08 12:00:00,0,0,0,0,0,0,NA,0,0,0,73,58,29.93,2,260,10,NA,81,65,81,45,60,55,29.97,29.89,10,0,10,10,22,0,8,0,"",0,0,0,NA,NA,0,0,9,86,72,NA,NA,824,619
2015-08-09 12:00:00,0,0,0,0,0,0,NA,0,0,0,71,59,29.95,2,265,10,NA,78,63,87,52,60,57,29.98,29.91,10,0,10,9,21,0,6,0,"",0,0,0,NA,NA,0,0,9,92,81,NA,NA,830,628
2015-08-10 12:00:00,0,0,0,0,0,0,NA,0,0,0,71,59,29.93,2,275,10,NA,78,63,87,56,61,57,29.99,29.86,9,0,10,9,20,0,6,0,"",0,0,0,NA,NA,0,0,9,98,90,NA,NA,836,637
2015-08-11 12:00:00,0,0,0,0,0,0,NA,0,0,0,72,60,29.91,1,-1,9,NA,81,63,87,54,61,59,29.95,29.87,9,0,10,7,22,0,7,0,"",0,0,0,NA,NA,0,0,9,105,99,NA,NA,843,646
2015-08-12 12:00:00,0,0,0,0,0,0,NA,0,0,0,74,60,29.94,1,-1,10,NA,85,63,87,40,61,56,29.99,29.87,9,0,10,9,24,0,9,0,"",0,0,0,NA,NA,0,0,9,114,108,NA,NA,852,655
2015-08-13 12:00:00,0,0,0,0,0,0,NA,0,0,0,80,60,29.9,1,-1,10,NA,91,68,76,36,65,55,29.94,29.83,8,0,10,8,29,0,15,0,"",0,0,0,NA,NA,0,0,9,129,117,NA,NA,867,664
2015-08-14 12:00:00,0,0,0,0,0,0,NA,0,0,0,80,59,29.89,2,262,10,NA,91,68,73,30,63,55,29.92,29.84,8,0,10,7,30,0,15,0,"",0,0,0,NA,NA,0,0,9,144,126,NA,NA,882,673
2015-08-15 12:00:00,0,0,0,0,0,0,NA,0,0,0,84,60,29.86,1,280,10,NA,96,71,73,25,64,55,29.89,29.81,8,0,10,10,34,0,19,0,"",0,0,0,NA,NA,0,0,9,163,135,NA,NA,901,682
2015-08-16 12:00:00,0,0,0,0,0,0,NA,0,0,0,82,60,29.83,1,272,10,NA,95,68,79,30,64,56,29.88,29.78,10,0,10,8,31,0,17,0,"",0,0,0,NA,NA,0,0,9,180,144,NA,NA,918,691
2015-08-17 12:00:00,0,0,0,0,0,0,NA,0,0,0,79,64,29.88,2,146,8,NA,88,69,90,44,66,61,29.93,29.84,9,0,10,2,27,0,14,0,"",0,0,0,NA,NA,0,0,9,194,153,NA,NA,932,700
2015-08-18 12:00:00,0,0,0,0,0,0,NA,0,0,0,77,63,29.91,2,272,10,NA,86,68,78,48,63,62,29.94,29.87,8,0,10,8,26,0,12,0,"",0,0,0,NA,NA,0,0,9,206,162,NA,NA,944,709
2015-08-19 12:00:00,0,0,0,0,0,0,NA,0,0,0,75,62,29.88,2,268,9,NA,82,67,81,51,63,60,29.92,29.84,8,0,10,5,24,0,10,0,"",0,0,0,NA,NA,0,0,9,216,171,NA,NA,954,718
2015-08-20 12:00:00,0,0,0,0,0,0,NA,0,0,0,74,61,29.86,2,109,9,NA,81,67,81,51,62,60,29.89,29.81,9,0,10,7,24,0,9,0,"",0,0,0,NA,NA,0,0,9,225,180,NA,NA,963,727
2015-08-21 12:00:00,0,0,0,0,0,0,NA,0,0,0,74,61,29.86,1,280,9,NA,80,67,81,54,62,60,29.9,29.83,8,0,10,6,22,0,9,0,"",0,0,0,NA,NA,0,0,9,234,189,NA,NA,972,736
2015-08-22 12:00:00,0,0,0,0,0,0,NA,0,0,0,76,62,29.89,2,270,8,NA,83,68,81,51,63,60,29.93,29.86,10,0,10,6,25,0,11,0,"",0,0,0,NA,NA,0,0,9,245,198,NA,NA,983,745
2015-08-23 12:00:00,0,0,0,0,0,0,NA,0,0,0,75,63,29.93,2,260,9,NA,83,66,87,54,64,62,29.97,29.88,10,0,10,7,24,0,10,0,"",0,0,0,NA,NA,0,0,9,255,207,NA,NA,993,754
2015-08-24 12:00:00,0,0,0,0,0,0,NA,0,0,0,77,63,29.93,1,260,9,NA,87,67,87,51,64,62,29.96,29.87,9,0,10,5,25,0,12,0,"",0,0,0,NA,NA,0,0,9,267,216,NA,NA,1005,763
2015-08-25 12:00:00,0,1,0,0,0,0,NA,0,0,0,79,64,29.91,1,283,9,NA,87,71,79,45,66,62,29.97,29.87,9,0,10,7,28,0,14,NA,"",0,0,0,NA,NA,0,0,9,281,225,NA,NA,1019,772
2015-08-26 12:00:00,0,0,0,0,0,0,NA,0,0,0,83,65,29.92,2,277,9,NA,92,73,79,41,68,61,29.96,29.89,9,0,10,5,32,0,18,0,"",0,0,0,NA,NA,0,0,9,299,234,NA,NA,1037,781
2015-08-27 12:00:00,0,0,0,0,0,0,NA,0,0,0,82,63,29.92,1,280,10,NA,93,71,84,34,66,57,29.97,29.85,9,0,10,8,32,0,17,0,"",0,0,0,NA,NA,0,0,9,316,243,NA,NA,1054,790
2015-08-28 12:00:00,0,0,0,0,0,0,NA,0,0,0,85,62,29.85,1,260,10,NA,97,73,79,27,66,55,29.89,29.8,9,0,10,7,34,0,20,0,"",0,0,0,NA,NA,0,0,9,336,252,NA,NA,1074,799
2015-08-29 12:00:00,0,0,0,0,0,0,NA,0,0,0,84,64,29.85,2,241,10,NA,94,73,79,36,67,59,29.88,29.81,9,0,10,10,33,0,19,0,"",0,0,0,NA,NA,0,0,9,355,261,NA,NA,1093,808
2015-08-30 12:00:00,0,0,0,0,0,0,NA,0,0,0,81,64,29.85,2,270,10,NA,90,71,79,46,67,59,29.89,29.8,8,0,10,10,29,0,16,0,"",0,0,0,NA,NA,0,0,9,371,270,NA,NA,1109,817
2015-08-31 12:00:00,0,0,0,0,0,0,NA,0,0,0,77,63,29.86,2,131,10,NA,85,69,84,47,65,60,29.91,29.83,9,0,10,8,26,0,12,0,"",0,0,0,NA,NA,0,0,9,383,287,NA,NA,1121,834
2015-09-01 12:00:00,0,0,0,0,0,0,NA,0,0,0,76,60,29.9,2,246,10,NA,83,69,73,43,63,58,29.95,29.87,8,0,10,8,26,0,11,0,"",0,0,0,0,0,0,0,9,11,9,11,9,1132,843
2015-09-02 12:00:00,0,0,0,0,0,0,NA,0,0,0,74,60,29.93,2,237,10,NA,81,67,81,54,62,58,29.96,29.87,9,0,10,9,22,0,9,0,"",0,0,0,0,0,0,0,9,20,18,20,18,1141,852
2015-09-03 12:00:00,0,0,0,0,0,0,NA,0,0,0,73,57,29.88,2,225,10,NA,80,66,78,45,60,55,29.94,29.81,9,0,10,8,22,0,8,0,"",0,0,0,0,0,0,0,9,28,27,28,27,1149,861
2015-09-04 12:00:00,0,0,0,0,0,0,NA,0,0,0,73,56,29.85,2,148,10,NA,79,66,70,46,59,52,29.89,29.82,9,0,10,10,22,0,8,0,"",0,0,0,0,0,0,0,9,36,36,36,36,1157,870
2015-09-05 12:00:00,0,0,0,0,0,0,NA,0,0,0,75,59,29.88,2,261,10,NA,85,65,78,43,61,57,29.92,29.85,8,0,10,10,23,0,10,0,"",0,0,0,0,0,0,0,9,46,45,46,45,1167,879
2015-09-06 12:00:00,0,0,0,0,0,0,NA,0,0,0,77,59,29.88,1,280,10,NA,90,64,81,36,64,56,29.91,29.84,9,0,10,10,26,0,12,0,"",0,0,0,0,0,0,0,9,58,54,58,54,1179,888
2015-09-07 12:00:00,0,0,0,0,0,0,NA,0,0,0,81,58,29.85,1,-1,10,NA,94,68,84,25,65,46,29.89,29.79,8,0,10,10,31,0,16,0,"",0,0,0,0,0,0,0,9,74,63,74,63,1195,897
2015-09-08 12:00:00,0,0,0,0,0,0,NA,0,0,0,85,60,29.8,1,277,10,NA,97,73,68,30,63,56,29.85,29.73,10,0,10,10,34,0,20,0,"",0,0,0,0,0,0,0,9,94,72,94,72,1215,906
2015-09-09 12:00:00,0,0,0,0,0,0,NA,0,0,0,89,60,29.79,1,301,10,NA,101,76,60,28,63,55,29.81,29.75,9,0,10,10,38,0,24,0,"",0,0,0,0,0,0,0,9,118,81,118,81,1239,915
2015-09-10 12:00:00,0,0,0,0,0,0,NA,0,0,0,87,62,29.83,2,273,10,NA,96,78,62,34,67,55,29.86,29.8,9,0,10,10,37,0,22,0,"",0,0,0,0,0,0,0,9,140,90,140,90,1261,924
2015-09-11 12:00:00,0,0,0,0,0,0,NA,0,0,0,86,59,29.87,1,280,10,NA,95,76,58,35,65,55,29.92,29.83,9,0,10,10,34,0,21,0,"",0,0,0,0,0,0,0,9,161,99,161,99,1282,933
2015-09-12 12:00:00,0,1,0,0,0,0,NA,0,0,0,83,60,29.88,2,287,10,NA,90,76,74,36,66,56,29.93,29.83,8,0,10,10,32,0,18,NA,"",0,0,0,0,0,0,0,9,179,108,179,108,1300,942
2015-09-13 12:00:00,0,0,0,0,0,0,NA,0,0,0,82,63,29.81,2,296,10,NA,91,72,79,36,67,57,29.87,29.73,9,0,10,10,31,0,17,0,"",0,0,0,0,0,0,0,9,196,117,196,117,1317,951
2015-09-14 12:00:00,0,0,0,0,0,0,NA,0,0,0,78,65,29.81,2,257,10,NA,84,71,84,54,66,63,29.85,29.78,9,0,10,8,26,0,13,0,"",0,0,0,0,0,0,0,8,209,125,209,125,1330,959
2015-09-15 12:00:00,0,1,0,0,0,0,NA,0,0,0,74,66,29.84,4,100,6,NA,80,67,93,69,70,62,29.92,29.78,10,0,10,1,22,0,9,2.39,"",0,0,0,0,0,0,0,8,218,133,218,133,1339,967
2015-09-16 12:00:00,0,1,0,0,0,0,NA,0,0,0,72,60,29.94,1,260,10,NA,78,66,87,46,63,53,29.99,29.91,8,0,10,9,20,0,7,0,"",0,0,0,0,0,0,0,8,225,141,225,141,1346,975
2015-09-17 12:00:00,0,0,0,0,0,0,NA,0,0,0,74,57,29.91,1,-1,10,NA,82,65,84,42,61,55,29.95,29.86,9,0,10,10,22,0,9,0,"",0,0,0,0,0,0,0,8,234,149,234,149,1355,983
2015-09-18 12:00:00,0,0,0,0,0,0,NA,0,0,0,76,60,29.81,2,275,10,NA,87,65,87,37,65,55,29.87,29.75,9,0,10,10,24,0,11,0,"",0,0,0,0,0,0,0,8,245,157,245,157,1366,991
2015-09-19 12:00:00,0,0,0,0,0,0,NA,0,0,0,80,61,29.77,1,270,10,NA,92,67,87,38,65,56,29.81,29.73,8,0,10,10,28,0,15,0,"",0,0,0,0,0,0,0,8,260,165,260,165,1381,999
2015-09-20 12:00:00,0,0,0,0,0,0,NA,0,0,0,84,60,29.77,2,292,10,NA,98,70,79,25,64,55,29.81,29.7,9,0,10,10,34,0,19,0,"",0,0,0,0,0,0,0,8,279,173,279,173,1400,1007
2015-09-21 12:00:00,0,0,0,0,0,0,NA,0,0,0,79,63,29.78,2,26,10,NA,86,72,79,47,66,58,29.84,29.69,12,0,10,6,28,0,14,0,"",0,0,0,0,0,0,0,8,293,181,293,181,1414,1015
2015-09-22 12:00:00,0,0,0,0,0,0,NA,0,0,0,77,65,29.88,2,251,9,NA,84,70,84,48,66,62,29.93,29.82,8,0,10,7,27,0,12,0,"",0,0,0,0,0,0,0,7,305,188,305,188,1426,1022
2015-09-23 12:00:00,0,0,0,0,0,0,NA,0,0,0,77,64,29.88,1,278,9,NA,86,68,87,48,66,63,29.93,29.83,8,0,10,6,27,0,12,0,"",0,0,0,0,0,0,0,7,317,195,317,195,1438,1029
2015-09-24 12:00:00,0,0,0,0,0,0,NA,0,0,0,80,65,29.85,1,270,9,NA,92,68,90,41,67,62,29.88,29.79,9,0,10,6,30,0,15,0,"",0,0,0,0,0,0,0,7,332,202,332,202,1453,1036
2015-09-25 12:00:00,0,0,0,0,0,0,NA,0,0,0,81,65,29.84,1,280,9,NA,93,69,90,41,68,62,29.89,29.8,9,0,10,7,30,0,16,0,"",0,0,0,0,0,0,0,7,348,209,348,209,1469,1043
2015-09-26 12:00:00,0,0,0,0,0,0,NA,0,0,0,81,65,29.8,1,267,10,NA,92,70,90,42,68,60,29.84,29.75,8,0,10,8,30,0,16,0,"",0,0,0,0,0,0,0,7,364,216,364,216,1485,1050
2015-09-27 12:00:00,0,0,0,0,0,0,NA,0,0,0,79,65,29.79,1,260,8,NA,90,67,90,43,67,62,29.83,29.76,8,0,10,2,28,0,14,0,"",0,0,0,0,0,0,0,7,378,223,378,223,1499,1057
2015-09-28 12:00:00,0,0,0,0,0,0,NA,0,0,0,78,63,29.85,1,270,9,NA,88,68,90,43,66,56,29.88,29.82,9,0,10,5,28,0,13,0,"",0,0,0,0,0,0,0,7,391,230,391,230,1512,1064
2015-09-29 12:00:00,0,0,0,0,0,0,NA,0,0,0,76,60,29.87,1,280,10,NA,87,64,87,42,62,57,29.91,29.83,9,0,10,9,25,0,11,0,"",0,0,0,0,0,0,0,6,402,236,402,236,1523,1070
2015-09-30 12:00:00,0,0,0,0,0,0,NA,0,0,0,78,60,29.82,1,290,10,NA,89,66,87,37,63,54,29.86,29.78,7,0,10,8,28,0,13,0,"",0,0,0,0,2,0,2,6,415,244,415,244,1536,1078
2015-10-01 12:00:00,0,0,0,0,0,0,NA,0,0,0,78,61,29.87,2,260,10,NA,87,69,84,39,64,54,29.92,29.82,9,0,10,7,28,0,13,0,"",0,0,0,0,2,0,2,6,13,6,428,250,1549,1084
2015-10-02 12:00:00,0,0,0,0,0,0,NA,0,0,0,76,60,29.84,3,301,10,NA,84,68,81,40,62,54,29.91,29.75,10,0,10,10,26,0,11,0,"",0,0,0,0,2,0,2,6,24,12,439,256,1560,1090
2015-10-03 12:00:00,0,0,0,0,0,0,NA,0,0,0,75,61,29.62,2,200,10,NA,84,65,84,44,64,57,29.75,29.55,9,0,10,7,24,0,10,0,"",0,0,0,0,2,0,2,6,34,18,449,262,1570,1096
2015-10-04 12:00:00,0,1,0,0,0,0,NA,0,0,0,68,56,29.63,1,185,10,NA,73,62,84,44,61,49,29.74,29.57,7,0,10,4,18,0,3,0.05,"",0,0,0,0,2,0,2,6,37,24,452,268,1573,1102
2015-10-05 12:00:00,1,1,0,0,0,0,NA,0,0,0,69,58,29.89,1,105,8,NA,76,62,93,49,62,53,30,29.75,9,0,10,0,18,0,4,0.4,"",0,0,0,0,2,0,2,6,41,30,456,274,1577,1108
2015-10-06 12:00:00,0,0,0,0,0,0,NA,0,0,0,70,58,30.03,2,296,10,NA,78,62,93,50,61,56,30.09,30,8,0,10,10,20,0,5,0,"",0,0,0,0,2,0,2,5,46,35,461,279,1582,1113
2015-10-07 12:00:00,0,0,0,0,0,0,NA,0,0,0,74,60,30.02,1,273,10,NA,84,64,84,45,64,57,30.06,29.99,10,0,10,10,23,0,9,0,"",0,0,0,0,2,0,2,5,55,40,470,284,1591,1118
2015-10-08 12:00:00,0,0,0,0,0,0,NA,0,0,0,77,62,29.95,0,270,10,NA,89,65,87,39,65,58,30.01,29.89,7,0,10,8,27,0,12,0,"",0,0,0,0,2,0,2,5,67,45,482,289,1603,1123
2015-10-09 12:00:00,0,0,0,0,0,0,NA,0,0,0,84,56,29.88,1,255,10,NA,100,68,81,18,63,44,29.92,29.82,9,0,10,8,34,0,19,0,"",0,0,0,0,2,0,2,5,86,50,501,294,1622,1128
2015-10-10 12:00:00,0,0,0,0,0,0,NA,0,0,0,86,52,29.91,2,324,10,NA,100,72,57,17,58,46,29.96,29.86,9,0,10,10,36,0,21,0,"",0,0,0,0,2,0,2,5,107,55,522,299,1643,1133
2015-10-11 12:00:00,0,0,0,0,0,0,NA,0,0,0,87,53,29.88,2,79,10,NA,100,74,54,17,61,47,29.93,29.83,8,0,10,10,36,0,22,0,"",0,0,0,0,2,0,2,5,129,60,544,304,1665,1138
2015-10-12 12:00:00,0,0,0,0,0,0,NA,0,0,0,83,58,29.9,1,40,10,NA,93,73,73,28,64,53,29.94,29.86,7,0,10,10,32,0,18,0,"",0,0,0,0,2,0,2,5,147,65,562,309,1683,1143
2015-10-13 12:00:00,0,0,0,0,0,0,NA,0,0,0,83,64,29.99,2,152,10,NA,92,74,87,41,69,58,30.04,29.93,9,0,10,10,32,0,18,0,"",0,0,0,0,2,0,2,4,165,69,580,313,1701,1147
2015-10-14 12:00:00,0,0,0,0,0,0,NA,0,0,0,79,68,29.94,1,273,10,NA,86,72,93,55,69,66,30,29.88,7,0,10,8,29,0,14,0,"",0,0,0,0,2,0,2,4,179,73,594,317,1715,1151
2015-10-15 12:00:00,0,0,0,0,0,0,NA,0,0,0,77,66,29.91,2,270,10,NA,83,70,84,58,68,64,29.96,29.87,9,0,10,10,26,0,12,0,"",0,0,0,0,2,0,2,4,191,77,606,321,1727,1155
2015-10-16 12:00:00,0,0,0,0,0,0,NA,0,0,0,73,65,29.89,1,277,10,NA,75,70,84,69,66,64,29.92,29.86,8,0,10,9,22,0,8,0,"",0,0,0,0,2,0,2,4,199,81,614,325,1735,1159
2015-10-17 12:00:00,0,0,0,0,0,0,NA,0,0,0,76,65,29.88,1,275,10,NA,82,69,90,58,66,63,29.92,29.84,9,0,10,10,26,0,11,0,"",0,0,0,0,2,0,2,4,210,85,625,329,1746,1163
2015-10-18 12:00:00,0,1,0,0,0,0,NA,0,0,0,74,64,29.9,1,273,9,NA,79,68,84,58,66,61,29.94,29.87,9,0,10,3,24,0,9,NA,"",1,0,1,0,3,0,3,4,219,89,634,333,1755,1167
2015-10-19 12:00:00,0,0,0,0,0,0,NA,0,0,0,72,59,29.91,1,260,10,NA,79,65,87,45,62,55,29.96,29.86,9,0,10,10,22,0,7,0,"",1,0,2,0,4,0,4,4,226,93,641,337,1762,1171
2015-10-20 12:00:00,0,0,0,0,0,0,NA,0,0,0,71,56,29.84,2,100,10,NA,80,62,81,42,60,54,29.88,29.79,8,0,10,10,20,0,6,0,"",1,0,3,0,5,0,5,4,232,97,647,341,1768,1175
2015-10-21 12:00:00,0,0,0,0,0,0,NA,0,0,0,74,58,29.87,2,73,10,NA,84,63,78,43,62,54,29.9,29.84,9,0,10,10,23,0,9,0,"",1,0,4,0,6,0,6,4,241,101,656,345,1777,1179
2015-10-22 12:00:00,0,0,0,0,0,0,NA,0,0,0,73,60,29.93,1,105,10,NA,80,65,81,45,63,57,29.97,29.9,7,0,10,10,23,0,8,0,"",1,0,5,0,7,0,7,3,249,104,664,348,1785,1182
2015-10-23 12:00:00,0,0,0,0,0,0,NA,0,0,0,71,60,29.94,1,273,9,NA,80,62,90,54,63,58,29.99,29.89,8,0,10,6,20,0,6,0,"",1,0,6,0,8,0,8,3,255,107,670,351,1791,1185
2015-10-24 12:00:00,0,0,0,0,0,0,NA,0,0,0,77,46,29.89,1,28,10,NA,90,63,73,17,61,33,29.95,29.83,7,0,10,10,26,0,12,0,"",1,0,7,0,9,0,9,3,267,110,682,354,1803,1188
2015-10-25 12:00:00,0,0,0,0,0,0,NA,0,0,0,76,48,29.89,1,135,10,NA,86,66,81,20,63,37,29.93,29.86,6,0,10,10,25,0,11,0,"",1,0,8,0,10,0,10,3,278,113,693,357,1814,1191
2015-10-26 12:00:00,0,0,0,0,0,0,NA,0,0,0,75,52,29.9,1,270,10,NA,88,61,81,21,62,41,29.95,29.85,8,0,10,10,24,0,10,0,"",1,0,9,0,11,0,11,3,288,116,703,360,1824,1194
2015-10-27 12:00:00,0,0,0,0,0,0,NA,0,0,0,72,54,29.92,1,305,10,NA,82,61,87,28,62,44,29.96,29.89,8,0,10,8,22,0,7,0,"",1,0,10,0,12,0,12,3,295,119,710,363,1831,1197
2015-10-28 12:00:00,0,0,0,0,0,0,NA,0,0,0,73,60,29.86,1,190,9,NA,80,66,81,48,62,57,29.93,29.79,12,0,10,6,22,0,8,0,"",1,0,11,0,13,0,13,3,303,122,718,366,1839,1200
2015-10-29 12:00:00,0,0,0,0,0,0,NA,0,0,0,76,41,29.77,6,323,10,NA,83,68,44,22,49,35,29.81,29.7,13,0,10,10,26,0,11,0,"",1,0,12,0,14,0,14,3,314,125,729,369,1850,1203
2015-10-30 12:00:00,0,0,0,0,0,0,NA,0,0,0,76,35,29.85,1,225,10,NA,86,65,47,10,50,25,29.92,29.78,8,0,10,10,25,0,11,0,"",1,0,13,0,15,0,15,3,325,128,740,372,1861,1206
2015-10-31 12:00:00,0,0,0,0,0,0,NA,0,0,0,75,43,29.99,1,280,10,NA,89,60,81,15,63,32,30.03,29.93,7,0,10,10,24,0,10,0,"",1,0,14,0,20,0,20,3,335,129,750,373,1871,1207
2015-11-01 12:00:00,0,0,0,0,0,0,NA,0,0,0,73,52,29.98,1,270,10,NA,86,59,87,20,62,40,30.04,29.92,7,0,10,7,22,0,8,0,"",2,0,2,0,22,0,22,2,8,2,758,375,1879,1209
2015-11-02 12:00:00,0,1,0,0,0,0,NA,0,0,0,67,56,29.83,3,178,10,NA,75,59,87,57,62,49,29.91,29.74,15,0,10,4,18,0,2,NA,"",2,0,4,0,24,0,24,2,10,4,760,377,1881,1211
2015-11-03 12:00:00,0,0,0,0,0,0,NA,0,0,0,62,44,29.83,2,285,10,NA,70,53,77,37,48,40,29.88,29.79,12,0,10,10,10,3,0,0,"",2,3,6,3,26,3,26,2,10,6,760,379,1881,1213
2015-11-04 12:00:00,0,0,0,0,0,0,NA,0,0,0,60,35,29.96,2,275,10,NA,69,50,68,20,43,22,30.09,29.88,9,0,10,10,10,5,0,0,"",2,8,8,8,28,8,28,2,10,8,760,381,1881,1215
2015-11-05 12:00:00,0,0,0,0,0,0,NA,0,0,0,61,30,30.15,2,344,10,NA,71,50,46,18,39,24,30.22,30.1,8,0,10,10,10,4,0,0,"",2,12,10,12,30,12,30,2,10,10,760,383,1881,1217
2015-11-06 12:00:00,0,0,0,0,0,0,NA,0,0,0,64,33,30.1,1,20,10,NA,77,51,55,15,45,25,30.16,30.04,7,0,10,10,14,1,0,0,"",2,13,12,13,32,13,32,2,10,12,760,385,1881,1219
2015-11-07 12:00:00,0,0,0,0,0,0,NA,0,0,0,65,28,30.03,2,66,10,NA,80,50,51,10,37,17,30.09,29.97,10,0,10,10,15,0,0,0,"",2,13,14,13,34,13,34,2,10,14,760,387,1881,1221
2015-11-08 12:00:00,0,0,0,0,0,0,NA,0,0,0,65,40,29.97,2,30,10,NA,78,52,78,19,55,25,30.01,29.92,8,0,10,10,14,0,0,0,"",2,13,16,13,36,13,36,2,10,16,760,389,1881,1223
2015-11-09 12:00:00,0,0,0,0,0,0,NA,0,0,0,62,47,29.97,3,100,10,NA,68,55,72,42,52,42,30.02,29.95,12,0,10,5,12,3,0,0,"",3,16,19,16,39,16,39,2,10,18,760,391,1881,1225
2015-11-10 12:00:00,0,0,0,0,0,0,NA,0,0,0,59,36,30.09,3,321,10,NA,68,50,74,26,45,29,30.23,30.02,10,0,10,2,8,6,0,0,"",3,22,22,22,42,22,42,2,10,20,760,393,1881,1227
2015-11-11 12:00:00,0,0,0,0,0,0,NA,0,0,0,60,29,30.2,1,299,10,NA,72,48,51,14,40,17,30.3,30.13,8,0,10,10,10,5,0,0,"",3,27,25,27,45,27,45,1,10,21,760,394,1881,1228
2015-11-12 12:00:00,0,0,0,0,0,0,NA,0,0,0,64,15,30.03,1,329,10,NA,77,51,55,3,44,-13,30.12,29.97,8,0,10,10,14,1,0,0,"",3,28,28,28,48,28,48,1,10,22,760,395,1881,1229
2015-11-13 12:00:00,0,0,0,0,0,0,NA,0,0,0,66,23,29.96,1,280,10,NA,82,50,51,4,41,-2,30.01,29.91,7,0,10,10,15,0,1,0,"",3,28,31,28,51,28,51,1,11,23,761,396,1882,1230
2015-11-14 12:00:00,0,0,0,0,0,0,NA,0,0,0,65,29,29.92,1,354,9,NA,78,51,77,7,51,9,29.97,29.88,9,0,10,5,15,0,0,0,"",3,28,34,28,54,28,54,1,11,24,761,397,1882,1231
2015-11-15 12:00:00,0,0,0,0,0,0,NA,0,0,0,60,39,29.89,4,284,10,NA,69,51,66,36,48,30,29.92,29.85,12,0,10,8,10,5,0,0,"",4,33,38,33,58,33,58,1,11,25,761,398,1882,1232
2015-11-16 12:00:00,0,0,0,0,0,0,NA,0,0,0,57,17,30,6,317,10,NA,63,50,41,12,28,7,30.1,29.9,17,0,10,10,7,8,0,0,"",4,41,42,41,62,41,62,1,11,26,761,399,1882,1233
2015-11-17 12:00:00,0,0,0,0,0,0,NA,0,0,0,59,25,30.12,0,270,10,NA,72,45,55,5,43,-5,30.18,30.07,9,0,10,9,9,6,0,0,"",4,47,46,47,66,47,66,1,11,27,761,400,1882,1234
2015-11-18 12:00:00,0,0,0,0,0,0,NA,0,0,0,62,40,30,0,270,10,NA,76,48,69,20,50,31,30.06,29.94,7,0,10,8,12,3,0,0,"",4,50,50,50,70,50,70,1,11,28,761,401,1882,1235
2015-11-19 12:00:00,0,0,0,0,0,0,NA,0,0,0,69,37,29.95,1,344,10,NA,86,51,72,11,51,24,30.01,29.9,8,0,10,9,18,0,4,0,"",4,50,54,50,74,50,74,1,15,29,765,402,1886,1236
2015-11-20 12:00:00,0,0,0,0,0,0,NA,0,0,0,70,37,29.91,0,130,10,NA,85,55,56,13,49,28,29.95,29.87,6,0,10,9,20,0,5,0,"",4,50,58,50,78,50,78,1,20,30,770,403,1891,1237
2015-11-21 12:00:00,0,0,0,0,0,0,NA,0,0,0,72,35,29.94,1,37,10,NA,87,57,60,10,45,25,29.99,29.87,6,0,10,10,22,0,7,0,"",5,50,63,50,83,50,83,1,27,31,777,404,1898,1238
2015-11-22 12:00:00,0,0,0,0,0,0,NA,0,0,0,72,23,29.92,2,9,10,NA,85,59,27,7,29,14,29.98,29.86,7,0,10,10,22,0,7,0,"",5,50,68,50,88,50,88,1,34,32,784,405,1905,1239
2015-11-23 12:00:00,0,0,0,0,0,0,NA,0,0,0,68,35,29.91,2,42,10,NA,81,55,72,16,51,19,29.94,29.88,7,0,10,6,17,0,3,0,"",5,50,73,50,93,50,93,0,37,32,787,405,1908,1239
2015-11-24 12:00:00,0,1,0,0,0,0,NA,0,0,0,61,35,29.92,1,270,10,NA,70,52,72,17,52,15,29.97,29.87,8,0,10,8,10,4,0,0.01,"",5,54,78,54,98,54,98,0,37,32,787,405,1908,1239
2015-11-25 12:00:00,0,0,0,0,0,0,NA,0,0,0,57,36,29.89,2,270,10,NA,63,50,71,20,43,14,29.94,29.84,9,0,10,10,6,8,0,NA,"",5,62,83,62,103,62,103,0,37,32,787,405,1908,1239
2015-11-26 12:00:00,0,0,0,0,0,0,NA,0,0,0,56,40,29.97,2,90,10,NA,64,48,71,43,42,37,30.01,29.94,8,0,10,10,5,9,0,0,"",5,71,88,71,108,71,108,0,37,32,787,405,1908,1239
2015-11-27 12:00:00,0,0,0,0,0,0,NA,0,0,0,57,38,30,3,87,10,NA,64,50,68,27,43,28,30.05,29.96,8,0,10,10,7,8,0,0,"",6,79,94,79,114,79,114,0,37,32,787,405,1908,1239
2015-11-28 12:00:00,0,0,0,0,0,0,NA,0,0,0,55,29,30.05,1,23,10,NA,64,46,71,20,39,22,30.1,30.01,6,0,10,10,4,10,0,0,"",6,89,100,89,120,89,120,0,37,32,787,405,1908,1239
2015-11-29 12:00:00,0,0,0,0,0,0,NA,0,0,0,59,26,30.11,1,355,10,NA,67,50,50,16,36,18,30.17,30.07,8,0,10,10,8,6,0,0,"",6,95,106,95,126,95,126,0,37,32,787,405,1908,1239
2015-11-30 12:00:00,0,0,0,0,0,0,NA,0,0,0,56,25,30.12,2,21,10,NA,66,46,55,13,40,14,30.18,30.07,8,0,10,10,5,9,0,0,"",6,104,112,104,131,104,131,0,37,33,787,406,1908,1240
2015-12-01 12:00:00,0,0,0,0,0,0,NA,0,0,0,60,28,30.1,2,29,10,NA,72,47,61,12,43,15,30.14,30.04,7,0,10,10,8,5,0,0,"",6,5,6,NA,NA,109,137,0,0,0,NA,NA,1908,1240
2015-12-02 12:00:00,0,0,0,0,0,0,NA,0,0,0,64,23,30.1,2,33,10,NA,78,50,51,11,43,17,30.16,30.02,7,0,10,10,14,1,0,0,"",6,6,12,NA,NA,110,143,0,0,0,NA,NA,1908,1240
2015-12-03 12:00:00,0,0,0,0,0,0,NA,0,0,0,66,31,30.05,2,18,10,NA,76,56,72,14,49,17,30.08,30,7,0,10,10,15,0,1,0,"",7,6,19,NA,NA,110,150,0,1,0,NA,NA,1909,1240
2015-12-04 12:00:00,0,0,0,0,0,0,NA,0,0,0,59,46,30.08,0,5,10,NA,67,51,80,48,53,39,30.18,30.04,5,0,10,10,8,6,0,0,"",7,12,26,NA,NA,116,157,0,1,0,NA,NA,1909,1240
2015-12-05 12:00:00,0,0,0,0,0,0,NA,0,0,0,63,32,30.19,2,16,10,NA,77,49,61,14,38,25,30.25,30.15,6,0,10,10,14,2,0,0,"",7,14,33,NA,NA,118,164,0,1,0,NA,NA,1909,1240
2015-12-06 12:00:00,0,0,0,0,0,0,NA,0,0,0,67,30,30.18,2,360,10,NA,78,56,72,10,50,18,30.25,30.12,7,0,10,10,17,0,2,0,"",7,14,40,NA,NA,118,171,0,3,0,NA,NA,1911,1240
2015-12-07 12:00:00,0,0,0,0,0,0,NA,0,0,0,68,31,30.09,1,24,10,NA,81,55,67,9,53,18,30.15,30.02,8,0,10,10,18,0,3,0,"",7,14,47,NA,NA,118,178,0,6,0,NA,NA,1914,1240
2015-12-08 12:00:00,0,0,0,0,0,0,NA,0,0,0,69,39,30.02,0,285,9,NA,83,54,60,15,49,29,30.07,29.97,6,0,10,1,18,0,4,0,"",7,14,54,NA,NA,118,185,0,10,0,NA,NA,1918,1240
2015-12-09 12:00:00,0,0,0,0,0,0,NA,0,0,0,65,49,30,0,215,8,NA,75,55,93,27,58,38,30.06,29.94,7,0,10,5,15,0,0,0,"",7,14,61,NA,NA,118,192,0,10,0,NA,NA,1918,1240
2015-12-10 12:00:00,1,0,0,0,0,0,NA,0,0,0,60,55,29.96,2,270,6,NA,68,52,100,68,59,51,30.05,29.87,8,0,10,0,10,5,0,NA,"",8,19,69,NA,NA,123,200,0,10,0,NA,NA,1918,1240
2015-12-11 12:00:00,0,1,0,0,0,0,NA,0,0,0,59,41,29.82,3,317,9,NA,65,52,83,33,53,30,29.88,29.74,17,0,10,2,8,6,0,0.05,"",8,25,77,NA,NA,129,208,0,10,0,NA,NA,1918,1240
2015-12-12 12:00:00,0,0,0,0,0,0,NA,0,0,0,60,31,29.97,4,323,10,NA,68,51,41,24,32,29,30.08,29.86,10,0,10,10,10,5,0,0,"",8,30,85,NA,NA,134,216,0,10,0,NA,NA,1918,1240
2015-12-13 12:00:00,0,1,0,0,0,0,NA,0,0,0,57,45,29.99,2,15,7,NA,66,47,93,32,56,30,30.1,29.89,9,0,10,2,6,8,0,0.16,"",8,38,93,NA,NA,142,224,0,10,0,NA,NA,1918,1240
2015-12-14 12:00:00,0,0,0,0,0,0,NA,0,0,0,53,28,29.96,7,314,10,NA,59,47,58,24,36,22,29.98,29.93,15,0,10,10,2,12,0,0,"",8,50,101,NA,NA,154,232,0,10,0,NA,NA,1918,1240
2015-12-15 12:00:00,0,0,0,0,0,0,NA,0,0,0,52,27,30.03,2,37,10,NA,61,42,53,23,33,22,30.13,29.96,8,0,10,10,2,13,0,0,"",8,63,109,NA,NA,167,240,0,10,0,NA,NA,1918,1240
2015-12-16 12:00:00,0,0,0,0,0,0,NA,0,0,0,51,28,30.16,1,46,10,NA,61,40,59,25,37,21,30.2,30.12,7,0,10,9,0,14,0,0,"",8,77,117,NA,NA,181,248,0,10,0,NA,NA,1918,1240
2015-12-17 12:00:00,0,0,0,0,0,0,NA,0,0,0,54,38,30.13,1,334,10,NA,66,42,71,30,42,31,30.18,30.1,7,0,10,10,5,11,0,0,"",8,88,125,NA,NA,192,256,0,10,0,NA,NA,1918,1240
2015-12-18 12:00:00,0,0,0,0,0,0,NA,0,0,0,60,34,30.03,2,353,10,NA,72,47,72,18,47,24,30.13,29.95,8,0,10,10,10,5,0,0,"",8,93,133,NA,NA,197,264,0,10,0,NA,NA,1918,1240
2015-12-19 12:00:00,0,1,0,0,0,0,NA,0,0,0,55,45,29.96,2,270,7,NA,65,45,100,38,52,31,30.04,29.93,7,0,10,2,5,10,0,0.26,"",8,103,141,NA,NA,207,272,0,10,0,NA,NA,1918,1240
2015-12-20 12:00:00,0,0,0,0,0,0,NA,0,0,0,53,43,30.14,1,345,10,NA,61,44,93,51,47,38,30.2,30.04,8,0,10,7,2,12,0,0,"",8,115,149,NA,NA,219,280,0,10,0,NA,NA,1918,1240
2015-12-21 12:00:00,0,1,0,0,0,0,NA,0,0,0,53,46,30.11,2,117,8,NA,62,44,86,51,54,37,30.23,30.01,7,0,10,2,4,12,0,0.03,"",8,127,157,NA,NA,231,288,0,10,0,NA,NA,1918,1240
2015-12-22 12:00:00,0,1,0,0,0,0,NA,0,0,0,58,54,29.85,3,82,6,NA,62,54,100,84,58,52,29.99,29.74,8,0,10,2,8,7,0,0.07,"",8,134,165,NA,NA,238,296,0,10,0,NA,NA,1918,1240
2015-12-23 12:00:00,0,0,0,0,0,0,NA,0,0,0,60,47,29.77,2,322,8,NA,67,52,100,35,55,28,29.86,29.72,9,0,10,3,9,5,0,0,"",8,139,173,NA,NA,243,304,0,10,0,NA,NA,1918,1240
2015-12-24 12:00:00,0,0,0,0,0,0,NA,0,0,0,55,38,29.95,1,288,10,NA,62,47,77,35,46,28,30,29.86,8,0,10,10,4,10,0,0,"",8,149,181,NA,NA,253,312,0,10,0,NA,NA,1918,1240
2015-12-25 12:00:00,0,0,0,0,0,0,NA,0,0,0,52,27,30.08,4,324,10,NA,59,44,80,21,42,18,30.16,29.99,15,0,10,10,1,13,0,0,"",8,162,189,NA,NA,266,320,0,10,0,NA,NA,1918,1240
2015-12-26 12:00:00,0,0,0,0,0,0,NA,0,0,0,52,18,30.23,1,333,10,NA,62,42,49,12,26,6,30.28,30.18,13,0,10,10,2,13,0,0,"",8,175,197,NA,NA,279,328,0,10,0,NA,NA,1918,1240
2015-12-27 12:00:00,0,0,0,0,0,0,NA,0,0,0,49,23,30.17,1,130,10,NA,61,36,62,14,33,11,30.25,30.08,8,0,10,10,0,16,0,0,"",8,191,205,NA,NA,295,336,0,10,0,NA,NA,1918,1240
2015-12-28 12:00:00,0,0,0,0,0,0,NA,0,0,0,48,30,29.92,2,355,10,NA,58,37,64,34,41,21,30.06,29.82,10,0,10,10,0,17,0,NA,"",8,208,213,NA,NA,312,344,0,10,0,NA,NA,1918,1240
2015-12-29 12:00:00,0,0,0,0,0,0,NA,0,0,0,51,31,30.01,1,70,10,NA,61,41,71,29,38,26,30.14,29.87,6,0,10,10,2,14,0,0,"",8,222,221,NA,NA,326,352,0,10,0,NA,NA,1918,1240
2015-12-30 12:00:00,0,0,0,0,0,0,NA,0,0,0,52,34,30.15,1,35,10,NA,62,41,80,29,42,28,30.22,30.1,7,0,10,7,2,13,0,0,"",8,235,229,NA,NA,339,360,0,10,0,NA,NA,1918,1240
2015-12-31 12:00:00,0,0,0,0,0,0,NA,0,0,0,53,26,30.1,1,23,10,NA,65,41,70,18,35,19,30.16,30.05,7,0,10,10,3,12,0,0,"",8,247,237,NA,NA,351,365,0,10,4,NA,NA,1918,1244
2016-01-01 12:00:00,0,0,0,0,0,0,NA,0,0,0,54,19,30.1,3,25,10,NA,64,43,50,16,36,15,30.16,30.06,8,0,10,6,4,11,0,0,"",8,11,8,NA,NA,362,373,0,0,0,NA,NA,0,0
2016-01-02 12:00:00,0,0,0,0,0,0,NA,0,0,0,56,27,30.06,2,14,10,NA,65,47,77,17,44,17,30.1,30.02,6,0,10,10,6,9,0,0,"",8,20,16,NA,NA,371,381,0,0,0,NA,NA,0,0
2016-01-03 12:00:00,0,0,0,0,0,0,NA,0,0,0,53,39,29.94,1,125,10,NA,62,44,77,38,46,29,30.03,29.81,10,0,10,10,3,12,0,0,"",8,32,24,NA,NA,383,389,0,0,0,NA,NA,0,0
2016-01-04 12:00:00,0,1,0,0,0,0,NA,0,0,0,62,45,29.78,1,329,10,NA,69,55,86,35,51,40,29.87,29.73,8,0,10,10,12,3,0,0.01,"",8,35,32,NA,NA,386,397,0,0,0,NA,NA,0,0
2016-01-05 12:00:00,1,1,0,0,0,0,NA,0,0,0,54,54,29.81,2,128,4,NA,59,49,100,72,57,45,29.91,29.74,10,0,10,0,4,11,0,1.61,"",8,46,40,NA,NA,397,405,0,0,0,NA,NA,0,0
2016-01-06 12:00:00,0,1,0,0,0,0,NA,0,0,0,52,48,29.94,3,108,6,NA,58,46,96,80,54,43,30.01,29.88,12,0,10,1,2,13,0,0.8,"",8,59,48,NA,NA,410,413,0,0,0,NA,NA,0,0
2016-01-07 12:00:00,0,1,0,0,0,0,NA,0,0,0,52,44,29.89,2,345,8,NA,59,45,93,54,48,33,29.96,29.86,10,0,10,2,2,13,0,0.3,"",7,72,55,NA,NA,423,420,0,0,0,NA,NA,0,0
2016-01-08 12:00:00,0,0,0,0,0,0,NA,0,0,0,53,38,30.03,2,94,10,NA,62,44,83,39,42,33,30.15,29.93,8,0,10,10,3,12,0,0,"",7,84,62,NA,NA,435,427,0,0,0,NA,NA,0,0
2016-01-09 12:00:00,0,0,0,0,0,0,NA,0,0,0,53,43,30.19,1,70,10,NA,60,46,83,49,50,37,30.25,30.15,6,0,10,8,3,12,0,NA,"",7,96,69,NA,NA,447,434,0,0,0,NA,NA,0,0
2016-01-10 12:00:00,0,1,0,0,0,0,NA,0,0,0,57,48,30.17,1,270,10,NA,62,51,89,60,51,46,30.22,30.12,7,0,10,7,6,8,0,NA,"",7,104,76,NA,NA,455,441,0,0,0,NA,NA,0,0
2016-01-11 12:00:00,0,0,0,0,0,0,NA,0,0,0,56,43,30.24,0,270,8,NA,64,47,93,36,49,36,30.29,30.2,7,0,10,4,6,9,0,0,"",7,113,83,NA,NA,464,448,0,0,0,NA,NA,0,0
2016-01-12 12:00:00,0,0,0,0,0,0,NA,0,0,0,58,34,30.18,2,7,10,NA,70,46,83,17,46,23,30.24,30.12,10,0,10,10,8,7,0,0,"",7,120,90,NA,NA,471,455,0,0,0,NA,NA,0,0
2016-01-13 12:00:00,0,0,0,0,0,0,NA,0,0,0,55,47,30.12,0,180,10,NA,66,43,93,39,55,33,30.19,30.09,7,0,10,9,4,10,0,0,"",7,130,97,NA,NA,481,462,0,0,0,NA,NA,0,0
2016-01-14 12:00:00,0,0,0,0,0,0,NA,0,0,0,58,49,30.09,2,88,9,NA,65,50,89,56,52,46,30.14,30.05,8,0,10,6,8,7,0,0,"",7,137,104,NA,NA,488,469,0,0,0,NA,NA,0,0
2016-01-15 12:00:00,0,0,0,0,0,0,NA,0,0,0,58,51,30.09,1,104,9,NA,65,50,89,56,55,47,30.15,30.03,6,0,10,5,8,7,0,0,"",7,144,111,NA,NA,495,476,0,0,0,NA,NA,0,0
2016-01-16 12:00:00,0,0,0,0,0,0,NA,0,0,0,61,52,30.15,1,100,9,NA,67,54,93,58,54,47,30.22,30.1,8,0,10,6,10,4,0,0,"",7,148,118,NA,NA,499,483,0,0,0,NA,NA,0,0
2016-01-17 12:00:00,1,0,0,0,0,0,NA,0,0,0,59,52,30.16,1,265,4,NA,68,49,100,52,55,47,30.22,30.12,9,0,7,0,7,6,0,0,"",7,154,125,NA,NA,505,490,0,0,0,NA,NA,0,0
2016-01-18 12:00:00,1,0,0,0,0,0,NA,0,0,0,59,55,30.18,1,134,7,NA,63,55,100,72,56,53,30.23,30.13,7,0,10,0,8,6,0,0,"",7,160,132,NA,NA,511,497,0,0,0,NA,NA,0,0
2016-01-19 12:00:00,0,1,0,0,0,0,NA,0,0,0,59,55,30.19,1,197,8,NA,64,54,100,67,57,51,30.21,30.15,7,0,10,2,8,6,0,0.01,"",7,166,139,NA,NA,517,504,0,0,0,NA,NA,0,0
2016-01-20 12:00:00,1,1,0,0,0,0,NA,0,0,0,62,56,30.19,1,113,6,NA,69,54,100,63,57,52,30.24,30.12,6,0,10,0,12,3,0,0.01,"",7,169,146,NA,NA,520,511,0,0,0,NA,NA,0,0
2016-01-21 12:00:00,1,0,0,0,0,0,NA,0,0,0,64,48,30.16,1,22,6,NA,77,50,100,20,55,33,30.19,30.1,8,0,10,0,14,1,0,0,"",7,170,153,NA,NA,521,518,0,0,0,NA,NA,0,0
2016-01-22 12:00:00,0,0,0,0,0,0,NA,0,0,0,61,48,30.11,1,250,8,NA,71,50,96,26,54,34,30.18,30.02,6,0,10,3,10,4,0,0,"",7,174,160,NA,NA,525,525,0,0,0,NA,NA,0,0
2016-01-23 12:00:00,0,0,0,0,0,0,NA,0,0,0,59,50,30.02,1,93,8,NA,64,54,93,40,55,34,30.07,29.97,9,0,10,5,9,6,0,0,"",7,180,167,NA,NA,531,532,0,0,0,NA,NA,0,0
2016-01-24 12:00:00,0,0,0,0,0,0,NA,0,0,0,57,43,30.07,1,96,10,NA,66,47,93,37,48,36,30.13,30.01,8,0,10,10,5,8,0,0,"",7,188,174,NA,NA,539,539,0,0,0,NA,NA,0,0
2016-01-25 12:00:00,0,0,0,0,0,0,NA,0,0,0,61,39,30.09,1,290,10,NA,71,50,71,25,44,34,30.14,30.04,8,0,10,10,11,4,0,0,"",7,192,181,NA,NA,543,546,0,0,0,NA,NA,0,0
2016-01-26 12:00:00,0,0,0,0,0,0,NA,0,0,0,60,34,30.2,1,334,10,NA,73,47,61,22,40,29,30.24,30.15,8,0,10,10,10,5,0,0,"",7,197,188,NA,NA,548,553,0,0,0,NA,NA,0,0
2016-01-27 12:00:00,0,0,0,0,0,0,NA,0,0,0,63,25,30.22,2,28,10,NA,73,52,40,13,34,18,30.28,30.17,7,0,10,10,12,2,0,0,"",7,199,195,NA,NA,550,560,0,0,0,NA,NA,0,0
2016-01-28 12:00:00,0,0,0,0,0,0,NA,0,0,0,62,34,30.13,1,335,10,NA,74,50,77,14,49,22,30.2,30.06,9,0,10,10,12,3,0,0,"",7,202,202,NA,NA,553,567,0,0,0,NA,NA,0,0
2016-01-29 12:00:00,0,0,0,0,0,0,NA,0,0,0,61,50,30.03,1,99,10,NA,72,50,87,47,55,42,30.09,29.97,7,0,10,7,11,4,0,0,"",7,206,209,NA,NA,557,574,0,0,0,NA,NA,0,0
2016-01-30 12:00:00,0,0,0,0,0,0,NA,0,0,0,61,53,30,1,88,8,NA,66,55,93,63,56,52,30.04,29.96,7,0,10,6,10,4,0,0,"",7,210,216,NA,NA,561,581,0,0,0,NA,NA,0,0
2016-01-31 12:00:00,0,1,0,0,0,0,NA,0,0,0,55,50,29.79,5,264,7,NA,59,50,100,41,55,28,29.99,29.6,16,0,10,1,4,10,0,0.43,"",7,220,223,NA,NA,571,591,0,0,9,NA,NA,0,9
2016-02-01 12:00:00,0,0,0,0,0,0,NA,0,0,0,51,25,30.02,6,320,10,NA,58,43,62,23,32,20,30.17,29.8,16,0,10,10,0,14,0,0,"",7,14,7,NA,NA,585,598,0,0,0,NA,NA,0,9
2016-02-02 12:00:00,0,0,0,0,0,0,NA,0,0,0,52,29,30.19,1,43,10,NA,62,41,66,27,39,21,30.23,30.15,8,0,10,10,1,13,0,0,"",7,27,14,NA,NA,598,605,0,0,0,NA,NA,0,9
2016-02-03 12:00:00,0,0,0,0,0,0,NA,0,0,0,54,35,30.31,1,325,10,NA,65,43,76,26,42,28,30.37,30.23,8,0,10,9,4,11,0,0,"",7,38,21,NA,NA,609,612,0,0,0,NA,NA,0,9
2016-02-04 12:00:00,0,0,0,0,0,0,NA,0,0,0,58,29,30.28,1,325,10,NA,70,46,50,21,36,25,30.36,30.21,7,0,10,10,7,7,0,0,"",7,45,28,NA,NA,616,619,0,0,0,NA,NA,0,9
2016-02-05 12:00:00,0,0,0,0,0,0,NA,0,0,0,61,28,30.27,1,350,10,NA,76,46,53,12,36,19,30.33,30.22,6,0,10,10,10,4,0,0,"",7,49,35,NA,NA,620,626,0,0,0,NA,NA,0,9
2016-02-06 12:00:00,0,0,0,0,0,0,NA,0,0,0,64,27,30.21,1,330,10,NA,77,50,42,13,32,22,30.28,30.13,8,0,10,3,14,1,0,0,"",7,50,42,NA,NA,621,633,0,0,0,NA,NA,0,9
2016-02-07 12:00:00,0,0,0,0,0,0,NA,0,0,0,68,27,30.11,1,309,10,NA,84,51,44,10,35,21,30.15,30.06,7,0,10,10,17,0,3,0,"",7,50,49,NA,NA,621,640,0,3,0,NA,NA,3,9
2016-02-08 12:00:00,0,0,0,0,0,0,NA,0,0,0,71,32,30.1,1,85,10,NA,88,53,51,9,38,22,30.13,30.06,7,0,10,10,20,0,6,0,"",7,50,56,NA,NA,621,647,0,9,0,NA,NA,9,9
2016-02-09 12:00:00,0,0,0,0,0,0,NA,0,0,0,73,32,30.1,1,10,10,NA,89,56,43,10,41,24,30.16,30.04,8,0,10,5,22,0,8,0,"",7,50,63,NA,NA,621,654,0,17,0,NA,NA,17,9
2016-02-10 12:00:00,0,0,0,0,0,0,NA,0,0,0,75,33,30.09,2,23,10,NA,88,61,48,11,42,25,30.15,30.04,8,0,10,8,24,0,10,0,"",7,50,70,NA,NA,621,661,0,27,0,NA,NA,27,9
2016-02-11 12:00:00,0,0,0,0,0,0,NA,0,0,0,73,34,30.08,2,36,10,NA,87,59,46,12,42,27,30.11,30.03,7,0,10,6,24,0,8,0,"",7,50,77,NA,NA,621,668,0,35,0,NA,NA,35,9
2016-02-12 12:00:00,0,0,0,0,0,0,NA,0,0,0,71,42,30.07,1,300,10,NA,85,56,80,13,54,29,30.11,30.01,8,0,10,8,20,0,6,0,"",7,50,84,NA,NA,621,675,0,41,0,NA,NA,41,9
2016-02-13 12:00:00,1,0,0,0,0,0,NA,0,0,0,63,51,30.06,1,270,4,NA,75,51,100,35,53,45,30.1,30.02,8,0,10,0,14,2,0,0,"",7,52,91,NA,NA,623,682,0,41,0,NA,NA,41,9
2016-02-14 12:00:00,0,0,0,0,0,0,NA,0,0,0,64,49,30.02,0,285,5,NA,79,48,96,33,52,45,30.06,29.94,7,0,10,2,14,1,0,0,"",7,53,98,NA,NA,624,689,1,41,1,NA,NA,41,10
2016-02-15 12:00:00,0,0,0,0,0,0,NA,0,0,0,72,43,29.94,1,275,10,NA,89,55,72,15,50,34,29.99,29.88,8,0,10,9,22,0,7,0,"",7,53,105,NA,NA,624,696,1,48,2,NA,NA,48,11
2016-02-16 12:00:00,0,0,0,0,0,0,NA,0,0,0,74,39,29.87,2,346,10,NA,90,58,60,14,49,32,29.94,29.8,9,0,10,10,23,0,9,0,"",7,53,112,NA,NA,624,703,1,57,3,NA,NA,57,12
2016-02-17 12:00:00,0,1,0,0,0,0,NA,0,0,0,66,50,29.86,2,14,7,NA,76,55,97,27,60,38,29.91,29.82,12,0,10,2,15,0,1,0.58,"",7,53,119,NA,NA,624,710,1,58,4,NA,NA,58,13
2016-02-18 12:00:00,0,1,0,0,0,0,NA,0,0,0,62,53,29.97,2,105,8,NA,68,56,93,48,57,47,30.04,29.88,9,0,10,2,12,3,0,0.21,"",7,56,126,NA,NA,627,717,1,58,5,NA,NA,58,14
2016-02-19 12:00:00,0,0,0,0,0,0,NA,0,0,0,60,49,30.08,1,-1,10,NA,69,51,89,48,52,45,30.12,30.03,8,0,10,10,10,5,0,0,"",6,61,132,NA,NA,632,723,1,58,6,NA,NA,58,15
2016-02-20 12:00:00,0,0,0,0,0,0,NA,0,0,0,61,48,30.07,1,277,10,NA,72,50,86,38,52,44,30.12,30.02,8,0,10,10,10,4,0,0,"",6,65,138,NA,NA,636,729,1,58,7,NA,NA,58,16
2016-02-21 12:00:00,0,0,0,0,0,0,NA,0,0,0,62,50,30.06,0,-1,10,NA,73,50,93,38,55,45,30.1,30.02,8,0,10,9,11,3,0,0,"",6,68,144,NA,NA,639,735,1,58,8,NA,NA,58,17
2016-02-22 12:00:00,0,0,0,0,0,0,NA,0,0,0,65,45,29.95,2,129,9,NA,78,51,96,16,54,22,30.02,29.89,8,0,10,5,14,0,0,0,"",6,68,150,NA,NA,639,741,1,58,9,NA,NA,58,18
2016-02-23 12:00:00,0,0,0,0,0,0,NA,0,0,0,69,31,29.97,2,353,10,NA,83,55,43,11,41,23,30.06,29.91,8,0,10,9,18,0,4,0,"",6,68,156,NA,NA,639,747,1,62,10,NA,NA,62,19
2016-02-24 12:00:00,0,0,0,0,0,0,NA,0,0,0,70,27,30.06,2,9,10,NA,81,58,39,12,37,23,30.13,29.99,8,0,10,10,19,0,5,0,"",6,68,162,NA,NA,639,753,1,67,11,NA,NA,67,20
2016-02-25 12:00:00,0,0,0,0,0,0,NA,0,0,0,70,35,30.04,2,356,10,NA,83,57,67,13,52,24,30.08,30.01,9,0,10,10,20,0,5,0,"",6,68,168,NA,NA,639,759,1,72,12,NA,NA,72,21
2016-02-26 12:00:00,0,0,0,0,0,0,NA,0,0,0,67,46,30.06,2,270,9,NA,79,54,84,25,56,38,30.1,30.02,10,0,10,2,16,0,2,0,"",6,68,174,NA,NA,639,765,1,74,13,NA,NA,74,22
2016-02-27 12:00:00,1,0,0,0,0,0,NA,0,0,0,64,54,30.03,1,146,6,NA,74,53,100,49,56,49,30.06,29.95,8,0,10,0,12,1,0,0,"",6,69,180,NA,NA,640,771,1,74,14,NA,NA,74,23
2016-02-28 12:00:00,1,0,0,0,0,0,NA,0,0,0,66,56,30,0,120,5,NA,75,56,100,53,57,54,30.04,29.95,8,0,10,0,14,0,1,0,"",6,69,186,NA,NA,640,775,1,75,14,NA,NA,75,23
2016-02-29 12:00:00,0,0,0,0,0,0,NA,0,0,0,65,56,30.02,1,270,3,NA,74,56,100,49,58,54,30.06,29.96,7,0,8,1,15,0,0,0,"",6,69,192,NA,NA,640,781,1,75,15,NA,NA,75,24
2016-03-01 12:00:00,1,0,0,0,0,0,NA,0,0,0,66,55,30.06,0,155,3,NA,76,56,100,46,56,53,30.11,30.03,7,0,5,0,15,0,1,0,"",6,0,6,NA,NA,640,781,1,1,1,NA,NA,76,24
2016-03-02 12:00:00,1,0,0,0,0,0,NA,0,0,0,63,54,30.07,1,272,5,NA,73,52,100,53,56,50,30.1,30.03,9,0,10,0,12,2,0,0,"",6,2,12,NA,NA,642,787,1,1,2,NA,NA,76,25
2016-03-03 12:00:00,0,0,0,0,0,0,NA,0,0,0,64,54,30.06,1,-1,6,NA,74,54,93,53,56,51,30.09,30.01,8,0,10,3,13,1,0,0,"",6,3,18,NA,NA,643,793,1,1,3,NA,NA,76,26
2016-03-04 12:00:00,0,0,0,0,0,0,NA,0,0,0,64,53,30.02,2,129,7,NA,70,57,93,53,55,52,30.06,29.95,9,0,10,4,13,1,0,0,"",6,4,24,NA,NA,644,799,1,1,4,NA,NA,76,27
2016-03-05 12:00:00,0,1,0,0,0,0,NA,0,0,0,63,55,30.02,2,120,9,NA,67,59,93,63,58,51,30.08,29.97,7,0,10,2,12,2,0,0.01,"",5,6,29,NA,NA,646,804,1,1,5,NA,NA,76,28
2016-03-06 12:00:00,0,1,0,0,0,0,NA,0,0,0,61,53,29.97,5,264,6,NA,67,54,100,52,57,46,30.06,29.93,16,0,10,2,10,4,0,0.64,"",5,10,34,NA,NA,650,809,0,1,5,NA,NA,76,28
2016-03-07 12:00:00,0,1,0,0,0,0,NA,0,0,0,54,44,29.85,3,281,9,NA,61,47,93,46,47,40,29.99,29.74,14,0,10,1,4,11,0,0.38,"",5,21,39,NA,NA,661,814,0,1,5,NA,NA,76,28
2016-03-08 12:00:00,0,0,0,0,0,0,NA,0,0,0,61,39,29.93,3,185,10,NA,72,49,80,28,45,31,29.98,29.83,10,0,10,10,10,4,0,0,"",5,25,44,NA,NA,665,819,0,1,5,NA,NA,76,28
2016-03-09 12:00:00,0,0,0,0,0,0,NA,0,0,0,64,49,30.01,2,195,10,NA,74,53,80,38,54,44,30.05,29.97,8,0,10,6,12,1,0,0,"",5,26,49,NA,NA,666,824,1,1,6,NA,NA,76,29
2016-03-10 12:00:00,0,0,0,0,0,0,NA,0,0,0,66,53,30.02,1,265,10,NA,77,54,86,41,55,50,30.05,29.97,9,0,10,10,15,0,1,0,"",5,26,54,NA,NA,666,829,1,2,7,NA,NA,77,30
2016-03-11 12:00:00,1,1,0,0,0,0,NA,0,0,0,61,52,29.97,4,274,7,NA,69,52,93,47,56,41,30.06,29.9,10,0,10,0,11,4,0,0.52,"",5,30,59,NA,NA,670,834,1,2,8,NA,NA,77,31
2016-03-12 12:00:00,0,0,0,0,0,0,NA,0,0,0,57,44,30.14,2,87,10,NA,66,47,83,40,50,40,30.18,30.09,7,0,10,10,6,8,0,0,"",5,38,64,NA,NA,678,839,1,2,9,NA,NA,77,32
2016-03-13 12:00:00,0,0,0,0,0,0,NA,0,0,0,61,49,30.15,3,260,10,NA,68,53,84,52,55,45,30.18,30.12,10,0,10,10,8,4,0,0,"",5,42,69,NA,NA,682,844,1,2,10,NA,NA,77,33
2016-03-14 12:00:00,0,1,0,0,0,0,NA,0,0,0,64,55,30.11,2,274,9,NA,70,58,93,35,57,40,30.14,30.03,9,0,10,4,13,1,0,0.03,"",5,43,74,NA,NA,683,849,1,2,11,NA,NA,77,34
2016-03-15 12:00:00,0,0,0,0,0,0,NA,0,0,0,65,52,29.99,1,261,10,NA,77,53,93,43,54,48,30.07,29.91,8,0,10,10,14,0,0,0,"",5,43,79,NA,NA,683,854,1,2,12,NA,NA,77,35
2016-03-16 12:00:00,0,0,0,0,0,0,NA,0,0,0,72,44,29.91,1,53,10,NA,87,57,80,17,52,36,29.96,29.85,8,0,10,6,20,0,7,0,"",5,43,84,NA,NA,683,859,1,9,13,NA,NA,84,36
2016-03-17 12:00:00,0,0,0,0,0,0,NA,0,0,0,70,53,29.89,2,276,10,NA,81,59,84,33,58,47,29.92,29.85,9,0,10,10,20,0,5,0,"",5,43,89,NA,NA,683,864,1,14,14,NA,NA,89,37
2016-03-18 12:00:00,0,0,0,0,0,0,NA,0,0,0,65,55,29.94,1,270,7,NA,73,57,93,53,56,53,29.99,29.91,9,0,10,3,14,0,0,0,"",5,43,94,NA,NA,683,869,1,14,15,NA,NA,89,38
2016-03-19 12:00:00,0,0,0,0,0,0,NA,0,0,0,64,55,30,2,144,5,NA,71,57,93,61,56,54,30.04,29.97,8,0,8,2,14,1,0,0,"",5,44,99,NA,NA,684,874,1,14,16,NA,NA,89,39
2016-03-20 12:00:00,0,0,0,0,0,0,NA,0,0,0,65,55,30.06,1,270,5,NA,72,57,93,57,56,54,30.1,30.01,9,0,10,2,14,0,0,0,"",5,44,104,NA,NA,684,879,1,14,17,NA,NA,89,40
2016-03-21 12:00:00,0,0,0,0,0,0,NA,0,0,0,64,53,30.09,2,79,6,NA,71,57,87,57,55,51,30.15,30.03,10,0,10,2,14,1,0,0,"",5,45,109,NA,NA,685,884,1,14,18,NA,NA,89,41
2016-03-22 12:00:00,0,0,0,0,0,0,NA,0,0,0,62,38,30.02,6,325,10,NA,71,53,83,22,50,26,30.05,29.99,16,0,10,10,12,3,0,0,"",5,48,114,NA,NA,688,889,1,14,19,NA,NA,89,42
2016-03-23 12:00:00,0,0,0,0,0,0,NA,0,0,0,65,35,30.1,2,267,10,NA,77,52,59,12,45,20,30.16,30.03,9,0,10,10,14,0,0,0,"",5,48,119,NA,NA,688,894,1,14,20,NA,NA,89,43
2016-03-24 12:00:00,0,0,0,0,0,0,NA,0,0,0,68,35,30.03,1,187,10,NA,81,55,56,12,49,22,30.13,29.93,10,0,10,10,18,0,3,0,"",5,48,124,NA,NA,688,899,1,17,21,NA,NA,92,44
2016-03-25 12:00:00,0,0,0,0,0,0,NA,0,0,0,66,47,29.86,2,110,10,NA,78,54,78,27,54,40,29.94,29.77,9,0,10,10,14,0,1,0,"",5,48,129,NA,NA,688,904,1,18,22,NA,NA,93,45
2016-03-26 12:00:00,0,0,0,0,0,0,NA,0,0,0,68,54,29.85,2,246,10,NA,77,59,84,46,56,51,29.95,29.81,10,0,10,7,16,0,3,0,"",5,48,134,NA,NA,688,909,1,21,23,NA,NA,96,46
2016-03-27 12:00:00,0,0,0,0,0,0,NA,0,0,0,67,55,29.99,1,155,9,NA,74,59,90,53,57,53,30.04,29.96,10,0,10,7,16,0,2,0,"",5,48,139,NA,NA,688,914,1,23,24,NA,NA,98,47
2016-03-28 12:00:00,0,1,0,0,0,0,NA,0,0,0,60,51,29.89,2,264,9,NA,66,54,87,49,56,40,29.96,29.81,13,0,10,2,9,5,0,0.02,"",5,53,144,NA,NA,693,919,1,23,25,NA,NA,98,48
2016-03-29 12:00:00,0,0,0,0,0,0,NA,0,0,0,56,40,29.88,3,290,10,NA,64,48,77,34,46,35,29.92,29.84,14,0,10,10,6,9,0,NA,"",5,62,149,NA,NA,702,924,1,23,26,NA,NA,98,49
2016-03-30 12:00:00,0,0,0,0,0,0,NA,0,0,0,59,42,29.97,3,96,10,NA,66,52,72,39,47,38,30.04,29.92,12,0,10,10,8,6,0,0,"",5,68,154,NA,NA,708,929,1,23,27,NA,NA,98,50
2016-03-31 12:00:00,0,0,0,0,0,0,NA,0,0,0,61,44,30.02,3,274,10,NA,72,50,80,35,51,40,30.05,29.98,13,0,10,10,10,4,0,0,"",5,72,159,NA,NA,712,932,1,23,20,NA,NA,98,43
2016-04-01 12:00:00,0,0,0,0,0,0,NA,0,0,0,63,51,30.09,2,195,10,NA,72,54,83,44,54,47,30.13,30.06,9,0,10,8,12,2,0,0,"",4,2,4,NA,NA,714,936,1,0,1,NA,NA,98,44
2016-04-02 12:00:00,0,0,0,0,0,0,NA,0,0,0,65,52,30.11,2,280,9,NA,76,54,86,41,55,49,30.17,30.04,9,0,10,6,15,0,0,0,"",4,2,8,NA,NA,714,940,1,0,2,NA,NA,98,45
2016-04-03 12:00:00,0,0,0,0,0,0,NA,0,0,0,68,52,30.04,2,241,10,NA,79,56,80,39,55,50,30.08,29.98,10,0,10,8,18,0,3,0,"",4,2,12,NA,NA,714,944,1,3,3,NA,NA,101,46
2016-04-04 12:00:00,0,0,0,0,0,0,NA,0,0,0,69,51,30.06,2,262,10,NA,80,58,80,33,55,42,30.12,30.03,9,0,10,6,17,0,4,0,"",4,2,16,NA,NA,714,948,1,7,4,NA,NA,105,47
2016-04-05 12:00:00,0,0,0,0,0,0,NA,0,0,0,71,50,30.04,2,282,10,NA,85,56,86,24,57,42,30.09,29.95,7,0,10,7,18,0,6,0,"",4,2,20,NA,NA,714,952,1,13,5,NA,NA,111,48
2016-04-06 12:00:00,0,0,0,0,0,0,NA,0,0,0,74,54,30.06,1,300,9,NA,88,59,90,27,58,46,30.1,29.99,12,0,10,5,24,0,9,0,"",4,2,24,NA,NA,714,956,1,22,6,NA,NA,120,49
2016-04-07 12:00:00,0,1,0,0,0,0,NA,0,0,0,64,55,29.97,1,277,9,NA,69,59,90,55,59,51,30.07,29.89,8,0,10,5,14,1,0,0.06,"",4,3,28,NA,NA,715,960,1,22,7,NA,NA,120,50
2016-04-08 12:00:00,0,1,0,0,0,0,NA,0,0,0,60,57,29.94,0,270,5,NA,61,59,90,84,59,55,29.97,29.89,6,0,10,1,10,5,0,0.14,"",4,8,32,NA,NA,720,964,1,22,8,NA,NA,120,51
2016-04-09 12:00:00,0,1,0,0,0,0,NA,0,0,0,62,55,29.92,3,103,9,NA,64,60,84,67,56,52,29.97,29.85,8,0,10,2,12,3,0,0.04,"",4,11,36,NA,NA,723,968,1,22,9,NA,NA,120,52
2016-04-10 12:00:00,0,0,0,0,0,0,NA,0,0,0,64,53,29.89,2,270,10,NA,70,58,84,53,55,51,30,29.82,13,0,10,10,14,1,0,0,"",4,12,40,NA,NA,724,972,1,22,10,NA,NA,120,53
2016-04-11 12:00:00,0,0,0,0,0,0,NA,0,0,0,66,54,30.05,2,270,10,NA,73,59,84,49,55,51,30.1,30.01,10,0,10,10,16,0,1,0,"",4,12,44,NA,NA,724,976,1,23,11,NA,NA,121,54
2016-04-12 12:00:00,0,0,0,0,0,0,NA,0,0,0,66,53,30.12,2,270,10,NA,75,56,93,49,55,51,30.15,30.09,9,0,10,6,14,0,1,0,"",4,12,48,NA,NA,724,980,1,24,12,NA,NA,122,55
2016-04-13 12:00:00,0,0,0,0,0,0,NA,0,0,0,65,54,30.08,2,280,10,NA,73,57,87,53,55,52,30.15,30,9,0,10,5,14,0,0,0,"",3,12,51,NA,NA,724,983,1,24,13,NA,NA,122,56
2016-04-14 12:00:00,0,0,0,0,0,0,NA,0,0,0,65,51,29.95,3,129,9,NA,72,57,86,16,55,20,30.01,29.85,16,0,10,6,14,0,0,0,"",3,12,54,NA,NA,724,986,1,24,14,NA,NA,122,57
2016-04-15 12:00:00,0,0,0,0,0,0,NA,0,0,0,70,30,29.84,7,336,10,NA,81,59,42,7,37,7,29.92,29.79,17,0,10,10,20,0,5,0,"",3,12,57,NA,NA,724,989,1,29,15,NA,NA,127,58
2016-04-16 12:00:00,0,0,0,0,0,0,NA,0,0,0,70,32,29.96,1,30,10,NA,82,58,45,12,45,17,30,29.91,7,0,10,8,20,0,5,0,"",3,12,60,NA,NA,724,992,1,34,16,NA,NA,132,59
2016-04-17 12:00:00,0,0,0,0,0,0,NA,0,0,0,74,37,29.97,3,277,10,NA,89,58,60,12,46,29,29.99,29.94,13,0,10,10,23,0,9,0,"",3,12,63,NA,NA,724,995,1,43,17,NA,NA,141,60
2016-04-18 12:00:00,0,0,0,0,0,0,NA,0,0,0,74,38,30,2,286,10,NA,89,59,52,13,49,29,30.05,29.98,9,0,10,10,24,0,9,0,"",3,12,66,NA,NA,724,998,2,52,19,NA,NA,150,62
2016-04-19 12:00:00,0,0,0,0,0,0,NA,0,0,0,76,41,29.93,1,276,10,NA,89,62,78,12,59,29,29.98,29.89,10,0,10,9,25,0,11,0,"",3,12,69,NA,NA,724,1001,2,63,21,NA,NA,161,64
2016-04-20 12:00:00,0,0,0,0,0,0,NA,0,0,0,74,39,29.9,1,267,10,NA,87,60,78,12,56,26,29.93,29.86,10,0,10,10,22,0,9,0,"",3,12,72,NA,NA,724,1004,2,72,23,NA,NA,170,66
