"date","fog","rain","snow","snow_fall","mtd_snow","since_jul_snow","snow_depth","hail","thunder","tornado","mean_temp","mean_dewp","mean_pressure","mean_wind_spd","mean_wind_dir","mean_visib","humid","max_temp","min_temp","max_humid","min_humid","max_dew_pt","min_dew_pt","max_pressure","min_pressure","max_wind_spd","min_wind_spd","max_vis","min_vis","gdegree","heating_days","cooling_days","precip","precip_source","heating_day_normal","mtd_heating_degree","mtd_heating_degree_normal","since_sep_heating","since_sep_heating_normal","since_jul_heating","since_jul_heating_normal","cooling_degree_normal","mtd_cooling_day","mtd_cooling_day_normal","since_sep_cooling","since_sep_cooling_normal","since_jan_cooling","since_jan_cooling_normal"
2013-04-20 12:00:00,0,0,0,0,0,0,NA,0,0,0,70,47,29.93,2,152,10,NA,84,56,80,14,53,30,29.98,29.88,9,0,10,7,20,0,5,0,"",3,36,72,NA,NA,906,1004,2,12,23,NA,NA,33,66
2013-04-21 12:00:00,0,0,0,0,0,0,NA,0,0,0,69,52,29.97,1,270,9,NA,80,57,87,28,56,43,30.01,29.93,8,0,10,4,18,0,4,0,"",3,36,75,NA,NA,906,1007,2,16,25,NA,NA,37,68
2013-04-22 12:00:00,0,0,0,0,0,0,NA,0,0,0,65,52,29.96,2,275,9,NA,72,57,86,47,54,49,30,29.9,9,0,10,6,14,0,0,0,"",3,36,78,NA,NA,906,1010,2,16,27,NA,NA,37,70
2013-04-23 12:00:00,0,0,0,0,0,0,NA,0,0,0,66,50,29.92,2,90,10,NA,73,58,75,44,52,46,29.97,29.86,10,0,10,9,14,0,1,0,"",3,36,81,NA,NA,906,1013,2,17,29,NA,NA,38,72
2013-04-24 12:00:00,0,0,0,0,0,0,NA,0,0,0,61,52,29.94,1,258,9,NA,63,58,80,60,54,48,29.99,29.9,8,0,10,6,10,4,0,NA,"",3,40,84,NA,NA,910,1016,2,17,31,NA,NA,38,74
2013-04-25 12:00:00,0,0,0,0,0,0,NA,0,0,0,64,48,30.03,2,-1,10,NA,71,57,80,37,52,42,30.11,29.96,12,0,10,10,14,1,0,0,"",3,41,87,NA,NA,911,1019,2,17,33,NA,NA,38,76
2013-04-26 12:00:00,0,0,0,0,0,0,NA,0,0,0,65,50,30.12,2,267,9,NA,74,56,86,41,54,46,30.15,30.09,10,0,10,2,14,0,0,0,"",3,41,90,NA,NA,911,1022,2,17,35,NA,NA,38,78
2013-04-27 12:00:00,0,0,0,0,0,0,NA,0,0,0,64,53,30.07,1,273,9,NA,72,55,93,53,55,52,30.15,29.99,9,0,10,7,14,1,0,0,"",3,42,93,NA,NA,912,1025,2,17,37,NA,NA,38,80
2013-04-28 12:00:00,0,0,0,0,0,0,NA,0,0,0,66,54,29.94,1,263,6,NA,74,58,86,53,55,53,30.02,29.87,8,0,8,4,15,0,1,0,"",2,42,95,NA,NA,912,1027,2,18,39,NA,NA,39,82
2013-04-29 12:00:00,0,0,0,0,0,0,NA,0,0,0,66,54,29.86,2,161,7,NA,74,58,86,53,55,53,29.91,29.78,8,0,10,4,15,0,1,0,"",2,42,97,NA,NA,912,1029,2,19,41,NA,NA,40,84
2013-04-30 12:00:00,0,0,0,0,0,0,NA,0,0,0,64,52,29.85,1,218,10,NA,68,59,78,58,54,51,29.89,29.82,9,0,10,8,12,1,0,0,"",2,43,99,NA,NA,913,1033,2,19,44,NA,NA,40,87
2013-05-01 12:00:00,0,0,0,0,0,0,NA,0,0,0,67,53,29.97,1,265,10,NA,75,59,84,46,55,51,30.09,29.9,10,0,10,8,16,0,2,0,"",2,0,2,NA,NA,913,1035,2,2,2,NA,NA,42,89
2013-05-02 12:00:00,0,0,0,0,0,0,NA,0,0,0,72,46,30.05,2,270,10,NA,88,55,93,11,55,27,30.11,29.98,9,0,10,9,22,0,7,0,"",2,0,4,NA,NA,913,1037,2,9,4,NA,NA,49,91
2013-05-03 12:00:00,0,0,0,0,0,0,NA,0,0,0,77,28,29.87,2,281,10,NA,93,60,60,4,50,5,30,29.77,10,0,10,10,28,0,12,0,"",2,0,6,NA,NA,913,1039,2,21,6,NA,NA,61,93
2013-05-04 12:00:00,0,0,0,0,0,0,NA,0,0,0,68,53,29.78,4,118,9,NA,74,61,90,49,58,50,29.84,29.75,9,0,10,4,16,0,3,0,"",2,0,8,NA,NA,913,1041,2,24,8,NA,NA,64,95
2013-05-05 12:00:00,0,1,0,0,0,0,NA,0,0,0,63,50,29.89,6,143,10,NA,67,59,80,52,53,47,29.94,29.82,13,4,10,9,12,2,0,0.01,"",2,2,10,NA,NA,915,1043,2,24,10,NA,NA,64,97
2013-05-06 12:00:00,1,1,0,0,0,0,NA,0,0,0,62,54,29.95,2,106,6,NA,67,57,93,56,57,48,30.01,29.9,8,0,10,0,12,3,0,0.69,"",2,5,12,NA,NA,918,1045,2,24,12,NA,NA,64,99
2013-05-07 12:00:00,0,1,0,0,0,0,NA,0,0,0,65,50,30.01,2,300,10,NA,71,58,80,40,54,44,30.06,29.99,10,0,10,9,13,0,0,0.01,"",2,5,14,NA,NA,918,1047,2,24,14,NA,NA,64,101
2013-05-08 12:00:00,0,0,0,0,0,0,NA,0,0,0,65,50,30.07,2,272,10,NA,70,59,80,44,54,46,30.09,30.06,10,0,10,10,14,0,0,0,"",2,5,16,NA,NA,918,1049,2,24,16,NA,NA,64,103
2013-05-09 12:00:00,0,1,0,0,0,0,NA,0,0,0,66,52,30.06,1,355,10,NA,73,58,80,49,54,49,30.09,30.02,9,0,10,9,14,0,1,NA,"",2,5,18,NA,NA,918,1051,2,25,18,NA,NA,65,105
2013-05-10 12:00:00,0,0,0,0,0,0,NA,0,0,0,67,56,30.06,2,103,8,NA,75,59,84,53,57,53,30.08,30,9,0,10,5,16,0,2,0,"",2,5,20,NA,NA,918,1053,2,27,20,NA,NA,67,107
2013-05-11 12:00:00,0,0,0,0,0,0,NA,0,0,0,73,57,30.03,1,267,7,NA,85,60,84,43,60,56,30.06,29.98,10,0,9,5,21,0,8,0,"",2,5,22,NA,NA,918,1055,2,35,22,NA,NA,75,109
2013-05-12 12:00:00,1,0,0,0,0,0,NA,0,0,0,72,58,29.99,2,277,6,NA,84,59,93,40,61,55,30.05,29.9,8,0,10,0,22,0,7,0,"",2,5,24,NA,NA,918,1057,2,42,24,NA,NA,82,111
2013-05-13 12:00:00,0,0,0,0,0,0,NA,0,0,0,80,55,29.91,1,283,10,NA,93,66,78,23,60,49,29.95,29.85,9,0,10,7,28,0,15,0,"",2,5,26,NA,NA,918,1059,2,57,26,NA,NA,97,113
2013-05-14 12:00:00,0,0,0,0,0,0,NA,0,0,0,68,54,29.94,2,225,10,NA,76,60,84,43,56,50,30,29.89,10,0,10,8,18,0,3,0,"",1,5,27,NA,NA,918,1060,2,60,28,NA,NA,100,115
2013-05-15 12:00:00,0,0,0,0,0,0,NA,0,0,0,67,53,29.99,1,212,9,NA,74,59,80,49,55,52,30.04,29.95,9,0,10,7,16,0,2,0,"",1,5,28,NA,NA,918,1061,2,62,30,NA,NA,102,117
2013-05-16 12:00:00,0,0,0,0,0,0,NA,0,0,0,66,54,29.94,2,185,10,NA,71,60,78,55,56,52,29.98,29.9,9,0,10,7,16,0,1,0,"",1,5,29,NA,NA,918,1062,2,63,32,NA,NA,103,119
2013-05-17 12:00:00,0,0,0,0,0,0,NA,0,0,0,67,54,29.95,2,272,10,NA,73,61,78,53,56,52,29.99,29.9,10,0,10,8,18,0,2,0,"",1,5,30,NA,NA,918,1063,2,65,34,NA,NA,105,121
2013-05-18 12:00:00,0,0,0,0,0,0,NA,0,0,0,67,54,30,1,275,10,NA,74,59,84,49,55,52,30.03,29.96,10,0,10,10,16,0,2,0,"",1,5,31,NA,NA,918,1064,2,67,36,NA,NA,107,123
2013-05-19 12:00:00,0,0,0,0,0,0,NA,0,0,0,68,55,29.94,1,183,10,NA,75,60,84,49,56,53,29.98,29.88,9,0,10,9,18,0,3,0,"",1,5,32,NA,NA,918,1065,2,70,38,NA,NA,110,125
2013-05-20 12:00:00,0,0,0,0,0,0,NA,0,0,0,72,57,29.91,1,0,10,NA,81,62,84,48,59,55,29.94,29.88,9,0,10,5,20,0,7,0,"",1,5,33,NA,NA,918,1066,2,77,40,NA,NA,117,127
2013-05-21 12:00:00,0,0,0,0,0,0,NA,0,0,0,71,58,29.88,2,273,8,NA,79,63,84,48,60,57,29.94,29.84,10,0,10,5,20,0,6,0,"",1,5,34,NA,NA,918,1067,2,83,42,NA,NA,123,129
2013-05-22 12:00:00,0,0,0,0,0,0,NA,0,0,0,69,54,29.81,2,257,10,NA,75,63,78,52,57,46,29.85,29.78,9,0,10,7,18,0,4,0,"",1,5,35,NA,NA,918,1068,2,87,44,NA,NA,127,131
2013-05-23 12:00:00,0,0,0,0,0,0,NA,0,0,0,67,51,29.87,2,270,10,NA,72,61,72,49,54,48,29.93,29.82,10,0,10,9,16,0,2,0,"",1,5,36,NA,NA,918,1069,2,89,46,NA,NA,129,133
2013-05-24 12:00:00,0,0,0,0,0,0,NA,0,0,0,66,52,29.95,2,267,10,NA,73,59,75,53,54,50,29.98,29.91,10,0,10,9,15,0,1,0,"",1,5,37,NA,NA,918,1070,2,90,48,NA,NA,130,135
2013-05-25 12:00:00,0,0,0,0,0,0,NA,0,0,0,66,52,29.99,3,345,10,NA,72,60,78,56,54,50,30.01,29.96,9,0,10,9,15,0,1,0,"",1,5,38,NA,NA,918,1071,2,91,50,NA,NA,131,137
2013-05-26 12:00:00,0,0,0,0,0,0,NA,0,0,0,66,53,30.01,2,265,10,NA,73,58,80,49,55,51,30.04,29.99,10,0,10,9,16,0,1,0,"",1,5,39,NA,NA,918,1072,2,92,52,NA,NA,132,139
2013-05-27 12:00:00,0,0,0,0,0,0,NA,0,0,0,68,54,29.93,2,246,10,NA,75,61,84,50,56,53,29.99,29.86,9,0,10,10,18,0,3,0,"",1,5,40,NA,NA,918,1073,2,95,54,NA,NA,135,141
2013-05-28 12:00:00,0,0,0,0,0,0,NA,0,0,0,70,56,29.82,2,190,10,NA,77,62,84,46,59,53,29.88,29.73,12,0,10,10,18,0,5,0,"",1,5,41,NA,NA,918,1074,2,100,56,NA,NA,140,143
2013-05-29 12:00:00,0,0,0,0,0,0,NA,0,0,0,71,57,29.76,2,134,10,NA,78,63,84,40,59,51,29.8,29.7,13,0,10,10,20,0,6,0,"",1,5,42,NA,NA,918,1075,2,106,58,NA,NA,146,145
2013-05-30 12:00:00,0,0,0,0,0,0,NA,0,0,0,71,58,29.81,1,130,10,NA,80,62,84,48,60,57,29.88,29.76,10,0,10,8,20,0,6,0,"",1,5,43,NA,NA,918,1076,3,112,61,NA,NA,152,148
2013-05-31 12:00:00,0,0,0,0,0,0,NA,0,0,0,71,58,29.86,2,263,9,NA,78,63,84,50,59,55,29.91,29.81,9,0,10,8,20,0,6,0,"",1,5,44,NA,NA,918,1076,3,118,67,NA,NA,158,154
2013-06-01 12:00:00,0,0,0,0,0,0,NA,0,0,0,72,59,29.8,1,275,7,NA,80,63,90,54,61,57,29.85,29.75,8,0,10,4,20,0,7,0,"",1,0,1,NA,NA,918,1077,3,7,3,NA,NA,165,157
2013-06-02 12:00:00,0,0,0,0,0,0,NA,0,0,0,71,58,29.79,1,247,9,NA,76,65,81,54,60,55,29.83,29.76,9,0,10,7,20,0,6,0,"",1,0,2,NA,NA,918,1078,3,13,6,NA,NA,171,160
2013-06-03 12:00:00,0,0,0,0,0,0,NA,0,0,0,69,56,29.84,2,159,10,NA,75,63,78,53,57,54,29.89,29.8,9,0,10,10,18,0,4,0,"",1,0,3,NA,NA,918,1079,3,17,9,NA,NA,175,163
2013-06-04 12:00:00,0,0,0,0,0,0,NA,0,0,0,68,55,29.92,3,252,10,NA,73,62,78,57,56,55,29.96,29.88,9,0,10,10,18,0,3,0,"",1,0,4,NA,NA,918,1080,3,20,12,NA,NA,178,166
2013-06-05 12:00:00,0,0,0,0,0,0,NA,0,0,0,67,55,29.96,2,271,10,NA,72,61,84,61,56,54,30,29.92,10,0,10,10,16,0,2,0,"",1,0,5,NA,NA,918,1081,3,22,15,NA,NA,180,169
2013-06-06 12:00:00,0,0,0,0,0,0,NA,0,0,0,67,57,29.91,2,270,9,NA,72,61,84,66,57,55,29.95,29.87,9,0,10,5,16,0,2,0,"",1,0,6,NA,NA,918,1082,3,24,18,NA,NA,182,172
2013-06-07 12:00:00,0,0,0,0,0,0,NA,0,0,0,66,57,29.84,1,272,8,NA,71,61,84,61,58,55,29.9,29.79,8,0,10,5,16,0,1,0,"",0,0,6,NA,NA,918,1082,3,25,21,NA,NA,183,175
2013-06-08 12:00:00,0,0,0,0,0,0,NA,0,0,0,69,57,29.85,2,260,8,NA,75,63,78,57,58,55,29.9,29.79,7,0,10,4,18,0,4,0,"",0,0,6,NA,NA,918,1082,3,29,24,NA,NA,187,178
2013-06-09 12:00:00,0,0,0,0,0,0,NA,0,0,0,69,56,29.9,1,262,9,NA,76,62,78,54,58,55,29.92,29.87,9,0,10,8,18,0,4,0,"",0,0,6,NA,NA,918,1082,3,33,27,NA,NA,191,181
2013-06-10 12:00:00,0,0,0,0,0,0,NA,0,0,0,69,55,29.92,2,251,10,NA,76,62,78,43,58,51,29.95,29.88,5,0,10,9,18,0,4,0,"",0,0,6,NA,NA,918,1082,4,37,31,NA,NA,195,185
2013-06-11 12:00:00,0,0,0,0,0,0,NA,0,0,0,71,58,29.91,1,270,10,NA,80,61,84,45,59,56,29.94,29.88,9,0,10,10,21,0,6,0,"",0,0,6,NA,NA,918,1082,4,43,35,NA,NA,201,189
2013-06-12 12:00:00,0,0,0,0,0,0,NA,0,0,0,67,58,29.97,1,280,9,NA,72,62,90,66,60,56,30.02,29.92,9,0,10,5,17,0,2,0,"",0,0,6,NA,NA,918,1082,4,45,39,NA,NA,203,193
2013-06-13 12:00:00,0,0,0,0,0,0,NA,0,0,0,69,57,29.96,2,263,8,NA,76,61,84,54,58,54,30.01,29.9,8,0,10,5,18,0,4,0,"",0,0,6,NA,NA,918,1082,4,49,43,NA,NA,207,197
2013-06-14 12:00:00,0,0,0,0,0,0,NA,0,0,0,69,57,29.89,1,270,8,NA,77,60,90,50,58,55,29.92,29.84,8,0,10,4,18,0,4,0,"",0,0,6,NA,NA,918,1082,4,53,47,NA,NA,211,201
2013-06-15 12:00:00,0,0,0,0,0,0,NA,0,0,0,70,55,29.93,2,260,9,NA,76,63,84,46,57,53,29.97,29.88,9,0,10,4,18,0,5,0,"",0,0,6,NA,NA,918,1082,4,58,51,NA,NA,216,205
2013-06-16 12:00:00,0,0,0,0,0,0,NA,0,0,0,70,55,29.98,2,268,9,NA,79,61,84,49,57,54,30.03,29.94,9,0,10,6,18,0,5,0,"",0,0,6,NA,NA,918,1082,4,63,55,NA,NA,221,209
2013-06-17 12:00:00,0,0,0,0,0,0,NA,0,0,0,68,57,29.94,1,290,7,NA,76,59,90,50,58,55,29.99,29.88,9,0,10,3,17,0,3,0,"",0,0,6,NA,NA,918,1082,5,66,60,NA,NA,224,214
2013-06-18 12:00:00,0,0,0,0,0,0,NA,0,0,0,70,57,29.87,2,270,9,NA,79,61,84,45,59,51,29.92,29.84,9,0,10,5,20,0,5,0,"",0,0,6,NA,NA,918,1082,5,71,65,NA,NA,229,219
2013-06-19 12:00:00,0,0,0,0,0,0,NA,0,0,0,68,54,29.83,2,267,10,NA,75,60,78,43,57,50,29.87,29.79,10,0,10,8,18,0,3,0,"",0,0,6,NA,NA,918,1082,5,74,70,NA,NA,232,224
2013-06-20 12:00:00,0,0,0,0,0,0,NA,0,0,0,69,55,29.83,2,276,10,NA,78,60,84,36,59,48,29.85,29.8,10,0,10,8,20,0,4,0,"",0,0,6,NA,NA,918,1082,5,78,75,NA,NA,236,229
2013-06-21 12:00:00,0,0,0,0,0,0,NA,0,0,0,72,58,29.85,1,270,9,NA,81,62,84,42,59,54,29.89,29.83,8,0,10,5,20,0,7,0,"",0,0,6,NA,NA,918,1082,5,85,80,NA,NA,243,234
2013-06-22 12:00:00,0,0,0,0,0,0,NA,0,0,0,72,57,29.87,2,128,10,NA,79,64,84,46,59,54,29.9,29.81,9,0,10,9,20,0,7,0,"",0,0,6,NA,NA,918,1082,5,92,85,NA,NA,250,239
2013-06-23 12:00:00,0,0,0,0,0,0,NA,0,0,0,70,57,29.84,2,260,10,NA,75,64,84,53,59,55,29.88,29.79,8,0,10,8,18,0,5,0,"",0,0,6,NA,NA,918,1082,6,97,91,NA,NA,255,245
2013-06-24 12:00:00,0,0,0,0,0,0,NA,0,0,0,69,57,29.9,2,233,10,NA,74,63,87,53,60,55,29.93,29.82,8,0,10,9,18,0,4,0,"",0,0,6,NA,NA,918,1082,6,101,97,NA,NA,259,251
2013-06-25 12:00:00,0,0,0,0,0,0,NA,0,0,0,69,59,29.95,1,250,10,NA,74,64,87,61,61,59,29.99,29.9,8,0,10,10,18,0,4,0,"",0,0,6,NA,NA,918,1082,6,105,103,NA,NA,263,257
2013-06-26 12:00:00,0,0,0,0,0,0,NA,0,0,0,73,61,29.94,2,280,10,NA,82,63,93,49,62,59,29.98,29.9,8,0,10,7,22,0,8,0,"",0,0,6,NA,NA,918,1082,6,113,109,NA,NA,271,263
2013-06-27 12:00:00,0,0,0,0,0,0,NA,0,0,0,78,62,29.98,1,280,10,NA,90,66,87,41,63,61,30.01,29.96,7,0,10,6,28,0,13,0,"",0,0,6,NA,NA,918,1082,6,126,115,NA,NA,284,269
2013-06-28 12:00:00,0,0,0,0,0,0,NA,0,0,0,76,61,29.93,1,-1,8,NA,87,65,93,40,63,59,29.98,29.86,9,0,10,2,26,0,11,0,"",0,0,6,NA,NA,918,1082,7,137,122,NA,NA,295,276
2013-06-29 12:00:00,0,0,0,0,0,0,NA,0,0,0,78,61,29.79,1,270,10,NA,90,66,81,40,63,58,29.87,29.73,9,0,10,10,27,0,13,0,"",0,0,6,NA,NA,918,1082,7,150,129,NA,NA,308,283
2013-06-30 12:00:00,0,0,0,0,0,0,NA,0,0,0,82,62,29.74,1,155,10,NA,94,69,78,38,63,59,29.81,29.7,9,0,10,10,30,0,17,0,"",0,0,6,NA,NA,918,1084,7,167,134,NA,NA,325,288
2013-07-01 12:00:00,0,0,0,0,0,0,NA,0,0,0,80,64,29.84,0,270,9,NA,92,67,87,41,65,62,29.87,29.8,8,0,10,5,30,0,15,0,"",0,0,0,NA,NA,0,0,7,15,7,NA,NA,340,295
2013-07-02 12:00:00,0,0,0,0,0,0,NA,0,0,0,75,63,29.92,2,280,9,NA,83,67,81,55,64,62,29.98,29.87,8,0,10,7,25,0,10,0,"",0,0,0,NA,NA,0,0,7,25,14,NA,NA,350,302
2013-07-03 12:00:00,0,0,0,0,0,0,NA,0,0,0,74,62,29.87,1,274,9,NA,83,65,93,51,63,60,29.93,29.8,8,0,10,4,23,0,9,0,"",0,0,0,NA,NA,0,0,7,34,21,NA,NA,359,309
2013-07-04 12:00:00,0,0,0,0,0,0,NA,0,0,0,74,61,29.81,2,256,7,NA,82,65,93,51,62,60,29.84,29.75,8,0,10,3,22,0,9,0,"",0,0,0,NA,NA,0,0,7,43,28,NA,NA,368,316
2013-07-05 12:00:00,0,0,0,0,0,0,NA,0,0,0,72,61,29.81,1,270,6,NA,80,64,87,52,62,59,29.84,29.76,14,0,10,2,22,0,7,0,"",0,0,0,NA,NA,0,0,8,50,36,NA,NA,375,324
2013-07-06 12:00:00,0,0,0,0,0,0,NA,0,0,0,74,61,29.79,1,270,9,NA,81,66,81,54,62,60,29.83,29.75,9,0,10,6,22,0,9,0,"",0,0,0,NA,NA,0,0,8,59,44,NA,NA,384,332
2013-07-07 12:00:00,0,0,0,0,0,0,NA,0,0,0,71,61,29.81,2,275,8,NA,77,65,87,60,63,60,29.86,29.77,9,0,10,4,20,0,6,0,"",0,0,0,NA,NA,0,0,8,65,52,NA,NA,390,340
2013-07-08 12:00:00,0,0,0,0,0,0,NA,0,0,0,73,59,29.88,1,260,10,NA,83,63,93,45,62,56,29.92,29.84,9,0,10,8,22,0,8,0,"",0,0,0,NA,NA,0,0,8,73,60,NA,NA,398,348
2013-07-09 12:00:00,0,0,0,0,0,0,NA,0,0,0,76,61,29.94,1,230,10,NA,87,64,87,44,62,59,29.98,29.88,7,0,10,7,24,0,11,0,"",0,0,0,NA,NA,0,0,8,84,68,NA,NA,409,356
2013-07-10 12:00:00,0,1,0,0,0,0,NA,0,0,0,75,62,29.93,1,120,10,NA,83,67,81,43,63,58,29.96,29.9,7,0,10,9,24,0,10,NA,"",0,0,0,NA,NA,0,0,8,94,76,NA,NA,419,364
2013-07-11 12:00:00,0,1,0,0,0,0,NA,0,0,0,72,64,29.92,0,140,9,NA,76,68,90,64,66,63,29.96,29.88,6,0,10,5,22,0,7,0.04,"",0,0,0,NA,NA,0,0,8,101,84,NA,NA,426,372
2013-07-12 12:00:00,0,0,0,0,0,0,NA,0,0,0,74,62,29.9,2,264,8,NA,85,63,90,51,64,58,29.93,29.85,8,0,10,4,22,0,9,0,"",0,0,0,NA,NA,0,0,8,110,92,NA,NA,435,380
2013-07-13 12:00:00,0,0,0,0,0,0,NA,0,0,0,72,60,29.91,1,260,7,NA,81,62,90,51,61,57,29.95,29.86,9,0,10,3,21,0,7,0,"",0,0,0,NA,NA,0,0,8,117,100,NA,NA,442,388
2013-07-14 12:00:00,0,0,0,0,0,0,NA,0,0,0,74,59,29.88,1,230,8,NA,84,63,90,45,62,56,29.93,29.82,8,0,10,5,22,0,9,0,"",0,0,0,NA,NA,0,0,8,126,108,NA,NA,451,396
2013-07-15 12:00:00,0,0,0,0,0,0,NA,0,0,0,74,58,29.84,1,270,10,NA,83,64,87,40,63,49,29.86,29.79,10,0,10,7,23,0,9,0,"",0,0,0,NA,NA,0,0,9,135,117,NA,NA,460,405
2013-07-16 12:00:00,0,0,0,0,0,0,NA,0,0,0,72,55,29.91,2,280,10,NA,82,61,84,36,58,50,29.98,29.86,10,0,10,10,22,0,7,0,"",0,0,0,NA,NA,0,0,9,142,126,NA,NA,467,414
2013-07-17 12:00:00,0,0,0,0,0,0,NA,0,0,0,74,54,29.98,1,260,10,NA,85,62,84,28,58,46,30,29.94,9,0,10,10,22,0,9,0,"",0,0,0,NA,NA,0,0,9,151,135,NA,NA,476,423
2013-07-18 12:00:00,0,0,0,0,0,0,NA,0,0,0,73,58,29.93,2,250,10,NA,83,62,90,45,60,55,29.98,29.86,9,0,10,9,21,0,8,0,"",0,0,0,NA,NA,0,0,9,159,144,NA,NA,484,432
2013-07-19 12:00:00,0,0,0,0,0,0,NA,0,0,0,72,59,29.87,1,275,9,NA,80,63,90,52,61,56,29.9,29.83,9,0,10,6,21,0,7,0,"",0,0,0,NA,NA,0,0,9,166,153,NA,NA,491,441
2013-07-20 12:00:00,0,0,0,0,0,0,NA,0,0,0,74,60,29.84,1,245,9,NA,80,67,81,54,62,57,29.87,29.79,9,0,10,4,22,0,9,0,"",0,0,0,NA,NA,0,0,9,175,162,NA,NA,500,450
2013-07-21 12:00:00,0,0,0,0,0,0,NA,0,0,0,71,61,29.85,1,260,7,NA,75,66,81,64,62,60,29.91,29.8,5,0,10,2,20,0,6,NA,"",0,0,0,NA,NA,0,0,9,181,171,NA,NA,506,459
2013-07-22 12:00:00,0,1,0,0,0,0,NA,0,0,0,75,62,29.94,2,271,8,NA,83,66,87,51,64,60,29.98,29.9,9,0,10,4,24,0,10,0.01,"",0,0,0,NA,NA,0,0,9,191,180,NA,NA,516,468
2013-07-23 12:00:00,0,0,0,0,0,0,NA,0,0,0,72,60,29.98,2,272,10,NA,79,64,87,50,61,58,30.02,29.93,10,0,10,7,20,0,7,0,"",0,0,0,NA,NA,0,0,9,198,189,NA,NA,523,477
2013-07-24 12:00:00,0,0,0,0,0,0,NA,0,0,0,70,58,29.94,1,270,10,NA,77,63,90,57,60,57,29.97,29.9,9,0,10,8,18,0,5,0,"",0,0,0,NA,NA,0,0,9,203,198,NA,NA,528,486
2013-07-25 12:00:00,0,0,0,0,0,0,NA,0,0,0,71,59,29.96,1,265,9,NA,79,62,90,54,61,57,30.01,29.93,9,0,10,5,20,0,6,0,"",0,0,0,NA,NA,0,0,9,209,207,NA,NA,534,495
2013-07-26 12:00:00,0,1,0,0,0,0,NA,0,0,0,72,60,30.02,1,277,9,NA,80,64,87,54,62,58,30.08,29.97,7,0,10,6,22,0,7,0.04,"",0,0,0,NA,NA,0,0,9,216,216,NA,NA,541,504
2013-07-27 12:00:00,0,0,0,0,0,0,NA,0,0,0,71,58,29.95,1,253,10,NA,79,62,90,54,59,57,30.01,29.88,8,0,10,8,20,0,6,0,"",0,0,0,NA,NA,0,0,9,222,225,NA,NA,547,513
2013-07-28 12:00:00,0,0,0,0,0,0,NA,0,0,0,70,58,29.9,2,241,9,NA,76,63,90,61,59,57,29.93,29.88,9,0,10,5,18,0,5,0,"",0,0,0,NA,NA,0,0,9,227,234,NA,NA,552,522
2013-07-29 12:00:00,0,0,0,0,0,0,NA,0,0,0,70,56,29.96,1,265,9,NA,77,63,84,50,58,55,30.03,29.91,8,0,10,7,19,0,5,0,"",0,0,0,NA,NA,0,0,9,232,243,NA,NA,557,531
2013-07-30 12:00:00,0,0,0,0,0,0,NA,0,0,0,69,57,30.07,2,267,10,NA,76,62,84,50,57,56,30.12,30.04,9,0,10,8,18,0,4,0,"",0,0,0,NA,NA,0,0,9,236,252,NA,NA,561,540
2013-07-31 12:00:00,0,0,0,0,0,0,NA,0,0,0,68,56,30.06,2,274,9,NA,73,62,84,57,57,55,30.11,30,9,0,10,8,17,0,3,0,"",0,0,0,NA,NA,0,0,9,239,259,NA,NA,564,547
2013-08-01 12:00:00,0,0,0,0,0,0,NA,0,0,0,68,57,29.97,1,268,8,NA,74,62,84,53,57,55,30.03,29.91,8,0,10,2,18,0,3,0,"",0,0,0,NA,NA,0,0,9,3,9,NA,NA,567,556
2013-08-02 12:00:00,0,0,0,0,0,0,NA,0,0,0,69,58,29.94,2,255,9,NA,76,62,84,54,59,57,29.97,29.9,7,0,10,6,18,0,4,0,"",0,0,0,NA,NA,0,0,9,7,18,NA,NA,571,565
2013-08-03 12:00:00,0,0,0,0,0,0,NA,0,0,0,71,58,29.96,2,280,8,NA,78,63,84,54,60,57,29.99,29.93,5,0,10,4,20,0,6,0,"",0,0,0,NA,NA,0,0,9,13,27,NA,NA,577,574
2013-08-04 12:00:00,0,0,0,0,0,0,NA,0,0,0,69,58,29.97,1,260,8,NA,76,62,84,54,59,57,30.01,29.93,5,0,10,4,18,0,4,0,"",0,0,0,NA,NA,0,0,9,17,36,NA,NA,581,583
2013-08-05 12:00:00,0,0,0,0,0,0,NA,0,0,0,70,57,29.97,2,257,8,NA,79,60,90,46,58,54,30,29.92,6,0,10,3,18,0,5,0,"",0,0,0,NA,NA,0,0,9,22,45,NA,NA,586,592
2013-08-06 12:00:00,0,0,0,0,0,0,NA,0,0,0,69,56,29.99,2,264,9,NA,77,61,90,50,58,55,30.03,29.96,8,0,10,5,18,0,4,0,"",0,0,0,NA,NA,0,0,9,26,54,NA,NA,590,601
2013-08-07 12:00:00,0,0,0,0,0,0,NA,0,0,0,70,57,30.02,2,248,9,NA,78,61,84,50,57,55,30.07,29.98,9,0,10,6,20,0,5,0,"",0,0,0,NA,NA,0,0,9,31,63,NA,NA,595,610
2013-08-08 12:00:00,0,0,0,0,0,0,NA,0,0,0,70,57,29.95,1,275,10,NA,79,60,90,48,58,56,29.99,29.91,9,0,10,10,19,0,5,0,"",0,0,0,NA,NA,0,0,9,36,72,NA,NA,600,619
2013-08-09 12:00:00,0,0,0,0,0,0,NA,0,0,0,70,57,29.93,1,140,10,NA,78,61,90,50,58,55,29.96,29.91,9,0,10,6,18,0,5,0,"",0,0,0,NA,NA,0,0,9,41,81,NA,NA,605,628
2013-08-10 12:00:00,0,0,0,0,0,0,NA,0,0,0,70,57,29.98,1,270,8,NA,77,62,84,50,58,55,30.03,29.95,9,0,10,4,18,0,5,0,"",0,0,0,NA,NA,0,0,9,46,90,NA,NA,610,637
2013-08-11 12:00:00,0,0,0,0,0,0,NA,0,0,0,70,57,29.95,1,250,8,NA,79,61,90,47,59,55,29.99,29.89,9,0,10,5,20,0,5,0,"",0,0,0,NA,NA,0,0,9,51,99,NA,NA,615,646
2013-08-12 12:00:00,0,0,0,0,0,0,NA,0,0,0,71,58,29.93,1,260,8,NA,79,62,90,47,59,56,29.97,29.89,8,0,10,5,20,0,6,0,"",0,0,0,NA,NA,0,0,9,57,108,NA,NA,621,655
2013-08-13 12:00:00,0,0,0,0,0,0,NA,0,0,0,72,59,29.92,1,241,6,NA,81,62,90,52,61,57,29.97,29.86,8,0,10,3,20,0,7,0,"",0,0,0,NA,NA,0,0,9,64,117,NA,NA,628,664
2013-08-14 12:00:00,0,0,0,0,0,0,NA,0,0,0,74,60,29.89,1,272,5,NA,82,65,87,47,61,59,29.92,29.82,8,0,7,2,23,0,9,0,"",0,0,0,NA,NA,0,0,9,73,126,NA,NA,637,673
2013-08-15 12:00:00,0,0,0,0,0,0,NA,0,0,0,74,61,29.9,1,250,6,NA,83,64,87,47,61,59,29.94,29.87,8,0,10,3,23,0,9,0,"",0,0,0,NA,NA,0,0,9,82,135,NA,NA,646,682
2013-08-16 12:00:00,0,0,0,0,0,0,NA,0,0,0,75,60,29.93,1,280,7,NA,85,64,87,47,62,57,29.95,29.89,9,0,10,2,23,0,10,0,"",0,0,0,NA,NA,0,0,9,92,144,NA,NA,656,691
2013-08-17 12:00:00,0,0,0,0,0,0,NA,0,0,0,72,59,29.9,1,280,7,NA,81,63,93,42,61,56,29.94,29.81,9,0,10,2,21,0,7,0,"",0,0,0,NA,NA,0,0,9,99,153,NA,NA,663,700
2013-08-18 12:00:00,0,0,0,0,0,0,NA,0,0,0,71,60,29.85,1,280,7,NA,80,61,90,52,61,57,29.9,29.82,7,0,10,4,20,0,6,0,"",0,0,0,NA,NA,0,0,9,105,162,NA,NA,669,709
2013-08-19 12:00:00,0,0,0,0,0,0,NA,0,0,0,72,61,29.9,1,260,7,NA,80,64,87,54,61,59,29.94,29.86,9,0,10,5,21,0,7,0,"",0,0,0,NA,NA,0,0,9,112,171,NA,NA,676,718
2013-08-20 12:00:00,0,0,0,0,0,0,NA,0,0,0,70,59,29.89,2,276,8,NA,78,62,90,50,61,58,29.94,29.84,8,0,10,5,20,0,5,0,"",0,0,0,NA,NA,0,0,9,117,180,NA,NA,681,727
2013-08-21 12:00:00,0,0,0,0,0,0,NA,0,0,0,72,58,29.88,1,277,10,NA,81,63,90,40,61,51,29.91,29.83,9,0,10,9,22,0,7,0,"",0,0,0,NA,NA,0,0,9,124,189,NA,NA,688,736
2013-08-22 12:00:00,0,0,0,0,0,0,NA,0,0,0,74,56,29.87,1,200,10,NA,85,63,84,33,59,49,29.92,29.79,9,0,10,10,22,0,9,0,"",0,0,0,NA,NA,0,0,9,133,198,NA,NA,697,745
2013-08-23 12:00:00,0,0,0,0,0,0,NA,0,0,0,75,57,29.8,1,-1,10,NA,86,63,84,36,59,52,29.86,29.74,8,0,10,9,24,0,10,0,"",0,0,0,NA,NA,0,0,9,143,207,NA,NA,707,754
2013-08-24 12:00:00,1,0,0,0,0,0,NA,0,0,0,71,58,29.82,1,275,6,NA,80,61,97,45,59,56,29.87,29.76,8,0,10,0,20,0,6,0,"",0,0,0,NA,NA,0,0,9,149,216,NA,NA,713,763
2013-08-25 12:00:00,1,0,0,0,0,0,NA,0,0,0,69,57,29.88,1,-1,5,NA,80,58,93,42,59,54,29.91,29.84,7,0,10,0,20,0,4,0,"",0,0,0,NA,NA,0,0,9,153,225,NA,NA,717,772
2013-08-26 12:00:00,0,0,0,0,0,0,NA,0,0,0,76,55,29.86,1,275,10,NA,89,63,84,27,59,45,29.9,29.81,8,0,10,7,26,0,11,0,"",0,0,0,NA,NA,0,0,9,164,234,NA,NA,728,781
2013-08-27 12:00:00,0,0,0,0,0,0,NA,0,0,0,77,58,29.8,1,273,10,NA,87,67,73,37,61,52,29.83,29.76,8,0,10,10,26,0,12,0,"",0,0,0,NA,NA,0,0,9,176,243,NA,NA,740,790
2013-08-28 12:00:00,0,0,0,0,0,0,NA,0,0,0,77,57,29.82,1,257,10,NA,89,65,87,29,62,48,29.88,29.77,10,0,10,10,26,0,12,0,"",0,0,0,NA,NA,0,0,9,188,252,NA,NA,752,799
2013-08-29 12:00:00,0,0,0,0,0,0,NA,0,0,0,82,58,29.88,1,270,10,NA,96,67,81,29,61,52,29.91,29.86,9,0,10,10,30,0,17,0,"",0,0,0,NA,NA,0,0,9,205,261,NA,NA,769,808
2013-08-30 12:00:00,0,0,0,0,0,0,NA,0,0,0,84,63,29.91,1,240,10,NA,95,73,68,38,67,60,29.95,29.88,8,0,10,10,33,0,19,0,"",0,0,0,NA,NA,0,0,9,224,270,NA,NA,788,817
2013-08-31 12:00:00,0,0,0,0,0,0,NA,0,0,0,82,64,29.92,2,265,10,NA,89,74,73,48,68,61,29.95,29.87,10,0,10,10,32,0,17,0,"",0,0,0,NA,NA,0,0,9,241,287,NA,NA,805,834
2013-09-01 12:00:00,0,0,0,0,0,0,NA,0,0,0,78,65,29.89,2,275,10,NA,86,70,84,55,67,63,29.92,29.84,9,0,10,10,28,0,13,0,"",0,0,0,0,0,0,0,9,13,9,13,9,818,843
2013-09-02 12:00:00,0,0,0,0,0,0,NA,0,0,0,77,65,29.87,1,250,9,NA,85,68,93,55,67,64,29.91,29.79,9,0,10,5,26,0,12,0,"",0,0,0,0,0,0,0,9,25,18,25,18,830,852
2013-09-03 12:00:00,0,0,0,0,0,0,NA,0,0,0,81,64,29.84,1,270,10,NA,92,70,84,44,67,62,29.88,29.8,9,0,10,10,30,0,16,0,"",0,0,0,0,0,0,0,9,41,27,41,27,846,861
2013-09-04 12:00:00,0,0,0,0,0,0,NA,0,0,0,82,62,29.85,1,270,10,NA,92,71,73,36,65,58,29.88,29.82,9,0,10,10,31,0,17,0,"",0,0,0,0,0,0,0,9,58,36,58,36,863,870
2013-09-05 12:00:00,0,0,0,0,0,0,NA,0,0,0,82,61,29.84,1,-1,10,NA,93,71,73,34,64,57,29.86,29.79,9,0,10,10,32,0,17,0,"",0,0,0,0,0,0,0,9,75,45,75,45,880,879
2013-09-06 12:00:00,0,0,0,0,0,0,NA,0,0,0,83,60,29.82,1,285,10,NA,95,70,78,28,63,54,29.85,29.77,9,0,10,6,32,0,18,0,"",0,0,0,0,0,0,0,9,93,54,93,54,898,888
2013-09-07 12:00:00,0,0,0,0,0,0,NA,0,0,0,82,60,29.82,1,273,10,NA,95,69,78,31,64,54,29.84,29.79,8,0,10,9,32,0,17,0,"",0,0,0,0,0,0,0,9,110,63,110,63,915,897
2013-09-08 12:00:00,0,0,0,0,0,0,NA,0,0,0,74,60,29.8,1,275,10,NA,84,64,87,47,62,57,29.84,29.75,8,0,10,7,23,0,9,0,"",0,0,0,0,0,0,0,9,119,72,119,72,924,906
2013-09-09 12:00:00,0,0,0,0,0,0,NA,0,0,0,69,59,29.78,1,275,9,NA,77,61,93,57,61,57,29.81,29.75,9,0,10,5,18,0,4,0,"",0,0,0,0,0,0,0,9,123,81,123,81,928,915
2013-09-10 12:00:00,0,0,0,0,0,0,NA,0,0,0,69,58,29.87,2,270,8,NA,77,61,90,54,59,57,29.94,29.81,10,0,10,5,18,0,4,0,"",0,0,0,0,0,0,0,9,127,90,127,90,932,924
2013-09-11 12:00:00,0,0,0,0,0,0,NA,0,0,0,69,58,29.96,1,270,10,NA,77,61,90,54,60,57,30,29.92,8,0,10,7,18,0,4,0,"",0,0,0,0,0,0,0,9,131,99,131,99,936,933
2013-09-12 12:00:00,0,0,0,0,0,0,NA,0,0,0,71,59,29.88,1,285,9,NA,80,61,90,45,62,58,29.93,29.82,9,0,10,6,20,0,6,0,"",0,0,0,0,0,0,0,9,137,108,137,108,942,942
2013-09-13 12:00:00,0,0,0,0,0,0,NA,0,0,0,72,59,29.74,1,282,10,NA,82,62,90,45,62,57,29.82,29.66,8,0,10,8,22,0,7,0,"",0,0,0,0,0,0,0,9,144,117,144,117,949,951
2013-09-14 12:00:00,0,0,0,0,0,0,NA,0,0,0,74,60,29.67,1,-1,10,NA,84,64,87,48,63,57,29.71,29.63,8,0,10,10,23,0,9,0,"",0,0,0,0,0,0,0,8,153,125,153,125,958,959
2013-09-15 12:00:00,0,0,0,0,0,0,NA,0,0,0,77,60,29.72,1,270,10,NA,89,64,84,43,63,57,29.76,29.69,10,0,10,8,26,0,12,0,"",0,0,0,0,0,0,0,8,165,133,165,133,970,967
2013-09-16 12:00:00,0,0,0,0,0,0,NA,0,0,0,76,59,29.77,1,270,10,NA,87,64,84,40,61,56,29.81,29.73,8,0,10,10,25,0,11,0,"",0,0,0,0,0,0,0,8,176,141,176,141,981,975
2013-09-17 12:00:00,1,0,0,0,0,0,NA,0,0,0,70,60,29.79,1,270,5,NA,80,60,93,54,62,57,29.83,29.73,8,0,10,0,19,0,5,0,"",0,0,0,0,0,0,0,8,181,149,181,149,986,983
2013-09-18 12:00:00,0,0,0,0,0,0,NA,0,0,0,71,58,29.77,1,280,9,NA,79,63,90,50,60,57,29.81,29.74,8,0,10,5,20,0,6,0,"",0,0,0,0,0,0,0,8,187,157,187,157,992,991
2013-09-19 12:00:00,0,0,0,0,0,0,NA,0,0,0,70,60,29.79,1,275,7,NA,79,61,90,54,61,57,29.83,29.76,8,0,10,3,20,0,5,0,"",0,0,0,0,0,0,0,8,192,165,192,165,997,999
2013-09-20 12:00:00,0,0,0,0,0,0,NA,0,0,0,69,60,29.85,0,-1,8,NA,72,66,81,68,61,57,29.88,29.81,6,0,10,5,18,0,4,0,"",0,0,0,0,0,0,0,8,196,173,196,173,1001,1007
2013-09-21 12:00:00,0,0,0,0,0,0,NA,0,0,0,70,57,29.85,2,267,10,NA,76,63,78,53,61,55,29.91,29.8,9,0,10,9,18,0,5,0,"",0,0,0,0,0,0,0,8,201,181,201,181,1006,1015
2013-09-22 12:00:00,0,0,0,0,0,0,NA,0,0,0,68,54,29.81,1,267,10,NA,76,60,84,38,58,47,29.84,29.78,9,0,10,10,18,0,3,0,"",0,0,0,0,0,0,0,7,204,188,204,188,1009,1022
2013-09-23 12:00:00,0,0,0,0,0,0,NA,0,0,0,76,48,29.83,1,270,10,NA,91,60,72,17,54,40,29.88,29.8,8,0,10,10,26,0,11,0,"",0,0,0,0,0,0,0,7,215,195,215,195,1020,1029
2013-09-24 12:00:00,0,0,0,0,0,0,NA,0,0,0,74,51,29.87,2,327,10,NA,85,63,72,24,59,43,29.91,29.83,9,0,10,8,22,0,9,0,"",0,0,0,0,0,0,0,7,224,202,224,202,1029,1036
2013-09-25 12:00:00,0,0,0,0,0,0,NA,0,0,0,70,58,29.78,2,137,10,NA,77,62,81,54,63,51,29.84,29.7,9,0,10,8,20,0,5,0,"",0,0,0,0,0,0,0,7,229,209,229,209,1034,1043
2013-09-26 12:00:00,0,0,0,0,0,0,NA,0,0,0,70,46,29.77,3,270,10,NA,77,62,72,21,54,29,29.87,29.72,15,0,10,10,19,0,5,0,"",0,0,0,0,0,0,0,7,234,216,234,216,1039,1050
2013-09-27 12:00:00,0,0,0,0,0,0,NA,0,0,0,70,42,29.93,2,240,10,NA,83,57,64,19,48,32,29.97,29.87,10,0,10,10,20,0,5,0,"",0,0,0,0,0,0,0,7,239,223,239,223,1044,1057
2013-09-28 12:00:00,0,0,0,0,0,0,NA,0,0,0,75,35,29.98,2,308,10,NA,89,60,56,9,48,22,30.02,29.95,10,0,10,10,24,0,10,0,"",0,0,0,0,0,0,0,7,249,230,249,230,1054,1064
2013-09-29 12:00:00,0,0,0,0,0,0,NA,0,0,0,72,44,30.01,0,-1,10,NA,87,57,78,15,57,32,30.05,29.96,8,0,10,10,22,0,7,0,"",0,0,0,0,0,0,0,6,256,236,256,236,1061,1070
2013-09-30 12:00:00,0,0,0,0,0,0,NA,0,0,0,71,53,29.91,0,290,10,NA,83,59,87,28,59,47,29.98,29.85,8,0,10,10,20,0,6,0,"",0,0,0,0,2,0,2,6,262,244,262,244,1067,1078
2013-10-01 12:00:00,0,0,0,0,0,0,NA,0,0,0,71,58,29.89,1,-1,10,NA,82,60,90,39,61,51,29.92,29.86,8,0,10,8,22,0,6,0,"",0,0,0,0,2,0,2,6,6,6,268,250,1073,1084
2013-10-02 12:00:00,0,0,0,0,0,0,NA,0,0,0,70,57,29.92,1,190,10,NA,76,63,84,50,59,55,29.97,29.87,8,0,10,9,18,0,5,0,"",0,0,0,0,2,0,2,6,11,12,273,256,1078,1090
2013-10-03 12:00:00,0,0,0,0,0,0,NA,0,0,0,68,57,29.88,1,278,10,NA,74,62,84,57,59,55,29.92,29.82,8,0,10,7,18,0,3,0,"",0,0,0,0,2,0,2,6,14,18,276,262,1081,1096
2013-10-04 12:00:00,0,0,0,0,0,0,NA,0,0,0,75,55,29.93,1,245,9,NA,87,62,84,20,59,39,30.03,29.88,8,0,10,6,24,0,10,0,"",0,0,0,0,2,0,2,6,24,24,286,268,1091,1102
2013-10-05 12:00:00,0,0,0,0,0,0,NA,0,0,0,74,35,30.05,1,-1,10,NA,91,57,73,6,55,14,30.1,30.02,9,0,10,10,24,0,9,0,"",0,0,0,0,2,0,2,6,33,30,295,274,1100,1108
2013-10-06 12:00:00,0,0,0,0,0,0,NA,0,0,0,76,30,30.01,1,270,10,NA,93,59,53,5,51,13,30.07,29.94,10,0,10,10,26,0,11,0,"",0,0,0,0,2,0,2,5,44,35,306,279,1111,1113
2013-10-07 12:00:00,0,0,0,0,0,0,NA,0,0,0,73,47,29.92,1,-1,10,NA,85,60,84,16,59,33,29.96,29.89,8,0,10,10,22,0,8,0,"",0,0,0,0,2,0,2,5,52,40,314,284,1119,1118
2013-10-08 12:00:00,0,0,0,0,0,0,NA,0,0,0,67,55,29.87,2,251,9,NA,75,59,90,49,57,52,29.93,29.81,10,0,10,4,16,0,2,0,"",0,0,0,0,2,0,2,5,54,45,316,289,1121,1123
2013-10-09 12:00:00,0,1,0,0,0,0,NA,0,0,0,60,50,29.76,2,262,9,NA,64,55,72,48,54,43,29.81,29.71,12,0,10,2,10,5,0,0.04,"",0,5,0,5,2,5,2,5,54,50,316,294,1121,1128
2013-10-10 12:00:00,0,0,0,0,0,0,NA,0,0,0,62,47,29.94,1,280,10,NA,70,53,77,42,50,44,30.01,29.81,8,0,10,10,10,3,0,0,"",0,8,0,8,2,8,2,5,54,55,316,299,1121,1133
2013-10-11 12:00:00,0,0,0,0,0,0,NA,0,0,0,64,50,29.99,1,30,10,NA,74,53,84,41,56,47,30.04,29.94,8,0,10,9,14,1,0,0,"",0,9,0,9,2,9,2,5,54,60,316,304,1121,1138
2013-10-12 12:00:00,0,0,0,0,0,0,NA,0,0,0,66,54,29.93,1,270,9,NA,76,56,93,47,57,49,29.96,29.89,10,0,10,7,14,0,1,0,"",0,9,0,9,2,9,2,5,55,65,317,309,1122,1143
2013-10-13 12:00:00,0,0,0,0,0,0,NA,0,0,0,66,53,29.96,1,100,10,NA,72,60,84,51,55,50,30.01,29.93,9,0,10,8,16,0,1,0,"",0,9,0,9,2,9,2,4,56,69,318,313,1123,1147
2013-10-14 12:00:00,0,0,0,0,0,0,NA,0,0,0,69,52,29.96,1,290,10,NA,82,56,86,33,57,48,30.02,29.89,7,0,10,8,18,0,4,0,"",0,9,0,9,2,9,2,4,60,73,322,317,1127,1151
2013-10-15 12:00:00,0,0,0,0,0,0,NA,0,0,0,72,37,29.91,1,356,10,NA,87,57,57,12,45,28,29.96,29.85,9,0,10,10,22,0,7,0,"",0,9,0,9,2,9,2,4,67,77,329,321,1134,1155
2013-10-16 12:00:00,0,0,0,0,0,0,NA,0,0,0,72,32,30,1,280,10,NA,86,58,46,11,41,25,30.05,29.96,9,0,10,10,22,0,7,0,"",0,9,0,9,2,9,2,4,74,81,336,325,1141,1159
2013-10-17 12:00:00,0,0,0,0,0,0,NA,0,0,0,71,38,29.97,1,190,10,NA,84,57,78,14,56,28,30.02,29.92,9,0,10,10,20,0,6,0,"",0,9,0,9,2,9,2,4,80,85,342,329,1147,1163
2013-10-18 12:00:00,0,0,0,0,0,0,NA,0,0,0,70,49,29.96,1,277,10,NA,83,57,84,23,58,37,30,29.92,8,0,10,7,19,0,5,0,"",1,9,1,9,3,9,3,4,85,89,347,333,1152,1167
2013-10-19 12:00:00,0,0,0,0,0,0,NA,0,0,0,70,52,29.97,1,273,10,NA,84,56,84,23,59,41,30,29.94,9,0,10,7,18,0,5,0,"",1,9,2,9,4,9,4,4,90,93,352,337,1157,1171
2013-10-20 12:00:00,1,0,0,0,0,0,NA,0,0,0,67,55,29.95,1,213,5,NA,76,57,93,46,57,53,29.99,29.89,8,0,10,0,16,0,2,0,"",1,9,3,9,5,9,5,4,92,97,354,341,1159,1175
2013-10-21 12:00:00,0,0,0,0,0,0,NA,0,0,0,66,55,29.95,1,275,4,NA,75,56,93,49,56,53,29.98,29.9,8,0,10,2,14,0,1,0,"",1,9,4,9,6,9,6,4,93,101,355,345,1160,1179
2013-10-22 12:00:00,0,0,0,0,0,0,NA,0,0,0,64,54,29.96,1,268,7,NA,72,55,93,57,57,52,30,29.9,8,0,10,3,13,1,0,0,"",1,10,5,10,7,10,7,3,93,104,355,348,1160,1182
2013-10-23 12:00:00,0,0,0,0,0,0,NA,0,0,0,64,55,29.93,1,270,7,NA,69,59,87,61,56,53,29.97,29.9,8,0,10,4,14,1,0,0,"",1,11,6,11,8,11,8,3,93,107,355,351,1160,1185
2013-10-24 12:00:00,0,0,0,0,0,0,NA,0,0,0,64,54,29.99,1,270,7,NA,70,58,84,59,55,53,30.04,29.95,8,0,10,3,14,1,0,0,"",1,12,7,12,9,12,9,3,93,110,355,354,1160,1188
2013-10-25 12:00:00,0,0,0,0,0,0,NA,0,0,0,64,55,30.06,1,265,5,NA,71,57,90,61,57,53,30.12,30,9,0,8,2,14,1,0,0,"",1,13,8,13,10,13,10,3,93,113,355,357,1160,1191
2013-10-26 12:00:00,1,0,0,0,0,0,NA,0,0,0,67,56,30.04,0,260,3,NA,76,58,100,50,58,55,30.09,29.96,7,0,8,0,16,0,2,0,"",1,13,9,13,11,13,11,3,95,116,357,360,1162,1194
2013-10-27 12:00:00,1,0,0,0,0,0,NA,0,0,0,65,56,29.89,1,140,4,NA,73,57,100,61,58,53,29.96,29.82,7,0,10,0,14,0,0,0,"",1,13,10,13,12,13,12,3,95,119,357,363,1162,1197
2013-10-28 12:00:00,0,1,0,0,0,0,NA,0,0,0,62,49,29.85,3,249,10,NA,67,56,87,48,55,46,29.93,29.81,9,0,10,8,12,3,0,0.02,"",1,16,11,16,13,16,13,3,95,122,357,366,1162,1200
2013-10-29 12:00:00,0,0,0,0,0,0,NA,0,0,0,61,48,29.96,1,270,10,NA,68,53,83,45,50,45,30,29.93,10,0,10,10,10,4,0,0,"",1,20,12,20,14,20,14,3,95,125,357,369,1162,1203
2013-10-30 12:00:00,0,0,0,0,0,0,NA,0,0,0,61,48,30.02,1,280,10,NA,71,51,83,40,53,44,30.06,29.99,8,0,10,10,11,4,0,0,"",1,24,13,24,15,24,15,3,95,128,357,372,1162,1206
2013-10-31 12:00:00,0,0,0,0,0,0,NA,0,0,0,67,43,30.03,1,326,10,NA,80,53,77,21,50,35,30.08,29.98,8,0,10,10,16,0,2,0,"",1,24,14,24,20,24,20,3,97,129,359,373,1164,1207
2013-11-01 12:00:00,0,0,0,0,0,0,NA,0,0,0,70,38,30.01,1,280,10,NA,86,54,72,13,47,28,30.09,29.93,7,0,10,9,19,0,5,0,"",2,0,2,24,22,24,22,2,5,2,364,375,1169,1209
2013-11-02 12:00:00,0,0,0,0,0,0,NA,0,0,0,70,45,29.92,1,231,9,NA,84,56,90,14,59,29,29.98,29.87,8,0,10,4,20,0,5,0,"",2,0,4,24,24,24,24,2,10,4,369,377,1174,1211
2013-11-03 12:00:00,0,0,0,0,0,0,NA,0,0,0,66,53,29.87,1,110,10,NA,71,60,84,53,56,51,29.92,29.82,9,0,10,9,16,0,1,0,"",2,0,6,24,26,24,26,2,11,6,370,379,1175,1213
2013-11-04 12:00:00,0,1,0,0,0,0,NA,0,0,0,63,52,29.85,1,137,10,NA,69,57,87,53,55,50,29.94,29.8,6,0,10,8,12,2,0,NA,"",2,2,8,26,28,26,28,2,11,8,370,381,1175,1215
2013-11-05 12:00:00,0,0,0,0,0,0,NA,0,0,0,65,43,30.05,0,-1,9,NA,77,52,93,19,53,29,30.14,29.95,7,0,10,5,14,0,0,0,"",2,2,10,26,30,26,30,2,11,10,370,383,1175,1217
2013-11-06 12:00:00,0,0,0,0,0,0,NA,0,0,0,66,30,30.14,1,292,10,NA,82,50,63,10,45,19,30.19,30.09,6,0,10,10,16,0,1,0,"",2,2,12,26,32,26,32,2,12,12,371,385,1176,1219
2013-11-07 12:00:00,0,0,0,0,0,0,NA,0,0,0,72,29,30.04,1,8,10,NA,86,58,56,7,46,14,30.11,29.99,6,0,10,10,20,0,7,0,"",2,2,14,26,34,26,34,2,19,14,378,387,1183,1221
2013-11-08 12:00:00,1,0,0,0,0,0,NA,0,0,0,66,47,29.98,0,140,8,NA,79,53,100,28,57,31,30.03,29.92,5,0,10,0,16,0,1,0,"",2,2,16,26,36,26,36,2,20,16,379,389,1184,1223
2013-11-09 12:00:00,0,0,0,0,0,0,NA,0,0,0,66,53,30.02,1,15,5,NA,77,54,100,26,57,37,30.07,29.99,7,0,10,1,16,0,1,0,"",3,2,19,26,39,26,39,2,21,18,380,391,1185,1225
2013-11-10 12:00:00,0,0,0,0,0,0,NA,0,0,0,68,46,30.06,1,273,9,NA,83,52,86,15,56,30,30.11,30.03,10,0,10,6,18,0,3,0,"",3,2,22,26,42,26,42,2,24,20,383,393,1188,1227
2013-11-11 12:00:00,0,0,0,0,0,0,NA,0,0,0,65,47,30.07,1,276,10,NA,77,52,84,27,56,35,30.12,30.02,8,0,10,7,14,0,0,0,"",3,2,25,26,45,26,45,1,24,21,383,394,1188,1228
2013-11-12 12:00:00,0,0,0,0,0,0,NA,0,0,0,66,48,30.09,0,30,10,NA,76,56,84,33,53,43,30.15,30.05,6,0,10,7,15,0,1,0,"",3,2,28,26,48,26,48,1,25,22,384,395,1189,1229
2013-11-13 12:00:00,0,0,0,0,0,0,NA,0,0,0,75,37,29.95,1,330,10,NA,92,58,62,13,52,32,30.04,29.87,6,0,10,9,24,0,10,0,"",3,2,31,26,51,26,51,1,35,23,394,396,1199,1230
2013-11-14 12:00:00,0,0,0,0,0,0,NA,0,0,0,75,39,29.84,1,100,10,NA,91,59,73,9,57,25,29.91,29.75,8,0,10,10,25,0,10,0,"",3,2,34,26,54,26,54,1,45,24,404,397,1209,1231
2013-11-15 12:00:00,0,1,0,0,0,0,NA,0,0,0,65,55,29.72,2,121,8,NA,69,60,90,59,59,53,29.77,29.67,8,0,10,3,14,0,0,NA,"",4,2,38,26,58,26,58,1,45,25,404,398,1209,1232
2013-11-16 12:00:00,0,0,0,0,0,0,NA,0,0,0,63,50,29.84,1,110,8,NA,69,57,86,45,54,44,29.94,29.75,7,0,10,2,12,2,0,0,"",4,4,42,28,62,28,62,1,45,26,404,399,1209,1233
2013-11-17 12:00:00,0,0,0,0,0,0,NA,0,0,0,62,51,30.01,1,182,10,NA,69,54,86,52,53,48,30.09,29.94,9,0,10,9,11,3,0,0,"",4,7,46,31,66,31,66,1,45,27,404,400,1209,1234
2013-11-18 12:00:00,0,0,0,0,0,0,NA,0,0,0,61,52,30.1,1,278,8,NA,68,53,89,58,54,48,30.15,30.05,7,0,10,6,10,4,0,0,"",4,11,50,35,70,35,70,1,45,28,404,401,1209,1235
2013-11-19 12:00:00,0,0,0,0,0,0,NA,0,0,0,62,51,30.01,1,277,10,NA,67,57,80,56,53,50,30.07,29.96,7,0,10,10,12,3,0,0,"",4,14,54,38,74,38,74,1,45,29,404,402,1209,1236
2013-11-20 12:00:00,0,1,0,0,0,0,NA,0,0,0,62,54,29.92,1,100,8,NA,65,58,87,63,57,51,29.97,29.88,7,0,10,2,10,3,0,0.05,"",4,17,58,41,78,41,78,1,45,30,404,403,1209,1237
2013-11-21 12:00:00,0,1,0,0,0,0,NA,0,0,0,61,55,29.85,2,97,5,NA,65,57,93,67,58,51,29.88,29.82,8,0,10,1,10,4,0,0.29,"",5,21,63,45,83,45,83,1,45,31,404,404,1209,1238
2013-11-22 12:00:00,0,1,0,0,0,0,NA,0,0,0,60,45,29.88,1,75,10,NA,67,53,86,40,52,39,29.95,29.83,6,0,10,7,9,5,0,0.05,"",5,26,68,50,88,50,88,1,45,32,404,405,1209,1239
2013-11-23 12:00:00,0,0,0,0,0,0,NA,0,0,0,59,42,30.01,1,345,10,NA,67,50,83,37,48,37,30.09,29.95,8,0,10,10,8,6,0,0,"",5,32,73,56,93,56,93,0,45,32,404,405,1209,1239
2013-11-24 12:00:00,0,0,0,0,0,0,NA,0,0,0,58,42,30.14,1,220,10,NA,68,48,77,37,46,38,30.19,30.09,9,0,10,10,7,7,0,0,"",5,39,78,63,98,63,98,0,45,32,404,405,1209,1239
2013-11-25 12:00:00,0,0,0,0,0,0,NA,0,0,0,60,44,30.19,1,-1,10,NA,72,48,83,33,51,40,30.23,30.15,6,0,10,7,9,5,0,0,"",5,44,83,68,103,68,103,0,45,32,404,405,1209,1239
2013-11-26 12:00:00,0,0,0,0,0,0,NA,0,0,0,64,41,30.11,1,25,10,NA,76,51,77,21,47,32,30.18,30.03,7,0,10,10,13,1,0,0,"",5,45,88,69,108,69,108,0,45,32,404,405,1209,1239
2013-11-27 12:00:00,0,0,0,0,0,0,NA,0,0,0,65,38,29.94,2,22,10,NA,75,54,57,21,44,33,30.02,29.87,9,0,10,10,15,0,0,0,"",6,45,94,69,114,69,114,0,45,32,404,405,1209,1239
2013-11-28 12:00:00,0,0,0,0,0,0,NA,0,0,0,61,43,29.96,1,95,10,NA,70,51,77,37,50,35,30.05,29.88,7,0,10,9,10,4,0,0,"",6,49,100,73,120,73,120,0,45,32,404,405,1209,1239
2013-11-29 12:00:00,0,1,0,0,0,0,NA,0,0,0,59,52,30.13,0,110,8,NA,63,55,93,67,55,49,30.18,30.05,8,0,10,2,9,6,0,0.23,"",6,55,106,79,126,79,126,0,45,32,404,405,1209,1239
2013-11-30 12:00:00,0,0,0,0,0,0,NA,0,0,0,63,48,30.13,1,280,10,NA,74,51,93,38,51,44,30.18,30.07,7,0,10,10,12,2,0,0,"",6,57,112,81,131,81,131,0,45,33,404,406,1209,1240
2013-12-01 12:00:00,0,0,0,0,0,0,NA,0,0,0,66,38,30.14,1,340,10,NA,80,52,72,18,46,33,30.21,30.09,6,0,10,10,16,0,1,0,"",6,0,6,NA,NA,81,137,0,1,0,NA,NA,1210,1240
2013-12-02 12:00:00,0,0,0,0,0,0,NA,0,0,0,63,37,30,1,1,10,NA,74,52,66,20,45,29,30.09,29.91,7,0,10,10,12,2,0,0,"",6,2,12,NA,NA,83,143,0,1,0,NA,NA,1210,1240
2013-12-03 12:00:00,0,0,0,0,0,0,NA,0,0,0,58,49,29.81,2,215,9,NA,66,50,89,60,52,39,29.9,29.75,8,0,10,5,7,7,0,0,"",7,9,19,NA,NA,90,150,0,1,0,NA,NA,1210,1240
2013-12-04 12:00:00,0,0,0,0,0,0,NA,0,0,0,56,30,29.89,2,270,10,NA,63,48,71,28,42,20,29.96,29.78,9,0,10,10,6,9,0,0,"",7,18,26,NA,NA,99,157,0,1,0,NA,NA,1210,1240
2013-12-05 12:00:00,0,0,0,0,0,0,NA,0,0,0,53,34,30.01,1,110,10,NA,61,44,65,35,37,30,30.11,29.95,9,0,10,10,2,12,0,0,"",7,30,33,NA,NA,111,164,0,1,0,NA,NA,1210,1240
2013-12-06 12:00:00,0,0,0,0,0,0,NA,0,0,0,51,37,30.12,1,95,10,NA,60,42,76,47,41,34,30.18,30.09,7,0,10,10,0,14,0,0,"",7,44,40,NA,NA,125,171,0,1,0,NA,NA,1210,1240
2013-12-07 12:00:00,0,1,0,0,0,0,NA,0,0,0,52,40,30.06,1,99,8,NA,59,44,86,39,47,25,30.11,29.98,9,0,10,2,1,13,0,0.09,"",7,57,47,NA,NA,138,178,0,1,0,NA,NA,1210,1240
2013-12-08 12:00:00,0,0,0,0,0,0,NA,0,0,0,49,31,30.14,1,110,10,NA,57,40,66,38,37,26,30.21,30.1,7,0,10,10,0,16,0,0,"",7,73,54,NA,NA,154,185,0,1,0,NA,NA,1210,1240
2013-12-09 12:00:00,0,0,0,0,0,0,NA,0,0,0,51,22,30.25,1,40,10,NA,62,39,54,15,31,12,30.29,30.2,8,0,10,10,0,14,0,0,"",7,87,61,NA,NA,168,192,0,1,0,NA,NA,1210,1240
2013-12-10 12:00:00,0,0,0,0,0,0,NA,0,0,0,53,13,30.17,1,6,10,NA,66,39,39,11,32,7,30.27,30.09,6,0,10,6,2,12,0,0,"",8,99,69,NA,NA,180,200,0,1,0,NA,NA,1210,1240
2013-12-11 12:00:00,0,0,0,0,0,0,NA,0,0,0,58,17,30.13,2,31,10,NA,73,43,47,9,37,10,30.17,30.09,7,0,10,10,9,7,0,0,"",8,106,77,NA,NA,187,208,0,1,0,NA,NA,1210,1240
2013-12-12 12:00:00,0,0,0,0,0,0,NA,0,0,0,58,40,30.17,0,95,8,NA,69,47,89,22,51,17,30.2,30.12,7,0,10,4,8,7,0,0,"",8,113,85,NA,NA,194,216,0,1,0,NA,NA,1210,1240
2013-12-13 12:00:00,0,0,0,0,0,0,NA,0,0,0,55,44,30.18,1,270,6,NA,65,44,89,40,48,39,30.22,30.12,7,0,9,4,4,10,0,0,"",8,123,93,NA,NA,204,224,0,1,0,NA,NA,1210,1240
2013-12-14 12:00:00,0,0,0,0,0,0,NA,0,0,0,59,35,30.23,0,270,8,NA,74,43,89,19,43,28,30.28,30.18,6,0,10,4,8,6,0,0,"",8,129,101,NA,NA,210,232,0,1,0,NA,NA,1210,1240
2013-12-15 12:00:00,0,0,0,0,0,0,NA,0,0,0,62,27,30.15,0,-1,10,NA,80,44,58,12,34,20,30.23,30.07,5,0,10,9,12,3,0,0,"",8,132,109,NA,NA,213,240,0,1,0,NA,NA,1210,1240
2013-12-16 12:00:00,0,0,0,0,0,0,NA,0,0,0,73,30,30.08,2,42,10,NA,85,60,52,11,44,22,30.12,30.03,9,0,10,10,22,0,8,0,"",8,132,117,NA,NA,213,248,0,9,0,NA,NA,1218,1240
2013-12-17 12:00:00,0,0,0,0,0,0,NA,0,0,0,70,38,30.04,1,349,10,NA,82,58,60,19,51,25,30.1,29.99,7,0,10,10,18,0,5,0,"",8,132,125,NA,NA,213,256,0,14,0,NA,NA,1223,1240
2013-12-18 12:00:00,0,0,0,0,0,0,NA,0,0,0,64,51,29.91,1,315,9,NA,71,57,86,40,55,44,29.98,29.86,8,0,10,6,14,1,0,0,"",8,133,133,NA,NA,214,264,0,14,0,NA,NA,1223,1240
2013-12-19 12:00:00,0,1,0,0,0,0,NA,0,0,0,52,47,29.78,2,130,9,NA,57,47,93,61,51,42,29.84,29.71,10,0,10,1,2,13,0,0.11,"",8,146,141,NA,NA,227,272,0,14,0,NA,NA,1223,1240
2013-12-20 12:00:00,0,0,0,0,0,0,NA,0,0,0,55,43,29.85,1,100,10,NA,65,44,92,44,47,41,29.94,29.77,7,0,10,6,4,10,0,0,"",8,156,149,NA,NA,237,280,0,14,0,NA,NA,1223,1240
2013-12-21 12:00:00,0,0,0,0,0,0,NA,0,0,0,54,45,29.98,0,90,9,NA,61,46,89,55,49,41,30.09,29.92,7,0,10,6,4,11,0,0,"",8,167,157,NA,NA,248,288,0,14,0,NA,NA,1223,1240
2013-12-22 12:00:00,0,0,0,0,0,0,NA,0,0,0,57,47,30.19,1,195,4,NA,69,45,93,40,52,43,30.26,30.09,7,0,6,2,8,8,0,0,"",8,175,165,NA,NA,256,296,0,14,0,NA,NA,1223,1240
2013-12-23 12:00:00,0,0,0,0,0,0,NA,0,0,0,62,40,30.24,1,280,9,NA,75,48,93,23,47,34,30.3,30.18,6,0,10,2,12,3,0,0,"",8,178,173,NA,NA,259,304,0,14,0,NA,NA,1223,1240
2013-12-24 12:00:00,0,0,0,0,0,0,NA,0,0,0,65,37,30.14,0,15,10,NA,79,51,62,19,44,32,30.19,30.07,6,0,10,6,15,0,0,0,"",8,178,181,NA,NA,259,312,0,14,0,NA,NA,1223,1240
2013-12-25 12:00:00,0,0,0,0,0,0,NA,0,0,0,65,32,30.14,0,100,10,NA,82,47,71,12,39,21,30.19,30.09,6,0,10,9,14,0,0,0,"",8,178,189,NA,NA,259,320,0,14,0,NA,NA,1223,1240
2013-12-26 12:00:00,0,0,0,0,0,0,NA,0,0,0,63,23,30.12,0,50,10,NA,80,46,50,7,30,11,30.16,30.06,6,0,10,10,12,2,0,0,"",8,180,197,NA,NA,261,328,0,14,0,NA,NA,1223,1240
2013-12-27 12:00:00,0,0,0,0,0,0,NA,0,0,0,67,21,30.09,1,347,10,NA,85,49,42,8,34,10,30.15,30.03,8,0,10,10,16,0,2,0,"",8,180,205,NA,NA,261,336,0,16,0,NA,NA,1225,1240
2013-12-28 12:00:00,0,0,0,0,0,0,NA,0,0,0,62,40,29.99,1,145,8,NA,73,51,93,16,54,23,30.02,29.92,6,0,10,2,12,3,0,0,"",8,183,213,NA,NA,264,344,0,16,0,NA,NA,1225,1240
2013-12-29 12:00:00,0,0,0,0,0,0,NA,0,0,0,60,36,30.05,0,270,8,NA,76,44,96,13,52,21,30.14,30,6,0,10,2,10,5,0,0,"",8,188,221,NA,NA,269,352,0,16,0,NA,NA,1225,1240
2013-12-30 12:00:00,0,0,0,0,0,0,NA,0,0,0,61,26,30.19,1,360,10,NA,75,47,77,9,44,13,30.25,30.14,7,0,10,10,10,4,0,0,"",8,192,229,NA,NA,273,360,0,16,0,NA,NA,1225,1240
2013-12-31 12:00:00,0,0,0,0,0,0,NA,0,0,0,58,37,30.13,1,178,8,NA,72,44,89,17,50,19,30.19,30.08,6,0,10,2,8,7,0,0,"",8,199,237,NA,NA,280,365,0,16,4,NA,NA,1225,1244
2014-01-01 12:00:00,0,0,0,0,0,0,NA,0,0,0,58,44,30.09,0,-1,3,NA,71,44,93,29,50,34,30.13,30.04,5,0,6,1,8,7,0,0,"",8,7,8,NA,NA,287,373,0,0,0,NA,NA,0,0
2014-01-02 12:00:00,0,0,0,0,0,0,NA,0,0,0,67,34,30.03,1,20,10,NA,81,52,77,13,46,25,30.09,29.98,6,0,10,9,18,0,2,0,"",8,7,16,NA,NA,287,381,0,2,0,NA,NA,2,0
2014-01-03 12:00:00,0,0,0,0,0,0,NA,0,0,0,60,46,29.97,0,280,6,NA,72,48,89,31,52,38,30.03,29.91,6,0,10,2,10,5,0,0,"",8,12,24,NA,NA,292,389,0,2,0,NA,NA,2,0
2014-01-04 12:00:00,1,0,0,0,0,0,NA,0,0,0,60,48,29.97,0,100,3,NA,69,50,100,32,52,37,30.03,29.93,6,0,6,0,9,5,0,0,"",8,17,32,NA,NA,297,397,0,2,0,NA,NA,2,0
2014-01-05 12:00:00,0,0,0,0,0,0,NA,0,0,0,61,33,30.09,0,15,8,NA,77,45,93,15,48,15,30.15,30.02,6,0,10,2,10,4,0,0,"",8,21,40,NA,NA,301,405,0,2,0,NA,NA,2,0
2014-01-06 12:00:00,0,0,0,0,0,0,NA,0,0,0,64,19,30.14,1,30,10,NA,78,49,37,8,33,13,30.21,30.09,7,0,10,10,14,1,0,0,"",8,22,48,NA,NA,302,413,0,2,0,NA,NA,2,0
2014-01-07 12:00:00,0,0,0,0,0,0,NA,0,0,0,59,30,30.08,0,20,10,NA,69,48,66,19,47,15,30.14,30.04,6,0,10,9,8,6,0,0,"",7,28,55,NA,NA,308,420,0,2,0,NA,NA,2,0
2014-01-08 12:00:00,0,0,0,0,0,0,NA,0,0,0,58,47,30.07,1,134,6,NA,68,47,86,42,54,35,30.12,30.01,8,0,10,2,6,7,0,0,"",7,35,62,NA,NA,315,427,0,2,0,NA,NA,2,0
2014-01-09 12:00:00,0,0,0,0,0,0,NA,0,0,0,57,50,30.05,0,50,4,NA,63,51,93,67,52,48,30.11,29.98,9,0,10,2,6,8,0,0,"",7,43,69,NA,NA,323,434,0,2,0,NA,NA,2,0
2014-01-10 12:00:00,0,0,0,0,0,0,NA,0,0,0,59,47,30.07,0,270,4,NA,70,47,93,42,51,44,30.13,30.03,5,0,10,2,8,6,0,0,"",7,49,76,NA,NA,329,441,0,2,0,NA,NA,2,0
2014-01-11 12:00:00,0,0,0,0,0,0,NA,0,0,0,61,49,30.09,1,265,6,NA,73,48,93,37,54,42,30.17,30.05,8,0,10,2,10,4,0,0,"",7,53,83,NA,NA,333,448,0,2,0,NA,NA,2,0
2014-01-12 12:00:00,1,0,0,0,0,0,NA,0,0,0,61,49,30.08,1,107,3,NA,71,50,100,31,54,38,30.16,30.04,7,0,9,0,10,4,0,0,"",7,57,90,NA,NA,337,455,0,2,0,NA,NA,2,0
2014-01-13 12:00:00,0,0,0,0,0,0,NA,0,0,0,63,28,30.24,0,-1,10,NA,80,46,76,8,39,14,30.31,30.17,5,0,10,8,12,2,0,0,"",7,59,97,NA,NA,339,462,0,2,0,NA,NA,2,0
2014-01-14 12:00:00,0,0,0,0,0,0,NA,0,0,0,65,26,30.24,0,-1,10,NA,82,48,46,9,33,18,30.3,30.18,0,0,10,10,14,0,0,0,"",7,59,104,NA,NA,339,469,0,2,0,NA,NA,2,0
2014-01-15 12:00:00,0,0,0,0,0,0,NA,0,0,0,67,29,30.16,0,-1,10,NA,85,48,56,10,36,18,30.22,30.1,0,0,10,9,15,0,2,0,"",7,59,111,NA,NA,339,476,0,4,0,NA,NA,4,0
2014-01-16 12:00:00,0,0,0,0,0,0,NA,0,0,0,67,27,30.08,0,-1,10,NA,85,49,46,8,34,17,30.14,30.02,0,0,10,8,17,0,2,0,"",7,59,118,NA,NA,339,483,0,6,0,NA,NA,6,0
2014-01-17 12:00:00,0,0,0,0,0,0,NA,0,0,0,69,22,30.06,1,4,10,NA,85,52,38,6,35,10,30.12,30.01,8,0,10,7,18,0,4,0,"",7,59,125,NA,NA,339,490,0,10,0,NA,NA,10,0
2014-01-18 12:00:00,0,0,0,0,0,0,NA,0,0,0,68,26,30.03,1,336,10,NA,84,52,59,7,41,12,30.09,29.97,7,0,10,7,17,0,3,0,"",7,59,132,NA,NA,339,497,0,13,0,NA,NA,13,0
2014-01-19 12:00:00,0,0,0,0,0,0,NA,0,0,0,64,32,30.07,0,290,9,NA,80,48,59,10,41,17,30.11,30.04,5,0,10,7,14,1,0,0,"",7,60,139,NA,NA,340,504,0,13,0,NA,NA,13,0
2014-01-20 12:00:00,0,0,0,0,0,0,NA,0,0,0,64,38,30.11,0,280,9,NA,81,47,72,17,47,24,30.17,30.05,6,0,10,6,14,1,0,0,"",7,61,146,NA,NA,341,511,0,13,0,NA,NA,13,0
2014-01-21 12:00:00,0,0,0,0,0,0,NA,0,0,0,66,32,30.09,0,20,10,NA,78,54,77,13,50,19,30.15,30.04,5,0,10,10,16,0,1,0,"",7,61,153,NA,NA,341,518,0,14,0,NA,NA,14,0
2014-01-22 12:00:00,0,0,0,0,0,0,NA,0,0,0,66,46,29.95,1,114,7,NA,77,54,93,20,54,23,30.04,29.88,7,0,10,2,15,0,1,0,"",7,61,160,NA,NA,341,525,0,15,0,NA,NA,15,0
2014-01-23 12:00:00,0,0,0,0,0,0,NA,0,0,0,62,48,29.95,0,65,4,NA,72,51,96,31,52,37,30.1,29.89,6,0,9,2,12,3,0,0,"",7,64,167,NA,NA,344,532,0,15,0,NA,NA,15,0
2014-01-24 12:00:00,0,0,0,0,0,0,NA,0,0,0,64,41,30.16,0,-1,9,NA,73,55,86,17,52,23,30.21,30.09,6,0,10,5,14,1,0,0,"",7,65,174,NA,NA,345,539,0,15,0,NA,NA,15,0
2014-01-25 12:00:00,0,0,0,0,0,0,NA,0,0,0,67,45,30.15,1,220,9,NA,77,56,86,21,53,32,30.2,30.1,8,0,10,7,17,0,2,0,"",7,65,181,NA,NA,345,546,0,17,0,NA,NA,17,0
2014-01-26 12:00:00,0,0,0,0,0,0,NA,0,0,0,61,48,30.08,1,273,8,NA,69,52,89,43,53,39,30.14,30.02,8,0,10,6,10,4,0,0,"",7,69,188,NA,NA,349,553,0,17,0,NA,NA,17,0
2014-01-27 12:00:00,0,0,0,0,0,0,NA,0,0,0,61,50,30.05,1,299,8,NA,69,52,89,52,53,48,30.09,30.01,8,0,10,5,10,4,0,NA,"",7,73,195,NA,NA,353,560,0,17,0,NA,NA,17,0
2014-01-28 12:00:00,0,0,0,0,0,0,NA,0,0,0,60,50,30.07,1,280,6,NA,70,49,93,47,54,45,30.13,30.03,6,0,9,4,8,5,0,0,"",7,78,202,NA,NA,358,567,0,17,0,NA,NA,17,0
2014-01-29 12:00:00,1,0,0,0,0,0,NA,0,0,0,61,53,30.02,0,280,2,NA,70,52,100,53,55,50,30.09,29.94,6,0,5,0,10,4,0,0,"",7,82,209,NA,NA,362,574,0,17,0,NA,NA,17,0
2014-01-30 12:00:00,0,1,0,0,0,0,NA,0,0,0,60,51,29.92,2,110,6,NA,63,57,86,65,54,48,29.97,29.88,6,0,10,2,10,5,0,NA,"",7,87,216,NA,NA,367,581,0,17,0,NA,NA,17,0
2014-01-31 12:00:00,0,0,0,0,0,0,NA,0,0,0,59,40,29.92,3,305,10,NA,65,53,86,23,52,22,29.97,29.88,12,0,10,10,9,6,0,0,"",7,93,223,NA,NA,373,591,0,17,9,NA,NA,17,9
2014-02-01 12:00:00,0,0,0,0,0,0,NA,0,0,0,58,22,30.01,1,313,10,NA,66,50,41,12,29,8,30.06,29.95,8,0,10,10,7,7,0,0,"",7,7,7,NA,NA,380,598,0,0,0,NA,NA,17,9
2014-02-02 12:00:00,0,1,0,0,0,0,NA,0,0,0,55,35,30.03,2,113,9,NA,63,47,80,24,46,16,30.1,29.96,10,0,10,2,4,10,0,0.14,"",7,17,14,NA,NA,390,605,0,0,0,NA,NA,17,9
2014-02-03 12:00:00,0,0,0,0,0,0,NA,0,0,0,55,41,29.93,1,295,10,NA,63,46,82,46,44,34,29.99,29.89,12,0,10,10,4,10,0,0,"",7,27,21,NA,NA,400,612,0,0,0,NA,NA,17,9
2014-02-04 12:00:00,0,0,0,0,0,0,NA,0,0,0,56,41,30.03,0,90,10,NA,63,48,77,49,45,35,30.08,29.98,7,0,10,10,4,9,0,0,"",7,36,28,NA,NA,409,619,0,0,0,NA,NA,17,9
2014-02-05 12:00:00,0,0,0,0,0,0,NA,0,0,0,56,43,30.06,2,180,10,NA,64,48,86,31,46,34,30.13,30.01,9,0,10,8,6,9,0,0,"",7,45,35,NA,NA,418,626,0,0,0,NA,NA,17,9
2014-02-06 12:00:00,0,1,0,0,0,0,NA,0,0,0,56,48,30.02,2,98,6,NA,60,52,89,62,52,44,30.08,29.99,8,0,10,2,6,9,0,0.09,"",7,54,42,NA,NA,427,633,0,0,0,NA,NA,17,9
2014-02-07 12:00:00,0,0,0,0,0,0,NA,0,0,0,57,49,30.13,1,267,7,NA,63,50,93,60,50,46,30.22,30.04,7,0,10,2,6,8,0,0,"",7,62,49,NA,NA,435,640,0,0,0,NA,NA,17,9
2014-02-08 12:00:00,0,0,0,0,0,0,NA,0,0,0,59,50,30.22,1,-1,10,NA,66,52,93,52,54,46,30.27,30.19,9,0,10,7,9,6,0,0,"",7,68,56,NA,NA,441,647,0,0,0,NA,NA,17,9
2014-02-09 12:00:00,0,0,0,0,0,0,NA,0,0,0,61,51,30.17,1,30,8,NA,67,54,93,56,52,48,30.23,30.09,9,0,10,4,8,4,0,0,"",7,72,63,NA,NA,445,654,0,0,0,NA,NA,17,9
2014-02-10 12:00:00,0,0,0,0,0,0,NA,0,0,0,63,51,30.09,2,102,8,NA,73,53,89,34,54,41,30.15,29.98,9,0,10,5,12,2,0,0,"",7,74,70,NA,NA,447,661,0,0,0,NA,NA,17,9
2014-02-11 12:00:00,1,0,0,0,0,0,NA,0,0,0,65,52,30.06,0,156,5,NA,75,54,100,41,54,46,30.09,30.01,8,0,10,0,12,0,0,0,"",7,74,77,NA,NA,447,668,0,0,0,NA,NA,17,9
2014-02-12 12:00:00,0,0,0,0,0,0,NA,0,0,0,66,42,30.08,1,277,10,NA,80,51,89,20,50,35,30.13,30.02,9,0,10,7,16,0,1,0,"",7,74,84,NA,NA,447,675,0,1,0,NA,NA,18,9
2014-02-13 12:00:00,0,0,0,0,0,0,NA,0,0,0,66,46,30.02,1,261,9,NA,80,52,83,26,50,37,30.06,29.97,8,0,10,5,16,0,1,0,"",7,74,91,NA,NA,447,682,0,2,0,NA,NA,19,9
2014-02-14 12:00:00,0,0,0,0,0,0,NA,0,0,0,65,47,30,0,-1,9,NA,79,50,83,29,52,41,30.05,29.95,6,0,10,6,14,0,0,0,"",7,74,98,NA,NA,447,689,1,2,1,NA,NA,19,10
2014-02-15 12:00:00,0,0,0,0,0,0,NA,0,0,0,65,48,29.98,1,290,8,NA,78,51,86,29,53,42,30.03,29.94,8,0,10,5,15,0,0,0,"",7,74,105,NA,NA,447,696,1,2,2,NA,NA,19,11
2014-02-16 12:00:00,0,0,0,0,0,0,NA,0,0,0,65,53,30.01,1,145,8,NA,75,54,93,46,55,51,30.07,29.97,6,0,10,5,14,0,0,0,"",7,74,112,NA,NA,447,703,1,2,3,NA,NA,19,12
2014-02-17 12:00:00,0,0,0,0,0,0,NA,0,0,0,61,51,30.04,1,0,9,NA,71,50,93,47,54,47,30.06,29.99,8,0,10,6,10,4,0,0,"",7,78,119,NA,NA,451,710,1,2,4,NA,NA,19,13
2014-02-18 12:00:00,0,0,0,0,0,0,NA,0,0,0,62,50,30.02,1,270,6,NA,68,56,86,53,52,48,30.07,29.96,9,0,10,4,12,3,0,0,"",7,81,126,NA,NA,454,717,1,2,5,NA,NA,19,14
2014-02-19 12:00:00,0,0,0,0,0,0,NA,0,0,0,60,51,29.96,2,175,7,NA,66,54,93,63,52,50,30.01,29.89,12,0,10,3,9,5,0,0,"",6,86,132,NA,NA,459,723,1,2,6,NA,NA,19,15
2014-02-20 12:00:00,0,0,0,0,0,0,NA,0,0,0,67,45,29.97,1,28,8,NA,82,51,89,16,52,31,30.02,29.94,8,0,10,3,16,0,2,0,"",6,86,138,NA,NA,459,729,1,4,7,NA,NA,21,16
2014-02-21 12:00:00,0,0,0,0,0,0,NA,0,0,0,67,39,29.93,1,78,10,NA,79,55,72,16,54,28,29.98,29.86,8,0,10,6,17,0,2,0,"",6,86,144,NA,NA,459,735,1,6,8,NA,NA,23,17
2014-02-22 12:00:00,0,0,0,0,0,0,NA,0,0,0,64,47,29.9,0,-1,7,NA,76,51,89,23,54,35,29.93,29.86,7,0,10,2,14,1,0,0,"",6,87,150,NA,NA,460,741,1,6,9,NA,NA,23,18
2014-02-23 12:00:00,1,0,0,0,0,0,NA,0,0,0,61,50,29.95,1,168,3,NA,73,49,93,31,54,40,30,29.89,7,0,10,0,11,4,0,0,"",6,91,156,NA,NA,464,747,1,6,10,NA,NA,23,19
2014-02-24 12:00:00,0,0,0,0,0,0,NA,0,0,0,63,51,29.98,1,279,5,NA,73,52,89,38,53,45,30.04,29.92,8,0,10,2,12,2,0,0,"",6,93,162,NA,NA,466,753,1,6,11,NA,NA,23,20
2014-02-25 12:00:00,0,0,0,0,0,0,NA,0,0,0,64,50,30.01,2,165,8,NA,71,56,80,44,53,47,30.05,29.96,10,0,10,4,12,1,0,0,"",6,94,168,NA,NA,467,759,1,6,12,NA,NA,23,21
2014-02-26 12:00:00,0,1,0,0,0,0,NA,0,0,0,62,50,30.04,2,191,10,NA,67,57,80,52,53,47,30.08,30,8,0,10,5,12,3,0,0.06,"",6,97,174,NA,NA,470,765,1,6,13,NA,NA,23,22
2014-02-27 12:00:00,0,1,0,0,0,0,NA,0,0,0,64,54,29.97,3,95,6,NA,71,56,93,40,56,45,30.02,29.86,10,0,10,2,12,1,0,1.05,"",6,98,180,NA,NA,471,771,1,6,14,NA,NA,23,23
2014-02-28 12:00:00,1,1,0,0,0,0,NA,0,0,0,59,55,29.71,5,124,6,NA,62,56,93,75,60,51,29.82,29.63,13,0,10,0,8,6,0,2.24,"",6,104,186,NA,NA,477,775,1,6,14,NA,NA,23,23
2014-03-01 12:00:00,0,1,0,0,0,0,NA,0,0,0,58,51,29.83,5,102,6,NA,61,54,93,77,54,48,29.97,29.76,12,0,10,1,7,7,0,1,"",6,7,6,NA,NA,484,781,1,0,1,NA,NA,23,24
2014-03-02 12:00:00,0,1,0,0,0,0,NA,0,0,0,58,51,30.1,2,107,9,NA,62,54,89,65,54,49,30.15,30,7,0,10,1,8,7,0,0.17,"",6,14,12,NA,NA,491,787,1,0,2,NA,NA,23,25
2014-03-03 12:00:00,0,0,0,0,0,0,NA,0,0,0,60,51,30.09,2,287,9,NA,68,51,96,52,53,49,30.14,30.02,9,0,10,4,10,5,0,0,"",6,19,18,NA,NA,496,793,1,0,3,NA,NA,23,26
2014-03-04 12:00:00,0,0,0,0,0,0,NA,0,0,0,62,53,30.02,2,86,7,NA,69,54,93,58,55,51,30.05,29.96,8,0,10,2,12,3,0,0,"",6,22,24,NA,NA,499,799,1,0,4,NA,NA,23,27
2014-03-05 12:00:00,0,0,0,0,0,0,NA,0,0,0,63,54,30.04,1,280,7,NA,72,54,93,53,56,51,30.08,30.01,9,0,10,3,12,2,0,0,"",5,24,29,NA,NA,501,804,1,0,5,NA,NA,23,28
2014-03-06 12:00:00,0,0,0,0,0,0,NA,0,0,0,65,55,30.02,3,133,8,NA,72,57,93,57,57,53,30.08,29.95,8,0,10,3,14,0,0,0,"",5,24,34,NA,NA,501,809,0,0,5,NA,NA,23,28
2014-03-07 12:00:00,0,0,0,0,0,0,NA,0,0,0,64,53,29.96,2,110,9,NA,71,56,93,37,56,43,30.01,29.9,10,0,10,6,13,1,0,0,"",5,25,39,NA,NA,502,814,0,0,5,NA,NA,23,28
2014-03-08 12:00:00,0,0,0,0,0,0,NA,0,0,0,66,41,30.05,1,276,10,NA,81,51,83,16,49,29,30.11,29.96,9,0,10,7,16,0,1,0,"",5,25,44,NA,NA,502,819,0,1,5,NA,NA,24,28
2014-03-09 12:00:00,0,0,0,0,0,0,NA,0,0,0,71,28,30.09,3,305,10,NA,84,58,56,8,44,16,30.15,30.04,13,0,10,10,22,0,6,0,"",5,25,49,NA,NA,502,824,1,7,6,NA,NA,30,29
2014-03-10 12:00:00,0,0,0,0,0,0,NA,0,0,0,68,38,30.02,1,315,9,NA,80,56,72,19,51,30,30.06,29.98,12,0,10,2,18,0,3,0,"",5,25,54,NA,NA,502,829,1,10,7,NA,NA,33,30
2014-03-11 12:00:00,0,0,0,0,0,0,NA,0,0,0,66,46,29.96,1,280,10,NA,78,54,84,22,56,35,30,29.9,7,0,10,2,16,0,1,0,"",5,25,59,NA,NA,502,834,1,11,8,NA,NA,34,31
2014-03-12 12:00:00,0,0,0,0,0,0,NA,0,0,0,67,48,29.96,2,250,9,NA,80,54,86,10,55,20,30.01,29.89,10,0,10,4,18,0,2,0,"",5,25,64,NA,NA,502,839,1,13,9,NA,NA,36,32
2014-03-13 12:00:00,0,0,0,0,NA,NA,NA,0,0,0,64,51,29.95,1,252,10,NA,71,57,84,46,53,48,30.02,29.91,7,0,10,10,14,2,0,0,"",NA,NA,NA,NA,NA,NA,NA,NA,NA,NA,NA,NA,NA,NA
2014-03-14 12:00:00,0,0,0,0,0,0,NA,0,0,0,62,52,30.06,1,345,8,NA,71,52,89,53,55,48,30.11,30.01,8,0,10,4,11,3,0,0,"",5,29,74,NA,NA,506,849,1,13,11,NA,NA,36,34
2014-03-15 12:00:00,0,0,0,0,0,0,NA,0,0,0,68,50,30.15,1,270,9,NA,81,54,93,30,54,44,30.19,30.11,9,0,10,6,17,0,3,0,"",5,29,79,NA,NA,506,854,1,16,12,NA,NA,39,35
2014-03-16 12:00:00,0,0,0,0,0,0,NA,0,0,0,73,41,30.15,2,292,10,NA,90,56,72,11,51,28,30.22,30.07,9,0,10,10,22,0,8,0,"",5,29,84,NA,NA,506,859,1,24,13,NA,NA,47,36
2014-03-17 12:00:00,0,0,0,0,0,0,NA,0,0,0,65,51,29.9,3,95,10,NA,74,56,80,41,56,44,30.06,29.78,12,0,10,7,15,0,0,0,"",5,29,89,NA,NA,506,864,1,24,14,NA,NA,47,37
2014-03-18 12:00:00,0,0,0,0,0,0,NA,0,0,0,67,52,29.84,3,102,10,NA,75,58,84,41,55,48,29.94,29.81,10,0,10,8,16,0,2,0,"",5,29,94,NA,NA,506,869,1,26,15,NA,NA,49,38
2014-03-19 12:00:00,0,0,0,0,0,0,NA,0,0,0,68,52,30,1,205,9,NA,79,56,86,23,55,37,30.05,29.94,8,0,10,6,17,0,3,0,"",5,29,99,NA,NA,506,874,1,29,16,NA,NA,52,39
2014-03-20 12:00:00,0,0,0,0,0,0,NA,0,0,0,64,53,30,1,270,8,NA,73,55,93,49,55,51,30.06,29.94,10,0,10,5,14,1,0,0,"",5,30,104,NA,NA,507,879,1,29,17,NA,NA,52,40
2014-03-21 12:00:00,0,0,0,0,0,0,NA,0,0,0,61,50,29.98,1,140,9,NA,67,55,86,52,52,47,30.01,29.94,8,0,10,7,10,4,0,0,"",5,34,109,NA,NA,511,884,1,29,18,NA,NA,52,41
2014-03-22 12:00:00,0,0,0,0,0,0,NA,0,0,0,62,49,30.04,2,273,10,NA,68,56,77,56,51,46,30.1,29.99,9,0,10,10,12,3,0,0,"",5,37,114,NA,NA,514,889,1,29,19,NA,NA,52,42
2014-03-23 12:00:00,0,0,0,0,0,0,NA,0,0,0,61,51,30.08,2,270,9,NA,69,53,83,58,53,48,30.14,30.02,10,0,10,7,10,4,0,0,"",5,41,119,NA,NA,518,894,1,29,20,NA,NA,52,43
2014-03-24 12:00:00,0,0,0,0,0,0,NA,0,0,0,62,53,30.06,2,239,7,NA,66,58,86,63,53,52,30.12,29.99,8,0,10,4,12,3,0,0,"",5,44,124,NA,NA,521,899,1,29,21,NA,NA,52,44
2014-03-25 12:00:00,0,0,0,0,0,0,NA,0,0,0,61,52,29.96,1,265,9,NA,65,57,80,63,53,50,30.03,29.91,8,0,10,6,10,4,0,0,"",5,48,129,NA,NA,525,904,1,29,22,NA,NA,52,45
2014-03-26 12:00:00,0,1,0,0,0,0,NA,0,0,0,61,51,29.92,5,268,9,NA,66,55,86,52,54,46,29.98,29.89,15,0,10,4,10,4,0,0.01,"",5,52,134,NA,NA,529,909,1,29,23,NA,NA,52,46
2014-03-27 12:00:00,0,0,0,0,0,0,NA,0,0,0,60,47,30.02,2,220,10,NA,69,51,89,43,50,41,30.09,29.97,12,0,10,10,9,5,0,0,"",5,57,139,NA,NA,534,914,1,29,24,NA,NA,52,47
2014-03-28 12:00:00,0,0,0,0,0,0,NA,0,0,0,64,49,30.12,3,100,10,NA,71,56,80,44,53,46,30.16,30.08,12,0,10,10,12,1,0,0,"",5,58,144,NA,NA,535,919,1,29,25,NA,NA,52,48
2014-03-29 12:00:00,0,0,0,0,0,0,NA,0,0,0,65,50,30.05,2,273,10,NA,76,53,83,38,53,48,30.14,29.97,10,0,10,7,14,0,0,0,"",5,58,149,NA,NA,535,924,1,29,26,NA,NA,52,49
2014-03-30 12:00:00,0,0,0,0,0,0,NA,0,0,0,64,47,30,3,280,10,NA,72,56,86,26,53,34,30.04,29.96,13,0,10,10,13,1,0,0,"",5,59,154,NA,NA,536,929,1,29,27,NA,NA,52,50
2014-03-31 12:00:00,0,0,0,0,0,0,NA,0,0,0,61,48,30.01,3,110,10,NA,68,54,83,48,50,45,30.04,29.98,13,0,10,10,10,4,0,NA,"",5,63,159,NA,NA,540,932,1,29,20,NA,NA,52,43
2014-04-01 12:00:00,0,1,0,0,0,0,NA,0,0,0,57,46,29.97,4,276,10,NA,63,50,89,43,52,39,30.02,29.95,14,0,10,4,7,8,0,0.25,"",4,8,4,NA,NA,548,936,1,0,1,NA,NA,52,44
2014-04-02 12:00:00,0,1,0,0,0,0,NA,0,0,0,56,44,29.99,2,272,9,NA,62,49,93,46,48,39,30.07,29.94,15,0,10,2,4,9,0,0.04,"",4,17,8,NA,NA,557,940,1,0,2,NA,NA,52,45
2014-04-03 12:00:00,0,0,0,0,0,0,NA,0,0,0,59,44,30.09,3,297,10,NA,68,49,80,37,49,40,30.14,30.05,10,0,10,10,7,6,0,0,"",4,23,12,NA,NA,563,944,1,0,3,NA,NA,52,46
2014-04-04 12:00:00,0,0,0,0,0,0,NA,0,0,0,59,46,29.99,2,120,10,NA,65,53,77,43,49,40,30.04,29.95,12,0,10,9,9,6,0,0,"",4,29,16,NA,NA,569,948,1,0,4,NA,NA,52,47
2014-04-05 12:00:00,0,0,0,0,0,0,NA,0,0,0,61,45,29.97,4,74,10,NA,67,54,77,29,49,34,30.05,29.94,12,0,10,10,10,4,0,0,"",4,33,20,NA,NA,573,952,1,0,5,NA,NA,52,48
2014-04-06 12:00:00,0,0,0,0,0,0,NA,0,0,0,65,43,30.04,1,260,10,NA,78,52,77,29,47,39,30.09,29.99,12,0,10,10,16,0,0,0,"",4,33,24,NA,NA,573,956,1,0,6,NA,NA,52,49
2014-04-07 12:00:00,0,0,0,0,0,0,NA,0,0,0,70,42,30.06,2,299,10,NA,85,55,72,17,47,35,30.09,30.03,9,0,10,10,20,0,5,0,"",4,33,28,NA,NA,573,960,1,5,7,NA,NA,57,50
2014-04-08 12:00:00,0,0,0,0,0,0,NA,0,0,0,73,42,30.04,2,240,10,NA,88,58,65,16,51,34,30.09,29.98,9,0,10,6,24,0,8,0,"",4,33,32,NA,NA,573,964,1,13,8,NA,NA,65,51
2014-04-09 12:00:00,0,0,0,0,0,0,NA,0,0,0,73,46,29.99,1,270,8,NA,89,57,80,15,51,33,30.03,29.94,9,0,10,2,22,0,8,0,"",4,33,36,NA,NA,573,968,1,21,9,NA,NA,73,52
2014-04-10 12:00:00,1,0,0,0,0,0,NA,0,0,0,66,49,29.95,1,260,6,NA,81,50,96,30,52,41,29.98,29.91,7,0,10,0,14,0,1,0,"",4,33,40,NA,NA,573,972,1,22,10,NA,NA,74,53
2014-04-11 12:00:00,0,0,0,0,0,0,NA,0,0,0,67,51,29.9,2,267,9,NA,79,55,86,25,54,40,29.94,29.85,9,0,10,6,16,0,2,0,"",4,33,44,NA,NA,573,976,1,24,11,NA,NA,76,54
2014-04-12 12:00:00,0,0,0,0,0,0,NA,0,0,0,62,49,29.92,2,260,10,NA,67,57,80,56,51,48,29.97,29.88,9,0,10,7,12,3,0,0,"",4,36,48,NA,NA,576,980,1,24,12,NA,NA,76,55
2014-04-13 12:00:00,0,0,0,0,0,0,NA,0,0,0,62,49,29.98,2,264,10,NA,67,56,83,48,50,46,30.04,29.95,8,0,10,10,12,3,0,0,"",3,39,51,NA,NA,579,983,1,24,13,NA,NA,76,56
2014-04-14 12:00:00,0,0,0,0,0,0,NA,0,0,0,65,48,30.02,2,265,10,NA,77,53,89,22,53,36,30.05,29.96,8,0,10,7,15,0,0,0,"",3,39,54,NA,NA,579,986,1,24,14,NA,NA,76,57
2014-04-15 12:00:00,0,0,0,0,0,0,NA,0,0,0,64,53,29.93,2,275,6,NA,72,55,93,49,55,50,30,29.83,9,0,10,1,13,1,0,0,"",3,40,57,NA,NA,580,989,1,24,15,NA,NA,76,58
2014-04-16 12:00:00,0,0,0,0,0,0,NA,0,0,0,65,52,29.84,3,180,8,NA,73,57,86,53,53,50,29.88,29.79,9,0,10,5,14,0,0,0,"",3,40,60,NA,NA,580,992,1,24,16,NA,NA,76,59
2014-04-17 12:00:00,0,0,0,0,0,0,NA,0,0,0,65,53,29.87,2,174,9,NA,71,59,80,53,53,52,29.91,29.84,9,0,10,7,15,0,0,0,"",3,40,63,NA,NA,580,995,1,24,17,NA,NA,76,60
2014-04-18 12:00:00,0,0,0,0,0,0,NA,0,0,0,67,52,29.89,3,120,10,NA,73,61,72,49,53,50,29.94,29.86,10,0,10,10,16,0,2,0,"",3,40,66,NA,NA,580,998,2,26,19,NA,NA,78,62
2014-04-19 12:00:00,0,0,0,0,0,0,NA,0,0,0,65,53,29.98,2,270,9,NA,72,57,80,53,54,52,30.04,29.93,10,0,10,7,14,0,0,0,"",3,40,69,NA,NA,580,1001,2,26,21,NA,NA,78,64
