"date","fog","rain","snow","snow_fall","mtd_snow","since_jul_snow","snow_depth","hail","thunder","tornado","mean_temp","mean_dewp","mean_pressure","mean_wind_spd","mean_wind_dir","mean_visib","humid","max_temp","min_temp","max_humid","min_humid","max_dew_pt","min_dew_pt","max_pressure","min_pressure","max_wind_spd","min_wind_spd","max_vis","min_vis","gdegree","heating_days","cooling_days","precip","precip_source","heating_day_normal","mtd_heating_degree","mtd_heating_degree_normal","since_sep_heating","since_sep_heating_normal","since_jul_heating","since_jul_heating_normal","cooling_degree_normal","mtd_cooling_day","mtd_cooling_day_normal","since_sep_cooling","since_sep_cooling_normal","since_jan_cooling","since_jan_cooling_normal"
2014-04-20 12:00:00,0,0,0,0,0,0,NA,0,0,0,67,55,30.03,1,109,8,NA,75,59,87,53,57,54,30.06,30,9,0,10,5,16,0,2,0,"",3,40,72,NA,NA,580,1004,2,28,23,NA,NA,80,66
2014-04-21 12:00:00,0,0,0,0,0,0,NA,0,0,0,67,55,30.01,2,278,7,NA,76,57,87,46,57,53,30.06,29.94,9,0,10,2,16,0,2,0,"",3,40,75,NA,NA,580,1007,2,30,25,NA,NA,82,68
2014-04-22 12:00:00,0,0,0,0,0,0,NA,0,0,0,64,51,29.94,3,273,9,NA,69,58,80,49,53,47,29.98,29.89,13,0,10,6,14,1,0,0,"",3,41,78,NA,NA,581,1010,2,30,27,NA,NA,82,70
2014-04-23 12:00:00,0,0,0,0,0,0,NA,0,0,0,64,47,29.94,3,270,10,NA,71,56,77,28,51,36,29.96,29.9,10,0,10,10,14,1,0,0,"",3,42,81,NA,NA,582,1013,2,30,29,NA,NA,82,72
2014-04-24 12:00:00,0,0,0,0,0,0,NA,0,0,0,67,48,29.94,2,275,10,NA,79,55,78,31,53,42,29.98,29.9,9,0,10,10,16,0,2,0,"",3,42,84,NA,NA,582,1016,2,32,31,NA,NA,84,74
2014-04-25 12:00:00,0,1,0,0,0,0,NA,0,0,0,63,53,29.87,4,121,10,NA,71,54,84,53,55,50,29.93,29.8,10,0,10,4,13,2,0,0.06,"",3,44,87,NA,NA,584,1019,2,32,33,NA,NA,84,76
2014-04-26 12:00:00,0,0,0,0,0,0,NA,0,0,0,59,43,29.87,3,296,10,NA,68,50,83,37,50,38,29.96,29.77,12,0,10,10,8,6,0,0,"",3,50,90,NA,NA,590,1022,2,32,35,NA,NA,84,78
2014-04-27 12:00:00,0,0,0,0,0,0,NA,0,0,0,63,47,29.98,4,87,10,NA,71,55,75,37,51,40,30.01,29.96,9,0,10,10,12,2,0,0,"",3,52,93,NA,NA,592,1025,2,32,37,NA,NA,84,80
2014-04-28 12:00:00,0,0,0,0,0,0,NA,0,0,0,67,49,29.96,2,104,10,NA,77,57,80,29,53,40,30.02,29.88,9,0,10,8,16,0,2,0,"",2,52,95,NA,NA,592,1027,2,34,39,NA,NA,86,82
2014-04-29 12:00:00,0,0,0,0,0,0,NA,0,0,0,76,38,29.99,1,244,10,NA,92,59,78,9,53,24,30.03,29.94,10,0,10,8,26,0,11,0,"",2,52,97,NA,NA,592,1029,2,45,41,NA,NA,97,84
2014-04-30 12:00:00,0,0,0,0,0,0,NA,0,0,0,77,28,29.97,1,-1,10,NA,91,62,43,8,41,19,30.01,29.92,10,0,10,10,26,0,12,0,"",2,52,99,NA,NA,592,1033,2,57,44,NA,NA,109,87
2014-05-01 12:00:00,0,0,0,0,0,0,NA,0,0,0,78,30,29.98,1,-1,10,NA,92,63,44,7,47,16,30.03,29.93,13,0,10,10,27,0,13,0,"",2,0,2,NA,NA,592,1035,2,13,2,NA,NA,122,89
2014-05-02 12:00:00,0,0,0,0,0,0,NA,0,0,0,79,38,29.93,1,185,10,NA,96,62,56,9,48,26,29.97,29.88,10,0,10,10,28,0,14,0,"",2,0,4,NA,NA,592,1037,2,27,4,NA,NA,136,91
2014-05-03 12:00:00,0,0,0,0,0,0,NA,0,0,0,76,47,29.89,1,219,10,NA,89,63,67,18,54,36,29.91,29.86,9,0,10,10,26,0,11,0,"",2,0,6,NA,NA,592,1039,2,38,6,NA,NA,147,93
2014-05-04 12:00:00,0,0,0,0,0,0,NA,0,0,0,70,51,29.93,2,166,10,NA,81,59,75,28,55,45,29.99,29.9,8,0,10,10,20,0,5,0,"",2,0,8,NA,NA,592,1041,2,43,8,NA,NA,152,95
2014-05-05 12:00:00,0,0,0,0,0,0,NA,0,0,0,65,52,29.96,4,107,10,NA,72,57,78,51,54,48,30.01,29.91,13,0,10,6,14,0,0,0,"",2,0,10,NA,NA,592,1043,2,43,10,NA,NA,152,97
2014-05-06 12:00:00,0,0,0,0,0,0,NA,0,0,0,62,45,29.84,4,90,10,NA,68,56,77,37,49,39,29.91,29.78,13,0,10,10,10,3,0,0,"",2,3,12,NA,NA,595,1045,2,43,12,NA,NA,152,99
2014-05-07 12:00:00,0,0,0,0,0,0,NA,0,0,0,63,47,29.94,4,116,10,NA,68,57,72,44,51,43,30,29.85,12,0,10,9,12,2,0,0,"",2,5,14,NA,NA,597,1047,2,43,14,NA,NA,152,101
2014-05-08 12:00:00,0,0,0,0,0,0,NA,0,0,0,64,48,30.02,2,285,10,NA,71,57,75,45,51,46,30.06,29.99,12,0,10,10,13,1,0,0,"",2,6,16,NA,NA,598,1049,2,43,16,NA,NA,152,103
2014-05-09 12:00:00,0,0,0,0,0,0,NA,0,0,0,64,51,30.02,1,-1,10,NA,72,56,83,49,54,49,30.06,29.96,9,0,10,8,12,1,0,0,"",2,7,18,NA,NA,599,1051,2,43,18,NA,NA,152,105
2014-05-10 12:00:00,0,0,0,0,0,0,NA,0,0,0,65,51,29.9,2,330,10,NA,72,58,75,44,54,46,29.96,29.81,12,0,10,10,15,0,0,0,"",2,7,20,NA,NA,599,1053,2,43,20,NA,NA,152,107
2014-05-11 12:00:00,0,0,0,0,0,0,NA,0,0,0,72,34,29.88,4,341,10,NA,86,58,72,6,51,8,29.96,29.83,17,0,10,9,22,0,7,0,"",2,7,22,NA,NA,599,1055,2,50,22,NA,NA,159,109
2014-05-12 12:00:00,0,0,0,0,0,0,NA,0,0,0,75,30,29.96,2,270,10,NA,90,59,52,8,46,19,30.01,29.92,14,0,10,10,24,0,10,0,"",2,7,24,NA,NA,599,1057,2,60,24,NA,NA,169,111
2014-05-13 12:00:00,0,0,0,0,0,0,NA,0,0,0,80,29,30.02,2,310,10,NA,94,65,34,8,41,22,30.07,29.98,10,0,10,10,31,0,15,0,"",2,7,26,NA,NA,599,1059,2,75,26,NA,NA,184,113
2014-05-14 12:00:00,0,0,0,0,0,0,NA,0,0,0,81,29,29.98,2,253,10,NA,99,63,35,6,43,20,30.04,29.92,9,0,10,8,32,0,16,0,"",1,7,27,NA,NA,599,1060,2,91,28,NA,NA,200,115
2014-05-15 12:00:00,0,0,0,0,0,0,NA,0,0,0,87,30,29.96,2,338,10,NA,102,71,31,5,43,18,29.99,29.91,12,0,10,9,36,0,22,0,"",1,7,28,NA,NA,599,1061,2,113,30,NA,NA,222,117
2014-05-16 12:00:00,0,0,0,0,0,0,NA,0,0,0,82,44,29.91,2,120,9,NA,95,68,61,11,55,28,29.95,29.86,9,0,10,4,30,0,17,0,"",1,7,29,NA,NA,599,1062,2,130,32,NA,NA,239,119
2014-05-17 12:00:00,0,0,0,0,0,0,NA,0,0,0,74,56,29.86,1,253,9,NA,85,63,73,37,60,51,29.9,29.82,7,0,10,4,23,0,9,0,"",1,7,30,NA,NA,599,1063,2,139,34,NA,NA,248,121
2014-05-18 12:00:00,0,0,0,0,0,0,NA,0,0,0,69,56,29.86,2,242,9,NA,75,63,78,53,58,52,29.88,29.83,9,0,10,8,18,0,4,0,"",1,7,31,NA,NA,599,1064,2,143,36,NA,NA,252,123
2014-05-19 12:00:00,0,0,0,0,0,0,NA,0,0,0,68,53,29.91,2,280,10,NA,74,61,78,49,57,46,29.94,29.87,10,0,10,10,18,0,3,0,"",1,7,32,NA,NA,599,1065,2,146,38,NA,NA,255,125
2014-05-20 12:00:00,0,0,0,0,0,0,NA,0,0,0,64,50,29.96,3,257,10,NA,70,57,80,42,53,42,29.99,29.94,13,0,10,10,13,1,0,0,"",1,8,33,NA,NA,600,1066,2,146,40,NA,NA,255,127
2014-05-21 12:00:00,0,0,0,0,0,0,NA,0,0,0,65,51,29.96,3,100,10,NA,71,59,78,47,54,48,29.99,29.93,8,0,10,10,15,0,0,0,"",1,8,34,NA,NA,600,1067,2,146,42,NA,NA,255,129
2014-05-22 12:00:00,0,0,0,0,0,0,NA,0,0,0,64,53,29.97,2,263,10,NA,71,57,86,53,55,51,30.01,29.93,7,0,10,8,14,1,0,0,"",1,9,35,NA,NA,601,1068,2,146,44,NA,NA,255,131
2014-05-23 12:00:00,0,0,0,0,0,0,NA,0,0,0,66,54,30,2,282,10,NA,70,61,78,57,55,53,30.02,29.97,10,0,10,10,16,0,1,0,"",1,9,36,NA,NA,601,1069,2,147,46,NA,NA,256,133
2014-05-24 12:00:00,0,0,0,0,0,0,NA,0,0,0,65,55,29.98,1,242,10,NA,69,61,78,61,56,54,30.02,29.93,7,0,10,8,15,0,0,0,"",1,9,37,NA,NA,601,1070,2,147,48,NA,NA,256,135
2014-05-25 12:00:00,0,0,0,0,0,0,NA,0,0,0,69,57,29.93,1,283,10,NA,75,62,84,54,58,56,29.98,29.88,9,0,10,10,19,0,4,0,"",1,9,38,NA,NA,601,1071,2,151,50,NA,NA,260,137
2014-05-26 12:00:00,0,0,0,0,0,0,NA,0,0,0,70,59,29.94,2,263,8,NA,79,61,90,52,60,57,29.97,29.89,9,0,10,5,20,0,5,0,"",1,9,39,NA,NA,601,1072,2,156,52,NA,NA,265,139
2014-05-27 12:00:00,0,0,0,0,0,0,NA,0,0,0,71,60,29.94,2,257,7,NA,80,62,90,54,61,59,29.97,29.89,10,0,10,4,20,0,6,0,"",1,9,40,NA,NA,601,1073,2,162,54,NA,NA,271,141
2014-05-28 12:00:00,0,0,0,0,0,0,NA,0,0,0,72,59,29.88,2,210,7,NA,79,65,87,52,60,59,29.92,29.82,8,0,10,5,21,0,7,0,"",1,9,41,NA,NA,601,1074,2,169,56,NA,NA,278,143
2014-05-29 12:00:00,0,0,0,0,0,0,NA,0,0,0,71,57,29.88,2,122,10,NA,78,63,78,54,59,55,29.91,29.86,9,0,10,7,20,0,6,0,"",1,9,42,NA,NA,601,1075,2,175,58,NA,NA,284,145
2014-05-30 12:00:00,0,0,0,0,0,0,NA,0,0,0,69,56,29.86,1,280,9,NA,78,60,90,46,59,52,29.88,29.82,10,0,10,5,18,0,4,0,"",1,9,43,NA,NA,601,1076,3,179,61,NA,NA,288,148
2014-05-31 12:00:00,0,0,0,0,0,0,NA,0,0,0,71,55,29.87,2,260,9,NA,80,61,78,44,59,49,29.9,29.85,6,0,10,6,20,0,6,0,"",1,9,44,NA,NA,601,1076,3,185,67,NA,NA,294,154
2014-06-01 12:00:00,0,0,0,0,0,0,NA,0,0,0,71,56,29.85,1,255,10,NA,80,61,84,43,58,53,29.88,29.81,9,0,10,7,20,0,6,0,"",1,0,1,NA,NA,601,1077,3,6,3,NA,NA,300,157
2014-06-02 12:00:00,0,0,0,0,0,0,NA,0,0,0,68,55,29.86,2,257,8,NA,75,60,90,53,57,50,29.88,29.82,9,0,10,4,16,0,3,0,"",1,0,2,NA,NA,601,1078,3,9,6,NA,NA,303,160
2014-06-03 12:00:00,0,0,0,0,0,0,NA,0,0,0,69,53,29.86,1,260,10,NA,79,58,84,36,56,46,29.91,29.81,6,0,10,8,18,0,4,0,"",1,0,3,NA,NA,601,1079,3,13,9,NA,NA,307,163
2014-06-04 12:00:00,0,0,0,0,0,0,NA,0,0,0,69,54,29.83,2,267,9,NA,78,59,87,38,56,48,29.87,29.78,10,0,10,5,18,0,4,0,"",1,0,4,NA,NA,601,1080,3,17,12,NA,NA,311,166
2014-06-05 12:00:00,0,0,0,0,0,0,NA,0,0,0,69,56,29.82,2,263,8,NA,78,59,84,53,58,55,29.86,29.78,10,0,10,5,17,0,4,0,"",1,0,5,NA,NA,601,1081,3,21,15,NA,NA,315,169
2014-06-06 12:00:00,0,0,0,0,0,0,NA,0,0,0,68,56,29.82,2,252,8,NA,75,60,90,53,57,54,29.86,29.8,9,0,10,5,16,0,3,0,"",1,0,6,NA,NA,601,1082,3,24,18,NA,NA,318,172
2014-06-07 12:00:00,0,0,0,0,0,0,NA,0,0,0,68,56,29.81,1,275,9,NA,74,61,84,57,57,54,29.85,29.76,9,0,10,6,17,0,3,0,"",0,0,6,NA,NA,601,1082,3,27,21,NA,NA,321,175
2014-06-08 12:00:00,0,0,0,0,0,0,NA,0,0,0,69,57,29.8,2,272,7,NA,77,60,84,54,58,56,29.83,29.75,9,0,10,4,18,0,4,0,"",0,0,6,NA,NA,601,1082,3,31,24,NA,NA,325,178
2014-06-09 12:00:00,0,0,0,0,0,0,NA,0,0,0,68,58,29.79,2,285,6,NA,76,59,90,60,60,58,29.83,29.75,10,0,10,2,18,0,3,0,"",0,0,6,NA,NA,601,1082,3,34,27,NA,NA,328,181
2014-06-10 12:00:00,0,0,0,0,0,0,NA,0,0,0,69,58,29.81,1,208,9,NA,74,63,84,61,59,57,29.89,29.77,8,0,10,6,18,0,4,0,"",0,0,6,NA,NA,601,1082,4,38,31,NA,NA,332,185
2014-06-11 12:00:00,0,0,0,0,0,0,NA,0,0,0,69,57,29.89,2,270,10,NA,76,62,84,46,58,53,29.93,29.86,12,0,10,10,18,0,4,0,"",0,0,6,NA,NA,601,1082,4,42,35,NA,NA,336,189
2014-06-12 12:00:00,0,0,0,0,0,0,NA,0,0,0,68,56,29.93,3,273,9,NA,74,61,84,57,57,56,29.95,29.91,9,0,10,7,16,0,3,0,"",0,0,6,NA,NA,601,1082,4,45,39,NA,NA,339,193
2014-06-13 12:00:00,0,0,0,0,0,0,NA,0,0,0,67,56,29.91,2,280,9,NA,73,60,90,53,57,54,29.95,29.87,10,0,10,5,17,0,2,0,"",0,0,6,NA,NA,601,1082,4,47,43,NA,NA,341,197
2014-06-14 12:00:00,0,0,0,0,0,0,NA,0,0,0,67,56,29.86,2,256,9,NA,75,59,90,53,58,54,29.89,29.81,12,0,10,7,16,0,2,0,"",0,0,6,NA,NA,601,1082,4,49,47,NA,NA,343,201
2014-06-15 12:00:00,0,0,0,0,0,0,NA,0,0,0,68,56,29.85,3,210,9,NA,74,61,84,57,57,55,29.89,29.83,9,0,10,7,16,0,3,0,"",0,0,6,NA,NA,601,1082,4,52,51,NA,NA,346,205
2014-06-16 12:00:00,0,0,0,0,0,0,NA,0,0,0,67,54,29.89,2,225,10,NA,73,61,78,57,56,51,29.91,29.86,5,0,10,8,17,0,2,0,"",0,0,6,NA,NA,601,1082,4,54,55,NA,NA,348,209
2014-06-17 12:00:00,0,0,0,0,0,0,NA,0,0,0,69,54,29.9,2,275,10,NA,78,59,84,43,57,52,29.93,29.89,9,0,10,10,19,0,4,0,"",0,0,6,NA,NA,601,1082,5,58,60,NA,NA,352,214
2014-06-18 12:00:00,0,0,0,0,0,0,NA,0,0,0,68,54,29.91,2,277,10,NA,77,59,87,38,58,49,29.94,29.88,8,0,10,10,17,0,3,0,"",0,0,6,NA,NA,601,1082,5,61,65,NA,NA,355,219
2014-06-19 12:00:00,0,0,0,0,0,0,NA,0,0,0,68,56,29.93,2,262,9,NA,76,59,90,41,58,50,29.95,29.89,9,0,10,7,17,0,3,0,"",0,0,6,NA,NA,601,1082,5,64,70,NA,NA,358,224
2014-06-20 12:00:00,0,0,0,0,0,0,NA,0,0,0,70,58,29.89,1,-1,9,NA,80,60,90,45,60,56,29.91,29.86,10,0,10,7,20,0,5,0,"",0,0,6,NA,NA,601,1082,5,69,75,NA,NA,363,229
2014-06-21 12:00:00,0,0,0,0,0,0,NA,0,0,0,72,60,29.86,2,95,9,NA,81,62,90,49,61,58,29.9,29.84,9,0,10,7,22,0,7,0,"",0,0,6,NA,NA,601,1082,5,76,80,NA,NA,370,234
2014-06-22 12:00:00,0,0,0,0,0,0,NA,0,0,0,70,58,29.89,2,260,9,NA,77,63,87,54,60,57,29.91,29.85,9,0,10,7,20,0,5,0,"",0,0,6,NA,NA,601,1082,5,81,85,NA,NA,375,239
2014-06-23 12:00:00,0,0,0,0,0,0,NA,0,0,0,70,58,29.91,3,347,9,NA,77,63,84,54,59,57,29.94,29.86,10,0,10,7,20,0,5,0,"",0,0,6,NA,NA,601,1082,6,86,91,NA,NA,380,245
2014-06-24 12:00:00,0,0,0,0,0,0,NA,0,0,0,71,59,29.92,2,270,8,NA,79,63,87,54,61,58,29.95,29.88,8,0,10,6,20,0,6,0,"",0,0,6,NA,NA,601,1082,6,92,97,NA,NA,386,251
2014-06-25 12:00:00,0,0,0,0,0,0,NA,0,0,0,70,60,29.88,3,239,7,NA,76,63,93,60,62,60,29.92,29.83,8,0,10,4,19,0,5,0,"",0,0,6,NA,NA,601,1082,6,97,103,NA,NA,391,257
2014-06-26 12:00:00,0,0,0,0,0,0,NA,0,0,0,70,60,29.88,2,239,9,NA,76,64,87,64,62,56,29.91,29.83,10,0,10,7,20,0,5,0,"",0,0,6,NA,NA,601,1082,6,102,109,NA,NA,396,263
2014-06-27 12:00:00,0,0,0,0,0,0,NA,0,0,0,71,60,29.84,2,126,10,NA,78,64,87,56,62,58,29.87,29.81,10,0,10,10,20,0,6,0,"",0,0,6,NA,NA,601,1082,6,108,115,NA,NA,402,269
2014-06-28 12:00:00,0,0,0,0,0,0,NA,0,0,0,72,62,29.83,2,220,10,NA,80,64,87,54,63,60,29.87,29.8,9,0,10,9,21,0,7,0,"",0,0,6,NA,NA,601,1082,7,115,122,NA,NA,409,276
2014-06-29 12:00:00,0,0,0,0,0,0,NA,0,0,0,72,62,29.86,2,170,10,NA,79,64,87,58,63,60,29.89,29.82,9,0,10,7,21,0,7,0,"",0,0,6,NA,NA,601,1082,7,122,129,NA,NA,416,283
2014-06-30 12:00:00,0,0,0,0,0,0,NA,0,0,0,71,61,29.87,2,243,9,NA,77,64,87,64,63,60,29.91,29.82,6,0,10,7,20,0,6,0,"",0,0,6,NA,NA,601,1084,7,128,134,NA,NA,422,288
2014-07-01 12:00:00,0,0,0,0,0,0,NA,0,0,0,70,62,29.85,3,263,8,NA,77,63,93,68,64,60,29.9,29.81,10,0,10,3,20,0,5,0,"",0,0,0,NA,NA,0,0,7,5,7,NA,NA,427,295
2014-07-02 12:00:00,0,0,0,0,0,0,NA,0,0,0,70,61,29.86,2,257,8,NA,77,62,100,60,63,60,29.91,29.82,9,0,10,4,20,0,5,0,"",0,0,0,NA,NA,0,0,7,10,14,NA,NA,432,302
2014-07-03 12:00:00,0,0,0,0,0,0,NA,0,0,0,72,62,29.89,2,228,6,NA,81,63,100,58,64,61,29.93,29.82,12,0,10,3,22,0,7,0,"",0,0,0,NA,NA,0,0,7,17,21,NA,NA,439,309
2014-07-04 12:00:00,0,0,0,0,0,0,NA,0,0,0,72,63,29.96,2,229,7,NA,82,62,100,54,65,61,30.01,29.9,9,0,10,2,22,0,7,0,"",0,0,0,NA,NA,0,0,7,24,28,NA,NA,446,316
2014-07-05 12:00:00,0,0,0,0,0,0,NA,0,0,0,75,60,30,2,234,6,NA,86,64,93,37,64,50,30.03,29.96,10,0,10,2,24,0,10,0,"",0,0,0,NA,NA,0,0,8,34,36,NA,NA,456,324
2014-07-06 12:00:00,0,0,0,0,0,0,NA,0,0,0,73,61,29.96,2,214,10,NA,81,64,100,39,65,53,30.01,29.89,9,0,10,7,22,0,8,0,"",0,0,0,NA,NA,0,0,8,42,44,NA,NA,464,332
2014-07-07 12:00:00,0,0,0,0,0,0,NA,0,0,0,77,62,29.88,2,252,10,NA,89,64,100,32,64,56,29.92,29.83,8,0,10,9,26,0,12,0,"",0,0,0,NA,NA,0,0,8,54,52,NA,NA,476,340
2014-07-08 12:00:00,0,0,0,0,0,0,NA,0,0,0,77,63,29.91,2,-1,10,NA,86,68,81,45,64,62,29.96,29.86,8,0,10,8,27,0,12,0,"",0,0,0,NA,NA,0,0,8,66,60,NA,NA,488,348
2014-07-09 12:00:00,0,0,0,0,0,0,NA,0,0,0,75,62,29.93,3,227,9,NA,82,67,81,51,64,61,29.97,29.87,9,0,10,6,24,0,10,0,"",0,0,0,NA,NA,0,0,8,76,68,NA,NA,498,356
2014-07-10 12:00:00,0,0,0,0,0,0,NA,0,0,0,76,61,29.93,2,254,10,NA,85,66,81,51,63,60,29.97,29.88,10,0,10,6,24,0,11,0,"",0,0,0,NA,NA,0,0,8,87,76,NA,NA,509,364
2014-07-11 12:00:00,0,0,0,0,0,0,NA,0,0,0,73,60,29.96,3,260,10,NA,80,65,87,48,61,58,29.99,29.94,13,0,10,9,22,0,8,0,"",0,0,0,NA,NA,0,0,8,95,84,NA,NA,517,372
2014-07-12 12:00:00,0,0,0,0,0,0,NA,0,0,0,74,61,29.96,2,234,10,NA,82,65,87,48,62,58,29.99,29.91,9,0,10,10,22,0,9,0,"",0,0,0,NA,NA,0,0,8,104,92,NA,NA,526,380
2014-07-13 12:00:00,0,0,0,0,0,0,NA,0,0,0,75,61,29.89,2,285,10,NA,82,67,87,45,63,56,29.93,29.84,8,0,10,10,24,0,10,0,"",0,0,0,NA,NA,0,0,8,114,100,NA,NA,536,388
2014-07-14 12:00:00,0,0,0,0,0,0,NA,0,0,0,74,63,29.96,2,193,8,NA,80,68,81,62,65,62,30,29.9,8,0,10,1,24,0,9,0,"",0,0,0,NA,NA,0,0,8,123,108,NA,NA,545,396
2014-07-15 12:00:00,0,0,0,0,0,0,NA,0,0,0,76,63,30,3,237,7,NA,82,69,78,58,65,61,30.04,29.97,12,0,10,1,25,0,11,0,"",0,0,0,NA,NA,0,0,9,134,117,NA,NA,556,405
2014-07-16 12:00:00,0,0,0,0,0,0,NA,0,0,0,74,61,30,3,249,10,NA,81,66,81,54,62,59,30.04,29.95,12,0,10,7,22,0,9,0,"",0,0,0,NA,NA,0,0,9,143,126,NA,NA,565,414
2014-07-17 12:00:00,0,0,0,0,0,0,NA,0,0,0,73,58,30,3,280,10,NA,80,65,81,45,61,55,30.04,29.96,10,0,10,10,22,0,8,0,"",0,0,0,NA,NA,0,0,9,151,135,NA,NA,573,423
2014-07-18 12:00:00,0,0,0,0,0,0,NA,0,0,0,72,59,29.98,3,233,10,NA,79,64,84,50,60,57,30.02,29.94,9,0,10,10,20,0,7,0,"",0,0,0,NA,NA,0,0,9,158,144,NA,NA,580,432
2014-07-19 12:00:00,0,0,0,0,0,0,NA,0,0,0,71,60,29.95,2,268,10,NA,75,66,81,64,61,60,29.98,29.91,8,0,10,10,20,0,6,NA,"",0,0,0,NA,NA,0,0,9,164,153,NA,NA,586,441
2014-07-20 12:00:00,0,0,0,0,0,0,NA,0,0,0,73,60,29.97,2,254,10,NA,80,66,81,54,61,59,30,29.93,10,0,10,10,22,0,8,0,"",0,0,0,NA,NA,0,0,9,172,162,NA,NA,594,450
2014-07-21 12:00:00,0,0,0,0,0,0,NA,0,0,0,74,61,30.01,3,211,10,NA,81,66,81,54,62,60,30.05,29.97,10,0,10,10,22,0,9,0,"",0,0,0,NA,NA,0,0,9,181,171,NA,NA,603,459
2014-07-22 12:00:00,0,0,0,0,0,0,NA,0,0,0,75,60,30.01,2,236,10,NA,85,65,87,40,63,55,30.04,29.97,10,0,10,10,24,0,10,0,"",0,0,0,NA,NA,0,0,9,191,180,NA,NA,613,468
2014-07-23 12:00:00,0,0,0,0,0,0,NA,0,0,0,77,59,29.93,2,260,10,NA,88,65,81,34,61,54,29.99,29.86,12,0,10,10,26,0,12,0,"",0,0,0,NA,NA,0,0,9,203,189,NA,NA,625,477
2014-07-24 12:00:00,0,0,0,0,0,0,NA,0,0,0,79,60,29.81,2,228,10,NA,92,65,87,36,63,57,29.88,29.73,10,0,10,7,28,0,14,0,"",0,0,0,NA,NA,0,0,9,217,198,NA,NA,639,486
2014-07-25 12:00:00,0,0,0,0,0,0,NA,0,0,0,79,64,29.87,2,240,10,NA,88,69,84,46,65,59,29.91,29.83,9,0,10,7,28,0,14,0,"",0,0,0,NA,NA,0,0,9,231,207,NA,NA,653,495
2014-07-26 12:00:00,0,0,0,0,0,0,NA,0,0,0,77,64,29.93,2,275,9,NA,86,68,84,51,65,63,29.97,29.89,10,0,10,6,26,0,12,0,"",0,0,0,NA,NA,0,0,9,243,216,NA,NA,665,504
2014-07-27 12:00:00,0,0,0,0,0,0,NA,0,0,0,76,62,29.96,3,261,10,NA,84,67,87,42,64,54,30.02,29.91,9,0,10,9,24,0,11,NA,"",0,0,0,NA,NA,0,0,9,254,225,NA,NA,676,513
2014-07-28 12:00:00,0,0,0,0,0,0,NA,0,0,0,78,59,30.01,3,251,10,NA,88,68,84,24,64,43,30.06,29.96,10,0,10,8,28,0,13,NA,"",0,0,0,NA,NA,0,0,9,267,234,NA,NA,689,522
2014-07-29 12:00:00,0,0,0,0,0,0,NA,0,0,0,78,61,29.98,2,220,10,NA,88,68,76,31,63,54,30.03,29.92,8,0,10,10,28,0,13,0,"",0,0,0,NA,NA,0,0,9,300,243,NA,NA,722,531
2014-07-30 12:00:00,0,0,0,0,0,0,NA,0,0,0,79,62,29.92,2,255,10,NA,90,68,81,40,63,58,29.96,29.88,9,0,10,9,28,0,14,0,"",0,0,0,NA,NA,0,0,9,314,252,NA,NA,736,540
2014-07-31 12:00:00,0,0,0,0,0,0,NA,0,0,0,77,62,29.89,2,255,10,NA,87,67,87,46,65,60,29.92,29.83,9,0,10,6,28,0,12,0,"",0,0,0,NA,NA,0,0,9,326,259,NA,NA,748,547
2014-08-01 12:00:00,0,0,0,0,0,0,NA,0,0,0,76,63,29.89,2,258,8,NA,85,66,87,51,65,61,29.92,29.85,7,0,10,6,25,0,11,0,"",0,0,0,NA,NA,0,0,9,11,9,NA,NA,759,556
2014-08-02 12:00:00,0,1,0,0,0,0,NA,0,0,0,78,64,29.9,2,243,7,NA,90,65,93,38,67,60,29.94,29.87,9,0,10,3,26,0,13,0.02,"",0,0,0,NA,NA,0,0,9,24,18,NA,NA,772,565
2014-08-03 12:00:00,0,1,0,0,0,0,NA,0,0,0,79,66,29.89,2,165,9,NA,85,72,87,55,69,63,29.94,29.86,8,0,10,7,27,0,14,0.02,"",0,0,0,NA,NA,0,0,9,38,27,NA,NA,786,574
2014-08-04 12:00:00,0,0,0,0,0,0,NA,0,0,0,76,63,29.95,2,257,10,NA,87,65,87,45,67,55,29.99,29.92,9,0,10,8,26,0,11,0,"",0,0,0,NA,NA,0,0,9,49,36,NA,NA,797,583
2014-08-05 12:00:00,0,0,0,0,0,0,NA,0,0,0,73,58,30,2,270,10,NA,82,63,90,39,60,55,30.02,29.97,10,0,10,9,22,0,8,0,"",0,0,0,NA,NA,0,0,9,57,45,NA,NA,805,592
2014-08-06 12:00:00,0,0,0,0,0,0,NA,0,0,0,70,58,30.01,2,283,10,NA,77,63,84,54,59,56,30.06,29.94,10,0,10,8,19,0,5,0,"",0,0,0,NA,NA,0,0,9,62,54,NA,NA,810,601
2014-08-07 12:00:00,0,0,0,0,0,0,NA,0,0,0,73,59,29.95,2,259,9,NA,81,64,84,45,61,57,29.99,29.88,12,0,10,3,22,0,8,0,"",0,0,0,NA,NA,0,0,9,70,63,NA,NA,818,610
2014-08-08 12:00:00,0,0,0,0,0,0,NA,0,0,0,74,61,29.92,2,272,8,NA,82,65,87,47,62,60,29.94,29.87,10,0,10,5,23,0,9,0,"",0,0,0,NA,NA,0,0,9,79,72,NA,NA,827,619
2014-08-09 12:00:00,0,0,0,0,0,0,NA,0,0,0,75,62,29.94,2,253,8,NA,82,67,81,51,64,61,29.97,29.91,9,0,10,5,25,0,10,0,"",0,0,0,NA,NA,0,0,9,89,81,NA,NA,837,628
2014-08-10 12:00:00,0,0,0,0,0,0,NA,0,0,0,76,62,29.94,2,266,7,NA,85,66,87,43,63,58,29.98,29.89,8,0,10,4,25,0,11,0,"",0,0,0,NA,NA,0,0,9,100,90,NA,NA,848,637
2014-08-11 12:00:00,0,0,0,0,0,0,NA,0,0,0,75,62,29.93,3,280,9,NA,85,65,93,51,64,60,29.96,29.89,12,0,10,6,23,0,10,0,"",0,0,0,NA,NA,0,0,9,110,99,NA,NA,858,646
2014-08-12 12:00:00,0,0,0,0,0,0,NA,0,0,0,75,62,29.93,3,269,10,NA,84,66,87,51,63,60,29.97,29.88,12,0,10,10,24,0,10,0,"",0,0,0,NA,NA,0,0,9,120,108,NA,NA,868,655
2014-08-13 12:00:00,0,0,0,0,0,0,NA,0,0,0,73,61,29.95,3,272,10,NA,81,65,87,54,62,60,29.98,29.91,10,0,10,8,22,0,8,0,"",0,0,0,NA,NA,0,0,9,128,117,NA,NA,876,664
2014-08-14 12:00:00,0,0,0,0,0,0,NA,0,0,0,74,62,29.94,2,242,8,NA,83,65,87,51,63,60,29.96,29.89,8,0,10,5,23,0,9,0,"",0,0,0,NA,NA,0,0,9,137,126,NA,NA,885,673
2014-08-15 12:00:00,0,0,0,0,0,0,NA,0,0,0,76,59,29.95,2,239,9,NA,89,63,93,26,62,48,29.98,29.91,8,0,10,4,26,0,11,0,"",0,0,0,NA,NA,0,0,9,148,135,NA,NA,896,682
2014-08-16 12:00:00,0,0,0,0,0,0,NA,0,0,0,78,58,29.95,2,265,10,NA,90,66,87,32,62,51,30,29.91,10,0,10,10,28,0,13,0,"",0,0,0,NA,NA,0,0,9,161,144,NA,NA,909,691
2014-08-17 12:00:00,0,0,0,0,0,0,NA,0,0,0,78,59,29.9,2,250,10,NA,89,66,81,36,63,54,29.96,29.84,9,0,10,10,26,0,13,0,"",0,0,0,NA,NA,0,0,9,174,153,NA,NA,922,700
2014-08-18 12:00:00,0,0,0,0,0,0,NA,0,0,0,76,61,29.83,2,260,10,NA,86,65,87,48,64,59,29.88,29.78,9,0,10,8,24,0,11,0,"",0,0,0,NA,NA,0,0,9,185,162,NA,NA,933,709
2014-08-19 12:00:00,0,0,0,0,0,0,NA,0,0,0,76,61,29.86,3,170,10,NA,82,69,78,49,63,59,29.9,29.83,9,0,10,10,26,0,11,0,"",0,0,0,NA,NA,0,0,9,196,171,NA,NA,944,718
2014-08-20 12:00:00,0,0,0,0,0,0,NA,0,0,0,76,59,29.9,3,283,10,NA,84,67,76,40,61,57,29.94,29.86,9,0,10,10,26,0,11,0,"",0,0,0,NA,NA,0,0,9,207,180,NA,NA,955,727
2014-08-21 12:00:00,0,0,0,0,0,0,NA,0,0,0,73,61,29.92,2,272,10,NA,80,65,81,58,62,60,29.95,29.88,9,0,10,10,22,0,8,0,"",0,0,0,NA,NA,0,0,9,215,189,NA,NA,963,736
2014-08-22 12:00:00,0,0,0,0,0,0,NA,0,0,0,74,63,29.94,3,254,10,NA,81,66,87,58,64,60,29.97,29.9,9,0,10,7,24,0,9,0,"",0,0,0,NA,NA,0,0,9,224,198,NA,NA,972,745
2014-08-23 12:00:00,0,0,0,0,0,0,NA,0,0,0,76,61,29.92,3,274,10,NA,85,66,81,43,62,57,29.97,29.86,10,0,10,7,24,0,11,0,"",0,0,0,NA,NA,0,0,9,235,207,NA,NA,983,754
2014-08-24 12:00:00,0,0,0,0,0,0,NA,0,0,0,75,59,29.87,2,259,10,NA,83,67,81,42,61,56,29.91,29.81,10,0,10,8,24,0,10,0,"",0,0,0,NA,NA,0,0,9,245,216,NA,NA,993,763
2014-08-25 12:00:00,0,0,0,0,0,0,NA,0,0,0,72,60,29.89,2,227,10,NA,80,64,87,54,62,58,29.93,29.85,8,0,10,10,22,0,7,0,"",0,0,0,NA,NA,0,0,9,252,225,NA,NA,1000,772
2014-08-26 12:00:00,0,0,0,0,0,0,NA,0,0,0,75,60,29.94,2,270,10,NA,84,65,78,45,62,58,29.97,29.91,9,0,10,8,24,0,10,0,"",0,0,0,NA,NA,0,0,9,262,234,NA,NA,1010,781
2014-08-27 12:00:00,0,0,0,0,0,0,NA,0,0,0,79,56,29.99,2,280,10,NA,91,66,87,23,62,46,30.02,29.96,10,0,10,8,28,0,14,0,"",0,0,0,NA,NA,0,0,9,276,243,NA,NA,1024,790
2014-08-28 12:00:00,0,0,0,0,0,0,NA,0,0,0,80,53,29.93,2,245,10,NA,91,68,61,23,58,39,29.99,29.85,9,0,10,10,30,0,15,0,"",0,0,0,NA,NA,0,0,9,291,252,NA,NA,1039,799
2014-08-29 12:00:00,0,0,0,0,0,0,NA,0,0,0,78,61,29.84,2,241,10,NA,90,65,87,34,63,56,29.88,29.78,9,0,10,8,28,0,13,0,"",0,0,0,NA,NA,0,0,9,304,261,NA,NA,1052,808
2014-08-30 12:00:00,0,0,0,0,0,0,NA,0,0,0,77,63,29.78,2,270,9,NA,89,65,87,43,65,61,29.83,29.73,9,0,10,6,27,0,12,0,"",0,0,0,NA,NA,0,0,9,316,270,NA,NA,1064,817
2014-08-31 12:00:00,0,0,0,0,0,0,NA,0,0,0,78,65,29.79,2,232,9,NA,87,69,84,48,67,63,29.83,29.75,9,0,10,6,28,0,13,0,"",0,0,0,NA,NA,0,0,9,329,287,NA,NA,1077,834
2014-09-01 12:00:00,0,0,0,0,0,0,NA,0,0,0,78,64,29.8,2,0,10,NA,85,70,79,48,65,61,29.82,29.75,7,0,10,7,27,0,13,0,"",0,0,0,0,0,0,0,9,13,9,13,9,1090,843
2014-09-02 12:00:00,0,0,0,0,0,0,NA,0,0,0,76,63,29.81,2,156,10,NA,84,68,84,47,64,61,29.86,29.76,9,0,10,7,25,0,11,0,"",0,0,0,0,0,0,0,9,24,18,24,18,1101,852
2014-09-03 12:00:00,0,0,0,0,0,0,NA,0,0,0,75,62,29.76,2,276,9,NA,83,67,81,54,63,61,29.82,29.7,10,0,10,8,24,0,10,0,"",0,0,0,0,0,0,0,9,34,27,34,27,1111,861
2014-09-04 12:00:00,0,0,0,0,0,0,NA,0,0,0,73,61,29.75,2,280,9,NA,80,66,87,54,62,61,29.79,29.72,9,0,10,6,23,0,8,0,"",0,0,0,0,0,0,0,9,42,36,42,36,1119,870
2014-09-05 12:00:00,0,0,0,0,0,0,NA,0,0,0,75,62,29.84,2,260,10,NA,83,66,87,54,63,61,29.9,29.8,8,0,10,8,24,0,10,0,"",0,0,0,0,0,0,0,9,52,45,52,45,1129,879
2014-09-06 12:00:00,0,0,0,0,0,0,NA,0,0,0,76,62,29.85,2,230,9,NA,86,65,87,40,65,56,29.91,29.78,9,0,10,6,24,0,11,0,"",0,0,0,0,0,0,0,9,63,54,63,54,1140,888
2014-09-07 12:00:00,0,0,0,0,0,0,NA,0,0,0,80,60,29.78,2,261,10,NA,92,68,78,34,63,55,29.81,29.73,8,0,10,8,30,0,15,0,"",0,0,0,0,0,0,0,9,78,63,78,63,1155,897
2014-09-08 12:00:00,0,1,0,0,0,0,NA,0,0,0,80,61,29.83,1,207,10,NA,88,71,79,31,66,53,29.88,29.79,7,0,10,5,30,0,15,0.01,"",0,0,0,0,0,0,0,9,93,72,93,72,1170,906
2014-09-09 12:00:00,0,0,0,0,0,0,NA,0,0,0,80,59,29.87,2,275,10,NA,91,68,78,26,63,49,29.91,29.84,12,0,10,9,28,0,15,0,"",0,0,0,0,0,0,0,9,108,81,108,81,1185,915
2014-09-10 12:00:00,0,0,0,0,0,0,NA,0,0,0,76,58,29.86,2,256,10,NA,87,64,87,34,63,48,29.9,29.79,9,0,10,10,25,0,11,0,"",0,0,0,0,0,0,0,9,119,90,119,90,1196,924
2014-09-11 12:00:00,0,0,0,0,0,0,NA,0,0,0,78,59,29.82,2,205,10,NA,89,67,81,31,63,53,29.86,29.78,9,0,10,9,28,0,13,0,"",0,0,0,0,0,0,0,9,132,99,132,99,1209,933
2014-09-12 12:00:00,0,0,0,0,0,0,NA,0,0,0,80,62,29.79,2,252,10,NA,91,68,87,38,65,58,29.83,29.74,10,0,10,8,29,0,15,0,"",0,0,0,0,0,0,0,9,147,108,147,108,1224,942
2014-09-13 12:00:00,0,0,0,0,0,0,NA,0,0,0,82,62,29.73,1,268,10,NA,94,69,78,30,64,58,29.77,29.67,12,0,10,8,31,0,17,0,"",0,0,0,0,0,0,0,9,164,117,164,117,1241,951
2014-09-14 12:00:00,0,0,0,0,0,0,NA,0,0,0,85,62,29.71,1,260,10,NA,98,71,79,27,65,55,29.74,29.67,9,0,10,9,34,0,20,0,"",0,0,0,0,0,0,0,8,184,125,184,125,1261,959
2014-09-15 12:00:00,0,0,0,0,0,0,NA,0,0,0,84,62,29.75,1,195,10,NA,94,73,79,28,68,56,29.8,29.69,9,0,10,9,33,0,19,0,"",0,0,0,0,0,0,0,8,203,133,203,133,1280,967
2014-09-16 12:00:00,0,0,0,0,0,0,NA,0,0,0,90,60,29.72,2,118,10,NA,103,76,62,25,65,55,29.76,29.67,9,0,10,10,40,0,25,0,"",0,0,0,0,0,0,0,8,228,141,228,141,1305,975
2014-09-17 12:00:00,0,0,0,0,0,0,NA,0,0,0,84,60,29.71,2,235,10,NA,96,72,61,29,64,51,29.76,29.68,9,0,10,10,33,0,19,0,"",0,0,0,0,0,0,0,8,247,149,247,149,1324,983
2014-09-18 12:00:00,0,0,0,0,0,0,NA,0,0,0,74,61,29.82,2,200,10,NA,81,67,78,54,64,58,29.87,29.78,10,0,10,10,24,0,9,0,"",0,0,0,0,0,0,0,8,256,157,256,157,1333,991
2014-09-19 12:00:00,0,0,0,0,0,0,NA,0,0,0,75,61,29.86,2,261,10,NA,82,67,87,51,62,60,29.91,29.82,9,0,10,10,23,0,10,0,"",0,0,0,0,0,0,0,8,266,165,266,165,1343,999
2014-09-20 12:00:00,0,0,0,0,0,0,NA,0,0,0,72,61,29.9,2,266,10,NA,78,66,87,56,62,58,29.95,29.87,8,0,10,10,22,0,7,0,"",0,0,0,0,0,0,0,8,273,173,273,173,1350,1007
2014-09-21 12:00:00,0,0,0,0,0,0,NA,0,0,0,72,61,29.94,1,265,10,NA,79,65,93,52,62,59,29.99,29.91,9,0,10,10,21,0,7,0,"",0,0,0,0,0,0,0,8,280,181,280,181,1357,1015
2014-09-22 12:00:00,0,0,0,0,0,0,NA,0,0,0,72,62,29.94,2,275,9,NA,80,63,93,56,63,60,29.98,29.89,9,0,10,6,21,0,7,0,"",0,0,0,0,0,0,0,7,287,188,287,188,1364,1022
2014-09-23 12:00:00,0,0,0,0,0,0,NA,0,0,0,74,61,29.92,1,254,10,NA,84,63,90,45,64,57,29.97,29.87,8,0,10,6,22,0,9,0,"",0,0,0,0,0,0,0,7,296,195,296,195,1373,1029
2014-09-24 12:00:00,0,0,0,0,0,0,NA,0,0,0,75,57,29.88,2,277,10,NA,88,62,93,28,61,50,29.92,29.83,10,0,10,8,24,0,10,0,"",0,0,0,0,0,0,0,7,306,202,306,202,1383,1036
2014-09-25 12:00:00,0,0,0,0,0,0,NA,0,0,0,76,59,29.87,1,-1,10,NA,85,67,78,27,63,46,29.91,29.84,10,0,10,10,26,0,11,0,"",0,0,0,0,0,0,0,7,317,209,317,209,1394,1043
2014-09-26 12:00:00,0,0,0,0,0,0,NA,0,0,0,74,60,29.85,2,245,10,NA,83,65,87,50,63,55,29.88,29.81,10,0,10,10,24,0,9,0,"",0,0,0,0,0,0,0,7,326,216,326,216,1403,1050
2014-09-27 12:00:00,0,0,0,0,0,0,NA,0,0,0,70,57,29.85,2,241,10,NA,77,63,78,49,59,53,29.9,29.78,10,0,10,10,20,0,5,0,"",0,0,0,0,0,0,0,7,331,223,331,223,1408,1057
2014-09-28 12:00:00,0,0,0,0,0,0,NA,0,0,0,72,57,29.89,3,88,10,NA,79,64,78,43,60,54,29.93,29.83,9,0,10,9,20,0,7,0,"",0,0,0,0,0,0,0,7,338,230,338,230,1415,1064
2014-09-29 12:00:00,0,0,0,0,0,0,NA,0,0,0,70,57,29.89,2,263,10,NA,78,61,84,48,61,55,29.93,29.84,10,0,10,9,20,0,5,0,"",0,0,0,0,0,0,0,6,343,236,343,236,1420,1070
2014-09-30 12:00:00,0,0,0,0,0,0,NA,0,0,0,75,57,29.82,2,260,10,NA,85,64,84,37,61,54,29.86,29.75,9,0,10,10,24,0,10,0,"",0,0,0,0,2,0,2,6,353,244,353,244,1430,1078
2014-10-01 12:00:00,0,0,0,0,0,0,NA,0,0,0,73,61,29.8,3,100,9,NA,82,64,87,47,62,54,29.87,29.75,9,0,10,5,23,0,8,0,"",0,0,0,0,2,0,2,6,8,6,361,250,1438,1084
2014-10-02 12:00:00,0,0,0,0,0,0,NA,0,0,0,81,45,29.91,1,272,10,NA,98,64,87,10,61,30,29.96,29.87,10,0,10,10,30,0,16,0,"",0,0,0,0,2,0,2,6,24,12,377,256,1454,1090
2014-10-03 12:00:00,0,0,0,0,0,0,NA,0,0,0,83,35,29.96,2,353,10,NA,98,67,53,8,53,23,30.01,29.92,9,0,10,10,32,0,18,0,"",0,0,0,0,2,0,2,6,42,18,395,262,1472,1096
2014-10-04 12:00:00,0,0,0,0,0,0,NA,0,0,0,81,41,29.89,1,270,10,NA,97,65,64,9,61,28,29.94,29.83,9,0,10,8,31,0,16,0,"",0,0,0,0,2,0,2,6,58,24,411,268,1488,1102
2014-10-05 12:00:00,0,0,0,0,0,0,NA,0,0,0,80,52,29.87,1,150,10,NA,95,65,84,14,66,35,29.91,29.82,7,0,10,7,30,0,15,0,"",0,0,0,0,2,0,2,6,73,30,426,274,1503,1108
2014-10-06 12:00:00,0,0,0,0,0,0,NA,0,0,0,78,55,29.86,0,-1,9,NA,92,64,87,14,65,35,29.91,29.81,8,0,10,6,28,0,13,0,"",0,0,0,0,2,0,2,5,86,35,439,279,1516,1113
2014-10-07 12:00:00,0,0,0,0,0,0,NA,0,0,0,79,55,29.85,1,276,9,NA,93,64,93,14,64,36,29.9,29.8,8,0,10,5,28,0,14,0,"",0,0,0,0,2,0,2,5,100,40,453,284,1530,1118
2014-10-08 12:00:00,0,0,0,0,0,0,NA,0,0,0,75,59,29.83,1,303,9,NA,87,63,87,27,63,47,29.87,29.79,9,0,10,5,24,0,10,0,"",0,0,0,0,2,0,2,5,110,45,463,289,1540,1123
2014-10-09 12:00:00,0,0,0,0,0,0,NA,0,0,0,74,60,29.91,2,148,9,NA,80,67,87,50,64,57,29.95,29.88,8,0,10,5,22,0,9,0,"",0,0,0,0,2,0,2,5,119,50,472,294,1549,1128
2014-10-10 12:00:00,0,0,0,0,0,0,NA,0,0,0,72,61,29.95,2,296,8,NA,79,64,87,54,62,60,29.99,29.91,8,0,10,5,21,0,7,0,"",0,0,0,0,2,0,2,5,126,55,479,299,1556,1133
2014-10-11 12:00:00,0,0,0,0,0,0,NA,0,0,0,73,62,29.93,1,270,6,NA,81,64,87,54,64,60,29.99,29.88,8,0,10,3,22,0,8,0,"",0,0,0,0,2,0,2,5,134,60,487,304,1564,1138
2014-10-12 12:00:00,0,0,0,0,0,0,NA,0,0,0,74,62,29.89,1,254,6,NA,81,67,87,54,63,61,29.94,29.84,8,0,10,2,23,0,9,0,"",0,0,0,0,2,0,2,5,143,65,496,309,1573,1143
2014-10-13 12:00:00,0,0,0,0,0,0,NA,0,0,0,74,62,29.96,1,268,6,NA,82,65,87,51,63,61,30,29.93,9,0,10,3,22,0,9,0,"",0,0,0,0,2,0,2,4,152,69,505,313,1582,1147
2014-10-14 12:00:00,0,0,0,0,0,0,NA,0,0,0,71,60,29.95,1,330,8,NA,76,66,87,57,62,57,29.99,29.91,8,0,10,3,20,0,6,0,"",0,0,0,0,2,0,2,4,158,73,511,317,1588,1151
2014-10-15 12:00:00,0,0,0,0,0,0,NA,0,0,0,71,56,29.96,1,270,10,NA,78,63,84,40,59,51,29.99,29.93,12,0,10,10,20,0,6,0,"",0,0,0,0,2,0,2,4,164,77,517,321,1594,1155
2014-10-16 12:00:00,0,0,0,0,0,0,NA,0,0,0,69,57,29.96,2,261,10,NA,77,61,84,50,60,55,30.01,29.91,10,0,10,10,18,0,4,0,"",0,0,0,0,2,0,2,4,168,81,521,325,1598,1159
2014-10-17 12:00:00,0,0,0,0,0,0,NA,0,0,0,69,57,29.94,1,95,10,NA,76,62,84,50,59,54,29.98,29.91,10,0,10,7,18,0,4,0,"",0,0,0,0,2,0,2,4,172,85,525,329,1602,1163
2014-10-18 12:00:00,0,0,0,0,0,0,NA,0,0,0,70,56,29.88,1,295,10,NA,78,61,84,47,59,54,29.94,29.83,9,0,10,8,19,0,5,0,"",1,0,1,0,3,0,3,4,177,89,530,333,1607,1167
2014-10-19 12:00:00,0,0,0,0,0,0,NA,0,0,0,70,59,29.87,1,288,10,NA,77,62,84,54,62,56,29.91,29.83,9,0,10,10,18,0,5,0,"",1,0,2,0,4,0,4,4,182,93,535,337,1612,1171
2014-10-20 12:00:00,0,0,0,0,0,0,NA,0,0,0,71,60,29.89,1,263,9,NA,79,63,90,54,61,59,29.94,29.86,8,0,10,6,20,0,6,0,"",1,0,3,0,5,0,5,4,188,97,541,341,1618,1175
2014-10-21 12:00:00,0,0,0,0,0,0,NA,0,0,0,71,60,29.87,2,270,8,NA,78,64,87,47,62,56,29.92,29.82,9,0,10,3,20,0,6,0,"",1,0,4,0,6,0,6,4,194,101,547,345,1624,1179
2014-10-22 12:00:00,0,0,0,0,0,0,NA,0,0,0,72,58,29.9,1,270,10,NA,84,60,90,33,63,50,29.95,29.86,8,0,10,8,21,0,7,0,"",1,0,5,0,7,0,7,3,201,104,554,348,1631,1182
2014-10-23 12:00:00,0,0,0,0,0,0,NA,0,0,0,73,56,29.94,1,270,9,NA,85,60,90,34,60,52,29.99,29.9,7,0,10,5,22,0,8,0,"",1,0,6,0,8,0,8,3,209,107,562,351,1639,1185
2014-10-24 12:00:00,0,0,0,0,0,0,NA,0,0,0,74,52,29.95,1,0,10,NA,88,59,84,20,60,41,30,29.91,7,0,10,7,24,0,9,0,"",1,0,7,0,9,0,9,3,218,110,571,354,1648,1188
2014-10-25 12:00:00,0,0,0,0,0,0,NA,0,0,0,71,56,30,1,335,10,NA,80,61,90,38,60,49,30.04,29.97,9,0,10,4,20,0,6,0,"",1,0,8,0,10,0,10,3,224,113,577,357,1654,1191
2014-10-26 12:00:00,0,0,0,0,0,0,NA,0,0,0,70,57,29.95,2,96,10,NA,78,61,84,50,60,53,30,29.88,9,0,10,9,18,0,5,0,"",1,0,9,0,11,0,11,3,229,116,582,360,1659,1194
2014-10-27 12:00:00,0,0,0,0,0,0,NA,0,0,0,70,56,29.9,2,252,10,NA,77,62,84,46,59,54,29.94,29.87,8,0,10,10,18,0,5,0,"",1,0,10,0,12,0,12,3,234,119,587,363,1664,1197
2014-10-28 12:00:00,0,0,0,0,0,0,NA,0,0,0,69,55,29.98,1,270,10,NA,78,59,80,43,58,52,30.02,29.95,8,0,10,9,18,0,4,0,"",1,0,11,0,13,0,13,3,238,122,591,366,1668,1200
2014-10-29 12:00:00,0,0,0,0,0,0,NA,0,0,0,72,54,29.99,1,265,10,NA,85,59,84,31,58,48,30.03,29.94,8,0,10,9,22,0,7,0,"",1,0,12,0,14,0,14,3,245,125,598,369,1675,1203
2014-10-30 12:00:00,0,0,0,0,0,0,NA,0,0,0,71,57,29.96,1,310,10,NA,81,60,87,35,61,48,29.99,29.92,12,0,10,9,20,0,6,0,"",1,0,13,0,15,0,15,3,251,128,604,372,1681,1206
2014-10-31 12:00:00,0,1,0,0,0,0,NA,0,0,0,66,57,29.91,1,303,9,NA,71,60,90,57,60,54,29.97,29.83,7,0,10,4,16,0,1,0.25,"",1,0,14,0,20,0,20,3,252,129,605,373,1682,1207
2014-11-01 12:00:00,0,1,0,0,0,0,NA,0,0,0,61,53,29.9,2,270,8,NA,67,55,93,48,58,46,29.98,29.83,10,0,10,2,10,4,0,0.18,"",2,4,2,4,22,4,22,2,0,2,605,375,1682,1209
2014-11-02 12:00:00,0,0,0,0,0,0,NA,0,0,0,61,45,30.02,1,260,10,NA,70,51,83,39,48,39,30.06,29.98,8,0,10,10,10,4,0,0,"",2,8,4,8,24,8,24,2,0,4,605,377,1682,1211
2014-11-03 12:00:00,0,0,0,0,0,0,NA,0,0,0,65,40,30.1,1,32,10,NA,77,52,59,12,48,22,30.15,30.06,9,0,10,10,15,0,0,0,"",2,8,6,8,26,8,26,2,0,6,605,379,1682,1213
2014-11-04 12:00:00,0,0,0,0,0,0,NA,0,0,0,64,34,30.12,0,250,10,NA,77,51,59,16,39,27,30.19,30.07,7,0,10,10,13,1,0,0,"",2,9,8,9,28,9,28,2,0,8,605,381,1682,1215
2014-11-05 12:00:00,0,0,0,0,0,0,NA,0,0,0,69,33,30.05,1,306,10,NA,85,53,66,11,42,23,30.1,30.01,8,0,10,10,18,0,4,0,"",2,9,10,9,30,9,30,2,4,10,609,383,1686,1217
2014-11-06 12:00:00,0,0,0,0,0,0,NA,0,0,0,76,37,30.09,2,10,10,NA,90,61,53,12,50,29,30.15,30.05,7,0,10,9,26,0,11,0,"",2,9,12,9,32,9,32,2,15,12,620,385,1697,1219
2014-11-07 12:00:00,0,0,0,0,0,0,NA,0,0,0,75,38,30.03,2,354,10,NA,89,60,56,10,50,25,30.1,29.97,8,0,10,10,24,0,10,0,"",2,9,14,9,34,9,34,2,25,14,630,387,1707,1221
2014-11-08 12:00:00,0,0,0,0,0,0,NA,0,0,0,74,44,29.99,1,305,10,NA,89,59,84,12,59,28,30.04,29.94,7,0,10,10,24,0,9,0,"",2,9,16,9,36,9,36,2,34,16,639,389,1716,1223
2014-11-09 12:00:00,1,0,0,0,0,0,NA,0,0,0,68,57,29.91,1,-1,5,NA,77,58,97,54,59,55,29.98,29.81,8,0,10,0,16,0,3,0,"",3,9,19,9,39,9,39,2,37,18,642,391,1719,1225
2014-11-10 12:00:00,0,0,0,0,0,0,NA,0,0,0,66,54,29.86,2,128,9,NA,70,62,78,57,56,53,29.89,29.83,7,0,10,5,16,0,1,0,"",3,9,22,9,42,9,42,2,38,20,643,393,1720,1227
2014-11-11 12:00:00,0,0,0,0,0,0,NA,0,0,0,66,53,29.92,3,106,10,NA,69,62,72,55,54,50,29.95,29.89,7,0,10,8,16,0,1,0,"",3,9,25,9,45,9,45,1,39,21,644,394,1721,1228
2014-11-12 12:00:00,0,0,0,0,0,0,NA,0,0,0,64,53,29.97,1,275,10,NA,70,58,84,53,55,50,30.02,29.93,8,0,10,10,14,1,0,0,"",3,10,28,10,48,10,48,1,39,22,644,395,1721,1229
2014-11-13 12:00:00,0,1,0,0,0,0,NA,0,0,0,63,54,30.03,1,280,10,NA,70,55,84,57,58,50,30.07,30,9,0,10,8,12,2,0,NA,"",3,12,31,12,51,12,51,1,39,23,644,396,1721,1230
2014-11-14 12:00:00,0,0,0,0,0,0,NA,0,0,0,67,57,29.99,1,-1,9,NA,73,60,90,53,58,54,30.03,29.96,8,0,10,5,16,0,2,0,"",3,12,34,12,54,12,54,1,41,24,646,397,1723,1231
2014-11-15 12:00:00,0,0,0,0,0,0,NA,0,0,0,65,55,30.03,2,289,8,NA,72,58,93,56,57,46,30.08,29.99,9,0,10,4,14,0,0,0,"",4,12,38,12,58,12,58,1,41,25,646,398,1723,1232
2014-11-16 12:00:00,0,0,0,0,0,0,NA,0,0,0,65,42,30.11,1,70,9,NA,74,55,86,22,55,28,30.17,30.02,7,0,10,4,14,0,0,0,"",4,12,42,12,62,12,62,1,41,26,646,399,1723,1233
2014-11-17 12:00:00,0,0,0,0,0,0,NA,0,0,0,65,23,30.11,1,0,10,NA,76,53,43,9,33,8,30.16,30.06,8,0,10,10,15,0,0,0,"",4,12,46,12,66,12,66,1,41,27,646,400,1723,1234
2014-11-18 12:00:00,0,0,0,0,0,0,NA,0,0,0,65,28,30.11,1,180,10,NA,77,52,67,9,49,14,30.16,30.07,8,0,10,9,15,0,0,0,"",4,12,50,12,70,12,70,1,41,28,646,401,1723,1235
2014-11-19 12:00:00,0,0,0,0,0,0,NA,0,0,0,64,44,30.1,1,260,10,NA,74,53,80,27,55,31,30.14,30.06,9,0,10,9,14,1,0,0,"",4,13,54,13,74,13,74,1,41,29,646,402,1723,1236
2014-11-20 12:00:00,0,0,0,0,0,0,NA,0,0,0,62,51,30.04,1,315,10,NA,70,53,78,47,56,44,30.11,29.96,10,0,10,9,12,3,0,NA,"",4,16,58,16,78,16,78,1,41,30,646,403,1723,1237
2014-11-21 12:00:00,0,0,0,0,0,0,NA,0,0,0,64,49,29.96,2,267,10,NA,73,55,86,40,54,41,30.06,29.92,7,0,10,10,14,1,0,0,"",5,17,63,17,83,17,83,1,41,31,646,404,1723,1238
2014-11-22 12:00:00,0,0,0,0,0,0,NA,0,0,0,63,48,30.05,1,49,10,NA,73,52,84,41,55,42,30.11,30,8,0,10,10,12,2,0,0,"",5,19,68,19,88,19,88,1,41,32,646,405,1723,1239
2014-11-23 12:00:00,0,0,0,0,0,0,NA,0,0,0,69,37,30.08,1,123,10,NA,80,57,86,8,55,9,30.15,30.03,8,0,10,10,18,0,4,0,"",5,19,73,19,93,19,93,0,45,32,650,405,1727,1239
2014-11-24 12:00:00,0,0,0,0,0,0,NA,0,0,0,67,23,30.2,1,34,10,NA,80,53,39,7,38,11,30.31,30.14,7,0,10,10,17,0,2,0,"",5,19,78,19,98,19,98,0,47,32,652,405,1729,1239
2014-11-25 12:00:00,0,0,0,0,0,0,NA,0,0,0,66,26,30.31,1,334,10,NA,80,52,62,8,46,11,30.39,30.25,8,0,10,10,16,0,1,0,"",5,19,83,19,103,19,103,0,48,32,653,405,1730,1239
2014-11-26 12:00:00,0,0,0,0,0,0,NA,0,0,0,69,29,30.17,1,341,10,NA,85,53,60,11,47,22,30.24,30.11,7,0,10,10,19,0,4,0,"",5,19,88,19,108,19,108,0,52,32,657,405,1734,1239
2014-11-27 12:00:00,0,0,0,0,0,0,NA,0,0,0,74,30,30.04,2,6,10,NA,89,58,56,8,47,19,30.1,29.98,7,0,10,10,24,0,9,0,"",6,19,94,19,114,19,114,0,61,32,666,405,1743,1239
2014-11-28 12:00:00,0,0,0,0,0,0,NA,0,0,0,67,39,29.93,0,280,10,NA,81,53,77,18,50,27,29.99,29.87,7,0,10,8,18,0,2,0,"",6,19,100,19,120,19,120,0,63,32,668,405,1745,1239
2014-11-29 12:00:00,0,0,0,0,0,0,NA,0,0,0,63,50,29.89,2,100,7,NA,74,51,93,31,57,39,29.93,29.83,8,0,10,2,12,2,0,0,"",6,21,106,21,126,21,126,0,63,32,668,405,1745,1239
2014-11-30 12:00:00,0,1,0,0,0,0,NA,0,0,0,63,55,29.99,5,98,9,NA,66,60,90,60,59,49,30.1,29.89,12,0,10,2,13,2,0,0.3,"",6,23,112,23,131,23,131,0,63,33,668,406,1745,1240
2014-12-01 12:00:00,0,0,0,0,0,0,NA,0,0,0,63,55,30.08,1,58,10,NA,69,57,93,59,57,53,30.17,30,7,0,10,9,12,2,0,0,"",6,2,6,NA,NA,25,137,0,0,0,NA,NA,1745,1240
2014-12-02 12:00:00,0,1,0,0,0,0,NA,0,0,0,62,54,29.94,5,92,5,NA,66,58,93,45,56,45,30,29.88,14,0,10,1,12,3,0,1.21,"",6,5,12,NA,NA,28,143,0,0,0,NA,NA,1745,1240
2014-12-03 12:00:00,0,1,0,0,0,0,NA,0,0,0,63,61,29.94,3,101,5,NA,67,59,93,81,63,57,30,29.9,8,0,10,1,13,2,0,0.31,"",7,7,19,NA,NA,30,150,0,0,0,NA,NA,1745,1240
2014-12-04 12:00:00,1,0,0,0,0,0,NA,0,0,0,64,58,29.98,1,276,7,NA,71,57,100,57,62,54,30.07,29.92,9,0,10,0,14,1,0,0,"",7,8,26,NA,NA,31,157,0,0,0,NA,NA,1745,1240
2014-12-05 12:00:00,0,0,0,0,0,0,NA,0,0,0,63,55,30.09,0,320,9,NA,69,57,93,55,58,51,30.14,30.04,7,0,10,8,12,2,0,0,"",7,10,33,NA,NA,33,164,0,0,0,NA,NA,1745,1240
2014-12-06 12:00:00,0,0,0,0,0,0,NA,0,0,0,63,55,30.16,1,-1,9,NA,71,55,93,57,58,52,30.2,30.13,7,0,10,7,12,2,0,0,"",7,12,40,NA,NA,35,171,0,0,0,NA,NA,1745,1240
2014-12-07 12:00:00,0,0,0,0,0,0,NA,0,0,0,65,50,30.13,1,15,10,NA,76,54,86,33,55,45,30.19,30.08,7,0,10,10,15,0,0,0,"",7,12,47,NA,NA,35,178,0,0,0,NA,NA,1745,1240
2014-12-08 12:00:00,0,0,0,0,0,0,NA,0,0,0,67,49,30.06,1,315,10,NA,78,55,84,32,57,45,30.1,30.01,9,0,10,10,16,0,2,0,"",7,12,54,NA,NA,35,185,0,2,0,NA,NA,1747,1240
2014-12-09 12:00:00,0,0,0,0,0,0,NA,0,0,0,65,49,30.03,1,343,10,NA,76,54,84,36,55,43,30.1,29.99,8,0,10,10,14,0,0,0,"",7,12,61,NA,NA,35,192,0,2,0,NA,NA,1747,1240
2014-12-10 12:00:00,0,0,0,0,0,0,NA,0,0,0,63,53,29.97,1,110,6,NA,73,53,90,44,58,47,30.03,29.94,6,0,10,2,12,2,0,0,"",8,14,69,NA,NA,37,200,0,2,0,NA,NA,1747,1240
2014-12-11 12:00:00,0,1,0,0,0,0,NA,0,0,0,64,54,29.94,5,103,7,NA,67,60,90,58,57,51,29.99,29.88,12,4,10,3,14,1,0,0.01,"",8,15,77,NA,NA,38,208,0,2,0,NA,NA,1747,1240
2014-12-12 12:00:00,1,1,0,0,0,0,NA,0,0,0,59,53,29.92,3,120,6,NA,65,52,93,60,56,49,30.07,29.82,16,0,10,0,8,6,0,1.6,"",8,21,85,NA,NA,44,216,0,2,0,NA,NA,1747,1240
2014-12-13 12:00:00,0,0,0,0,0,0,NA,0,0,0,57,43,30.1,1,335,10,NA,66,48,93,40,49,37,30.13,30.07,9,0,10,8,7,8,0,0,"",8,29,93,NA,NA,52,224,0,2,0,NA,NA,1747,1240
2014-12-14 12:00:00,0,0,0,0,0,0,NA,0,0,0,57,44,30.09,1,180,10,NA,66,47,83,44,47,40,30.15,30.05,7,0,10,10,5,8,0,0,"",8,37,101,NA,NA,60,232,0,2,0,NA,NA,1747,1240
2014-12-15 12:00:00,0,0,0,0,0,0,NA,0,0,0,56,44,30.02,1,55,10,NA,65,47,86,42,49,38,30.09,29.96,9,0,10,10,5,9,0,NA,"",8,46,109,NA,NA,69,240,0,2,0,NA,NA,1747,1240
2014-12-16 12:00:00,0,1,0,0,0,0,NA,0,0,0,57,51,30,2,63,7,NA,60,54,93,67,52,47,30.04,29.96,8,0,10,2,6,8,0,0.41,"",8,54,117,NA,NA,77,248,0,2,0,NA,NA,1747,1240
2014-12-17 12:00:00,0,1,0,0,0,0,NA,0,0,0,58,48,30.02,1,93,9,NA,65,51,89,52,53,43,30.11,29.94,8,0,10,2,8,7,0,0.15,"",8,61,125,NA,NA,84,256,0,2,0,NA,NA,1747,1240
2014-12-18 12:00:00,0,0,0,0,0,0,NA,0,0,0,55,46,30.16,1,355,10,NA,62,48,89,52,49,42,30.22,30.1,7,0,10,10,5,10,0,0,"",8,71,133,NA,NA,94,264,0,2,0,NA,NA,1747,1240
2014-12-19 12:00:00,0,0,0,0,0,0,NA,0,0,0,58,47,30.19,1,270,10,NA,66,49,83,45,52,43,30.24,30.14,7,0,10,10,8,7,0,0,"",8,78,141,NA,NA,101,272,0,2,0,NA,NA,1747,1240
2014-12-20 12:00:00,0,0,0,0,0,0,NA,0,0,0,57,48,30.15,1,85,10,NA,64,50,86,56,53,46,30.19,30.11,5,0,10,8,7,8,0,0,"",8,86,149,NA,NA,109,280,0,2,0,NA,NA,1747,1240
2014-12-21 12:00:00,0,0,0,0,0,0,NA,0,0,0,59,50,30.09,0,75,6,NA,68,50,86,53,54,46,30.15,30.03,4,0,8,3,9,6,0,0,"",8,92,157,NA,NA,115,288,0,2,0,NA,NA,1747,1240
2014-12-22 12:00:00,0,0,0,0,0,0,NA,0,0,0,63,51,30,0,-1,6,NA,75,50,89,41,55,47,30.05,29.93,6,0,10,4,12,2,0,0,"",8,94,165,NA,NA,117,296,0,2,0,NA,NA,1747,1240
2014-12-23 12:00:00,0,0,0,0,0,0,NA,0,0,0,67,47,30.03,0,20,8,NA,83,51,93,23,51,40,30.08,29.99,4,0,10,4,16,0,2,0,"",8,94,173,NA,NA,117,304,0,4,0,NA,NA,1749,1240
2014-12-24 12:00:00,0,0,0,0,0,0,NA,0,0,0,64,44,29.96,1,55,10,NA,75,53,84,21,55,33,30.08,29.81,7,0,10,8,14,1,0,0,"",8,95,181,NA,NA,118,312,0,4,0,NA,NA,1749,1240
2014-12-25 12:00:00,0,0,0,0,0,0,NA,0,0,0,58,28,29.84,6,338,10,NA,65,50,80,16,53,17,29.93,29.78,15,0,10,8,8,7,0,0,"",8,102,189,NA,NA,125,320,0,4,0,NA,NA,1749,1240
2014-12-26 12:00:00,0,0,0,0,0,0,NA,0,0,0,53,22,30.07,1,63,10,NA,63,42,53,16,27,15,30.21,29.94,6,0,10,10,3,12,0,0,"",8,114,197,NA,NA,137,328,0,4,0,NA,NA,1749,1240
2014-12-27 12:00:00,0,0,0,0,0,0,NA,0,0,0,51,27,30.29,1,284,10,NA,63,39,61,17,35,15,30.34,30.21,7,0,10,10,1,14,0,0,"",8,128,205,NA,NA,151,336,0,4,0,NA,NA,1749,1240
2014-12-28 12:00:00,0,0,0,0,0,0,NA,0,0,0,53,29,30.22,1,41,10,NA,63,43,76,20,41,19,30.29,30.16,7,0,10,10,3,12,0,0,"",8,140,213,NA,NA,163,344,0,4,0,NA,NA,1749,1240
2014-12-29 12:00:00,0,0,0,0,0,0,NA,0,0,0,52,39,30.1,1,106,10,NA,63,41,80,44,45,31,30.16,30.04,8,0,10,10,2,13,0,0,"",8,153,221,NA,NA,176,352,0,4,0,NA,NA,1749,1240
2014-12-30 12:00:00,0,1,0,0,0,0,NA,0,0,0,52,40,29.96,4,71,8,NA,56,47,86,46,45,25,30.04,29.89,14,0,10,2,0,13,0,0.19,"",8,166,229,NA,NA,189,360,0,4,0,NA,NA,1749,1240
2014-12-31 12:00:00,0,0,0,0,0,0,NA,0,0,0,49,16,30,2,349,10,NA,57,41,58,13,32,7,30.06,29.93,12,0,10,10,0,16,0,0,"",8,182,237,NA,NA,205,365,0,4,4,NA,NA,1749,1244
2015-01-01 12:00:00,0,0,0,0,0,0,NA,0,0,0,48,29,30.12,1,90,10,NA,59,37,76,29,38,20,30.17,30.06,7,0,10,9,0,17,0,0,"",8,17,8,NA,NA,222,373,0,0,0,NA,NA,0,0
2015-01-02 12:00:00,0,0,0,0,0,0,NA,0,0,0,50,36,30.13,1,285,10,NA,61,39,79,36,41,27,30.17,30.06,6,0,10,9,0,15,0,0,"",8,32,16,NA,NA,237,381,0,0,0,NA,NA,0,0
2015-01-03 12:00:00,0,0,0,0,0,0,NA,0,0,0,52,40,30.23,1,14,9,NA,63,40,83,46,45,34,30.29,30.16,7,0,10,7,0,13,0,0,"",8,45,24,NA,NA,250,389,0,0,0,NA,NA,0,0
2015-01-04 12:00:00,0,0,0,0,0,0,NA,0,0,0,56,40,30.29,1,333,9,NA,69,42,89,27,49,32,30.35,30.25,7,0,10,6,6,9,0,0,"",8,54,32,NA,NA,259,397,0,0,0,NA,NA,0,0
2015-01-05 12:00:00,0,0,0,0,0,0,NA,0,0,0,66,29,30.19,1,13,10,NA,81,50,48,12,38,22,30.26,30.13,7,0,10,10,16,0,1,0,"",8,54,40,NA,NA,259,405,0,1,0,NA,NA,1,0
2015-01-06 12:00:00,0,0,0,0,0,0,NA,0,0,0,71,28,30.14,3,19,10,NA,84,57,32,10,35,22,30.2,30.06,7,0,10,10,20,0,6,0,"",8,54,48,NA,NA,259,413,0,7,0,NA,NA,7,0
2015-01-07 12:00:00,0,0,0,0,0,0,NA,0,0,0,69,36,30.08,1,326,10,NA,85,53,57,16,45,29,30.13,30.04,7,0,10,10,20,0,4,0,"",7,54,55,NA,NA,259,420,0,11,0,NA,NA,11,0
2015-01-08 12:00:00,0,0,0,0,0,0,NA,0,0,0,63,46,30.03,1,180,10,NA,75,51,77,29,52,39,30.07,29.99,8,0,10,5,12,2,0,0,"",7,56,62,NA,NA,261,427,0,11,0,NA,NA,11,0
2015-01-09 12:00:00,0,0,0,0,0,0,NA,0,0,0,64,51,30,1,115,6,NA,72,56,87,34,56,41,30.05,29.94,7,0,9,2,13,1,0,0,"",7,57,69,NA,NA,262,434,0,11,0,NA,NA,11,0
2015-01-10 12:00:00,0,1,0,0,0,0,NA,0,0,0,58,52,30,1,74,4,NA,63,52,93,60,56,46,30.05,29.96,6,0,8,2,8,7,0,0.48,"",7,64,76,NA,NA,269,441,0,11,0,NA,NA,11,0
2015-01-11 12:00:00,0,1,0,0,0,0,NA,0,0,0,60,55,30.02,1,81,4,NA,63,56,93,78,56,54,30.11,29.98,8,0,10,1,9,5,0,0.5,"",7,69,83,NA,NA,274,448,0,11,0,NA,NA,11,0
2015-01-12 12:00:00,0,0,0,0,0,0,NA,0,0,0,60,53,30.13,1,116,4,NA,66,53,93,63,55,51,30.2,30.08,8,0,7,2,8,5,0,0,"",7,74,90,NA,NA,279,455,0,11,0,NA,NA,11,0
2015-01-13 12:00:00,0,0,0,0,0,0,NA,0,0,0,61,52,30.09,1,305,5,NA,68,54,93,48,53,47,30.14,30.01,8,0,10,2,10,4,0,0,"",7,78,97,NA,NA,283,462,0,11,0,NA,NA,11,0
2015-01-14 12:00:00,0,0,0,0,0,0,NA,0,0,0,60,41,30.15,1,325,10,NA,73,47,80,23,50,32,30.21,30.11,9,0,10,9,10,5,0,0,"",7,83,104,NA,NA,288,469,0,11,0,NA,NA,11,0
2015-01-15 12:00:00,0,0,0,0,0,0,NA,0,0,0,64,33,30.2,2,27,10,NA,76,51,55,17,43,27,30.26,30.15,9,0,10,10,14,1,0,0,"",7,84,111,NA,NA,289,476,0,11,0,NA,NA,11,0
2015-01-16 12:00:00,0,0,0,0,0,0,NA,0,0,0,64,35,30.13,1,60,10,NA,77,50,77,16,50,26,30.18,30.08,6,0,10,10,13,1,0,0,"",7,85,118,NA,NA,290,483,0,11,0,NA,NA,11,0
2015-01-17 12:00:00,0,0,0,0,0,0,NA,0,0,0,64,38,30.15,1,316,10,NA,78,50,72,16,48,28,30.22,30.1,8,0,10,9,14,1,0,0,"",7,86,125,NA,NA,291,490,0,11,0,NA,NA,11,0
2015-01-18 12:00:00,0,0,0,0,0,0,NA,0,0,0,64,45,30.18,1,270,9,NA,75,53,86,29,53,39,30.23,30.15,7,0,10,5,13,1,0,0,"",7,87,132,NA,NA,292,497,0,11,0,NA,NA,11,0
2015-01-19 12:00:00,0,0,0,0,0,0,NA,0,0,0,61,50,30.08,0,280,5,NA,72,50,93,35,55,43,30.16,30.04,6,0,10,2,11,4,0,0,"",7,91,139,NA,NA,296,504,0,11,0,NA,NA,11,0
2015-01-20 12:00:00,1,0,0,0,0,0,NA,0,0,0,58,52,29.99,0,280,2,NA,63,53,100,72,53,51,30.05,29.92,8,0,4,0,8,7,0,0,"",7,98,146,NA,NA,303,511,0,11,0,NA,NA,11,0
2015-01-21 12:00:00,0,0,0,0,0,0,NA,0,0,0,63,50,30,1,45,4,NA,71,54,80,47,52,48,30.09,29.95,6,0,9,2,12,2,0,0,"",7,100,153,NA,NA,305,518,0,11,0,NA,NA,11,0
2015-01-22 12:00:00,0,0,0,0,0,0,NA,0,0,0,61,33,30.18,0,190,10,NA,75,47,83,12,45,17,30.24,30.1,7,0,10,7,10,4,0,0,"",7,104,160,NA,NA,309,525,0,11,0,NA,NA,11,0
2015-01-23 12:00:00,0,0,0,0,0,0,NA,0,0,0,63,25,30.18,1,334,10,NA,75,50,47,10,35,15,30.25,30.12,7,0,10,10,12,2,0,0,"",7,106,167,NA,NA,311,532,0,11,0,NA,NA,11,0
2015-01-24 12:00:00,0,0,0,0,0,0,NA,0,0,0,66,31,30.04,0,260,10,NA,82,49,48,14,37,26,30.11,29.97,8,0,10,10,16,0,1,0,"",7,106,174,NA,NA,311,539,0,12,0,NA,NA,12,0
2015-01-25 12:00:00,0,0,0,0,0,0,NA,0,0,0,66,33,30,1,310,10,NA,83,48,61,15,37,24,30.03,29.94,6,0,10,10,15,0,1,0,"",7,106,181,NA,NA,311,546,0,13,0,NA,NA,13,0
2015-01-26 12:00:00,0,1,0,0,0,0,NA,0,0,0,69,40,30.02,3,89,10,NA,80,57,75,18,53,31,30.11,29.96,10,0,10,10,18,0,4,0.08,"",7,106,188,NA,NA,311,553,0,17,0,NA,NA,17,0
2015-01-27 12:00:00,0,0,0,0,0,0,NA,0,0,0,66,52,30.15,1,24,10,NA,74,57,86,41,54,47,30.19,30.11,7,0,10,8,14,0,1,0,"",7,106,195,NA,NA,311,560,0,18,0,NA,NA,18,0
2015-01-28 12:00:00,0,0,0,0,0,0,NA,0,0,0,66,48,30.1,1,349,10,NA,75,56,77,33,52,42,30.17,30.05,6,0,10,10,14,0,1,0,"",7,106,202,NA,NA,311,567,0,19,0,NA,NA,19,0
2015-01-29 12:00:00,0,1,0,0,0,0,NA,0,0,0,68,45,30.02,1,95,10,NA,75,60,60,29,52,40,30.06,29.97,6,0,10,8,17,0,3,NA,"",7,106,209,NA,NA,311,574,0,22,0,NA,NA,22,0
2015-01-30 12:00:00,0,1,0,0,0,0,NA,0,0,0,65,52,29.89,1,77,9,NA,70,59,87,44,55,47,29.98,29.83,10,0,10,3,14,0,0,0.03,"",7,106,216,NA,NA,311,581,0,22,0,NA,NA,22,0
2015-01-31 12:00:00,0,0,0,0,0,0,NA,0,0,0,64,54,29.88,1,82,8,NA,71,56,87,53,55,51,30,29.83,8,0,10,7,14,1,0,0,"",7,107,223,NA,NA,312,591,0,22,9,NA,NA,22,9
2015-02-01 12:00:00,0,0,0,0,0,0,NA,0,0,0,63,48,30.06,1,180,8,NA,76,49,89,31,52,42,30.12,30,8,0,10,4,12,2,0,0,"",7,2,7,NA,NA,314,598,0,0,0,NA,NA,22,9
2015-02-02 12:00:00,0,0,0,0,0,0,NA,0,0,0,65,46,30.05,1,280,9,NA,78,51,86,23,53,35,30.09,29.99,7,0,10,6,15,0,0,0,"",7,2,14,NA,NA,314,605,0,0,0,NA,NA,22,9
2015-02-03 12:00:00,1,0,0,0,0,0,NA,0,0,0,62,53,30.06,1,270,3,NA,72,51,100,51,55,48,30.09,30,6,0,8,0,11,3,0,0,"",7,5,21,NA,NA,317,612,0,0,0,NA,NA,22,9
2015-02-04 12:00:00,0,0,0,0,0,0,NA,0,0,0,64,53,30.09,1,325,2,NA,72,56,93,49,55,50,30.13,30.04,6,0,3,1,13,1,0,0,"",7,6,28,NA,NA,318,619,0,0,0,NA,NA,22,9
2015-02-05 12:00:00,1,0,0,0,0,0,NA,0,0,0,68,52,30.05,1,280,3,NA,82,53,100,25,55,41,30.1,29.97,9,0,6,0,17,0,3,0,"",7,6,35,NA,NA,318,626,0,3,0,NA,NA,25,9
2015-02-06 12:00:00,0,0,0,0,0,0,NA,0,0,0,65,52,30.09,2,100,3,NA,75,54,93,31,55,41,30.16,30.06,8,0,10,1,14,0,0,0,"",7,6,42,NA,NA,318,633,0,3,0,NA,NA,25,9
2015-02-07 12:00:00,0,1,0,0,0,0,NA,0,0,0,62,54,30.14,1,7,7,NA,69,54,93,49,58,46,30.18,30.12,8,0,10,3,11,3,0,0.02,"",7,9,49,NA,NA,321,640,0,3,0,NA,NA,25,9
2015-02-08 12:00:00,1,0,0,0,0,0,NA,0,0,0,68,58,30.13,1,282,7,NA,77,59,90,50,58,56,30.17,30.06,9,0,10,0,18,0,3,0,"",7,9,56,NA,NA,321,647,0,6,0,NA,NA,28,9
2015-02-09 12:00:00,1,0,0,0,0,0,NA,0,0,0,66,56,30.11,2,192,5,NA,73,58,93,44,59,47,30.16,30.02,9,0,10,0,15,0,1,0,"",7,9,63,NA,NA,321,654,0,7,0,NA,NA,29,9
2015-02-10 12:00:00,0,0,0,0,0,0,NA,0,0,0,66,46,29.95,0,325,10,NA,78,53,80,27,52,41,30.01,29.88,7,0,10,10,16,0,1,0,"",7,9,70,NA,NA,321,661,0,8,0,NA,NA,30,9
2015-02-11 12:00:00,0,0,0,0,0,0,NA,0,0,0,70,31,30.01,1,7,10,NA,85,55,51,10,37,21,30.07,29.95,6,0,10,10,20,0,5,0,"",7,9,77,NA,NA,321,668,0,13,0,NA,NA,35,9
2015-02-12 12:00:00,0,0,0,0,0,0,NA,0,0,0,71,27,30.06,1,325,10,NA,85,56,33,10,33,21,30.12,30.01,9,0,10,10,20,0,6,0,"",7,9,84,NA,NA,321,675,0,19,0,NA,NA,41,9
2015-02-13 12:00:00,0,0,0,0,0,0,NA,0,0,0,73,33,30.02,2,15,10,NA,88,57,48,9,46,21,30.07,29.96,9,0,10,10,22,0,8,0,"",7,9,91,NA,NA,321,682,0,27,0,NA,NA,49,9
2015-02-14 12:00:00,0,0,0,0,0,0,NA,0,0,0,71,35,30.02,1,83,10,NA,86,56,51,12,43,26,30.07,29.96,9,0,10,10,20,0,6,0,"",7,9,98,NA,NA,321,689,1,33,1,NA,NA,55,10
2015-02-15 12:00:00,0,0,0,0,0,0,NA,0,0,0,67,46,29.96,1,190,9,NA,80,54,87,21,56,34,30,29.89,8,0,10,4,16,0,2,0,"",7,9,105,NA,NA,321,696,1,35,2,NA,NA,57,11
2015-02-16 12:00:00,0,0,0,0,0,0,NA,0,0,0,63,54,29.99,1,100,5,NA,70,56,93,59,55,53,30.03,29.95,7,0,10,2,12,2,0,0,"",7,11,112,NA,NA,323,703,1,35,3,NA,NA,57,12
2015-02-17 12:00:00,0,0,0,0,0,0,NA,0,0,0,64,52,30.08,1,242,6,NA,71,57,86,53,53,51,30.13,30.04,8,0,10,4,14,1,0,0,"",7,12,119,NA,NA,324,710,1,35,4,NA,NA,57,13
2015-02-18 12:00:00,0,0,0,0,0,0,NA,0,0,0,65,54,30.11,1,285,4,NA,75,55,93,46,55,51,30.16,30.04,9,0,6,2,14,0,0,0,"",7,12,126,NA,NA,324,717,1,35,5,NA,NA,57,14
2015-02-19 12:00:00,0,0,0,0,0,0,NA,0,0,0,65,54,30.07,1,290,3,NA,72,57,93,53,55,53,30.12,30.01,7,0,5,2,14,0,0,0,"",6,12,132,NA,NA,324,723,1,35,6,NA,NA,57,15
2015-02-20 12:00:00,0,0,0,0,0,0,NA,0,0,0,63,52,29.99,1,182,5,NA,70,56,93,47,54,49,30.03,29.91,9,0,10,2,12,2,0,0,"",6,14,138,NA,NA,326,729,1,35,7,NA,NA,57,16
2015-02-21 12:00:00,0,0,0,0,0,0,NA,0,0,0,63,50,29.93,2,119,9,NA,69,57,80,48,52,47,30,29.87,9,0,10,5,12,2,0,0,"",6,16,144,NA,NA,328,735,1,35,8,NA,NA,57,17
2015-02-22 12:00:00,1,1,0,0,0,0,NA,0,0,0,59,51,29.85,2,72,7,NA,64,53,93,56,54,47,29.91,29.83,9,0,10,0,8,6,0,0.7,"",6,22,150,NA,NA,334,741,1,35,9,NA,NA,57,18
2015-02-23 12:00:00,0,0,0,0,0,0,NA,0,0,0,58,46,30,2,92,10,NA,65,50,93,48,51,41,30.17,29.86,9,0,10,8,7,7,0,NA,"",6,29,156,NA,NA,341,747,1,35,10,NA,NA,57,19
2015-02-24 12:00:00,0,0,0,0,0,0,NA,0,0,0,60,35,30.18,3,328,10,NA,74,46,82,13,43,20,30.23,30.12,12,0,10,10,10,5,0,0,"",6,34,162,NA,NA,346,753,1,35,11,NA,NA,57,20
2015-02-25 12:00:00,0,0,0,0,0,0,NA,0,0,0,62,42,30.11,1,20,10,NA,72,51,61,35,52,35,30.21,30.01,8,0,10,6,11,3,0,0,"",6,37,168,NA,NA,349,759,1,35,12,NA,NA,57,21
2015-02-26 12:00:00,0,0,0,0,0,0,NA,0,0,0,61,49,29.9,1,285,9,NA,70,51,80,52,53,46,30.01,29.84,5,0,10,6,12,4,0,0,"",6,41,174,NA,NA,353,765,1,35,13,NA,NA,57,22
2015-02-27 12:00:00,0,0,0,0,0,0,NA,0,0,0,61,52,29.81,2,112,9,NA,66,55,78,56,53,49,29.87,29.74,6,0,10,7,10,4,0,0,"",6,45,180,NA,NA,357,771,1,35,14,NA,NA,57,23
2015-02-28 12:00:00,0,1,0,0,0,0,NA,0,0,0,59,47,29.83,1,295,9,NA,65,52,83,44,50,43,29.92,29.75,9,0,10,2,8,6,0,0.11,"",6,51,186,NA,NA,363,775,1,35,14,NA,NA,57,23
2015-03-01 12:00:00,0,1,0,0,0,0,NA,0,0,0,58,47,29.93,3,66,7,NA,65,50,93,52,49,44,29.96,29.88,12,0,10,2,6,7,0,0.66,"",6,7,6,NA,NA,370,781,1,0,1,NA,NA,57,24
2015-03-02 12:00:00,0,1,0,0,0,0,NA,0,0,0,56,46,29.93,2,71,9,NA,63,49,93,48,48,41,29.98,29.88,9,0,10,1,5,9,0,0.21,"",6,16,12,NA,NA,379,787,1,0,2,NA,NA,57,25
2015-03-03 12:00:00,0,0,0,0,0,0,NA,0,0,0,58,44,29.93,2,10,10,NA,67,48,80,37,49,37,29.97,29.88,10,0,10,10,6,7,0,0,"",6,23,18,NA,NA,386,793,1,0,3,NA,NA,57,26
2015-03-04 12:00:00,0,0,0,0,0,0,NA,0,0,0,60,41,30.06,2,293,10,NA,72,48,77,27,48,35,30.16,29.97,9,0,10,10,10,5,0,0,"",6,28,24,NA,NA,391,799,1,0,4,NA,NA,57,27
2015-03-05 12:00:00,0,0,0,0,0,0,NA,0,0,0,64,29,30.19,2,321,10,NA,77,51,59,13,39,21,30.27,30.15,9,0,10,10,14,1,0,0,"",5,29,29,NA,NA,392,804,1,0,5,NA,NA,57,28
2015-03-06 12:00:00,0,0,0,0,0,0,NA,0,0,0,66,30,30.06,1,55,10,NA,83,49,50,10,36,20,30.15,29.97,6,0,10,10,16,0,1,0,"",5,29,34,NA,NA,392,809,0,1,5,NA,NA,58,28
2015-03-07 12:00:00,0,0,0,0,0,0,NA,0,0,0,70,33,29.97,1,302,10,NA,86,54,60,10,48,20,30.01,29.91,12,0,10,10,20,0,5,0,"",5,29,39,NA,NA,392,814,0,6,5,NA,NA,63,28
2015-03-08 12:00:00,0,0,0,0,0,0,NA,0,0,0,66,47,29.98,1,110,10,NA,78,53,93,25,56,34,30.02,29.93,10,0,10,6,16,0,1,0,"",5,29,44,NA,NA,392,819,0,7,5,NA,NA,64,28
2015-03-09 12:00:00,0,0,0,0,0,0,NA,0,0,0,65,54,29.95,1,280,5,NA,73,57,93,49,56,51,30.01,29.86,8,0,8,3,15,0,0,0,"",5,29,49,NA,NA,392,824,1,7,6,NA,NA,64,29
2015-03-10 12:00:00,0,0,0,0,0,0,NA,0,0,0,68,54,29.95,2,352,4,NA,80,55,93,32,57,46,30.01,29.91,8,0,8,2,17,0,3,0,"",5,29,54,NA,NA,392,829,1,10,7,NA,NA,67,30
2015-03-11 12:00:00,0,0,0,0,0,0,NA,0,0,0,67,53,30.05,1,320,6,NA,73,60,90,31,59,40,30.1,29.99,6,0,10,4,16,0,2,NA,"",5,29,59,NA,NA,392,834,1,12,8,NA,NA,69,31
2015-03-12 12:00:00,0,0,0,0,0,0,NA,0,0,0,71,45,30.01,1,205,10,NA,86,56,67,23,47,43,30.07,29.93,7,0,10,10,20,0,6,0,"",5,29,64,NA,NA,392,839,1,18,9,NA,NA,75,32
2015-03-13 12:00:00,0,0,0,0,0,0,NA,0,0,0,76,42,30.01,1,285,10,NA,90,61,52,17,49,37,30.06,29.96,8,0,10,10,24,0,11,0,"",5,29,69,NA,NA,392,844,1,29,10,NA,NA,86,33
2015-03-14 12:00:00,0,0,0,0,0,0,NA,0,0,0,78,38,30.01,1,105,10,NA,93,62,49,13,49,34,30.07,29.96,9,0,10,10,27,0,13,0,"",5,29,74,NA,NA,392,849,1,42,11,NA,NA,99,34
2015-03-15 12:00:00,0,0,0,0,0,0,NA,0,0,0,79,40,29.98,1,285,10,NA,92,66,42,15,44,36,30.05,29.91,9,0,10,10,28,0,14,0,"",5,29,79,NA,NA,392,854,1,56,12,NA,NA,113,35
2015-03-16 12:00:00,0,0,0,0,0,0,NA,0,0,0,78,42,29.9,1,110,10,NA,90,66,52,13,48,32,29.94,29.86,8,0,10,10,29,0,13,0,"",5,29,84,NA,NA,392,859,1,69,13,NA,NA,126,36
2015-03-17 12:00:00,0,0,0,0,0,0,NA,0,0,0,73,50,29.92,1,126,10,NA,82,63,73,23,57,40,29.96,29.89,9,0,10,9,22,0,8,0,"",5,29,89,NA,NA,392,864,1,77,14,NA,NA,134,37
2015-03-18 12:00:00,0,1,0,0,0,0,NA,0,0,0,69,57,29.96,3,116,10,NA,75,62,84,49,59,54,30.01,29.92,9,0,10,7,18,0,4,NA,"",5,29,94,NA,NA,392,869,1,81,15,NA,NA,138,38
2015-03-19 12:00:00,0,0,0,0,0,0,NA,0,0,0,68,56,29.99,2,154,8,NA,76,60,90,50,58,54,30.04,29.94,9,0,10,6,18,0,3,0,"",5,29,99,NA,NA,392,874,1,84,16,NA,NA,141,39
2015-03-20 12:00:00,0,0,0,0,0,0,NA,0,0,0,69,57,30.05,2,277,5,NA,78,59,90,47,59,56,30.08,30.01,10,0,9,3,18,0,4,0,"",5,29,104,NA,NA,392,879,1,88,17,NA,NA,145,40
2015-03-21 12:00:00,0,0,0,0,0,0,NA,0,0,0,69,57,30.1,2,270,6,NA,75,62,90,53,59,55,30.14,30.06,9,0,10,4,18,0,4,0,"",5,29,109,NA,NA,392,884,1,92,18,NA,NA,149,41
2015-03-22 12:00:00,0,0,0,0,0,0,NA,0,0,0,66,54,30.15,1,270,10,NA,72,59,84,53,56,52,30.19,30.12,10,0,10,7,15,0,1,0,"",5,29,114,NA,NA,392,889,1,93,19,NA,NA,150,42
2015-03-23 12:00:00,0,0,0,0,0,0,NA,0,0,0,65,53,30.13,2,128,10,NA,73,57,93,44,56,46,30.17,30.07,12,0,10,9,14,0,0,0,"",5,29,119,NA,NA,392,894,1,93,20,NA,NA,150,43
2015-03-24 12:00:00,0,0,0,0,0,0,NA,0,0,0,67,49,30.04,3,99,10,NA,75,58,80,27,54,36,30.1,29.96,14,0,10,9,15,0,2,0,"",5,29,124,NA,NA,392,899,1,95,21,NA,NA,152,44
2015-03-25 12:00:00,0,0,0,0,0,0,NA,0,0,0,72,52,30.02,1,247,10,NA,84,60,90,28,57,46,30.07,29.99,9,0,10,10,21,0,7,0,"",5,29,129,NA,NA,392,904,1,102,22,NA,NA,159,45
2015-03-26 12:00:00,0,0,0,0,0,0,NA,0,0,0,77,41,30.03,1,280,10,NA,92,61,65,11,51,30,30.08,29.98,10,0,10,7,26,0,12,0,"",5,29,134,NA,NA,392,909,1,114,23,NA,NA,171,46
2015-03-27 12:00:00,0,0,0,0,0,0,NA,0,0,0,77,46,30.03,2,330,10,NA,91,62,78,19,57,39,30.07,29.98,9,0,10,10,26,0,12,0,"",5,29,139,NA,NA,392,914,1,126,24,NA,NA,183,47
2015-03-28 12:00:00,0,0,0,0,0,0,NA,0,0,0,71,57,30.04,1,113,7,NA,81,61,90,42,59,54,30.07,29.98,8,0,10,3,20,0,6,0,"",5,29,144,NA,NA,392,919,1,132,25,NA,NA,189,48
2015-03-29 12:00:00,1,0,0,0,0,0,NA,0,0,0,67,57,30.02,2,214,5,NA,78,56,100,50,58,54,30.06,29.96,7,0,10,0,15,0,2,0,"",5,29,149,NA,NA,392,924,1,134,26,NA,NA,191,49
2015-03-30 12:00:00,0,0,0,0,0,0,NA,0,0,0,68,56,30,1,290,5,NA,78,57,93,50,57,54,30.03,29.95,9,0,10,2,17,0,3,0,"",5,29,154,NA,NA,392,929,1,137,27,NA,NA,194,50
2015-03-31 12:00:00,0,0,0,0,0,0,NA,0,0,0,65,55,29.98,1,275,5,NA,73,57,93,57,56,54,30.02,29.93,8,0,10,2,14,0,0,0,"",5,29,159,NA,NA,392,932,1,137,20,NA,NA,194,43
2015-04-01 12:00:00,0,0,0,0,0,0,NA,0,0,0,66,52,29.96,2,121,9,NA,74,58,84,38,56,47,30.01,29.9,10,0,10,8,16,0,1,0,"",4,0,4,NA,NA,392,936,1,1,1,NA,NA,195,44
2015-04-02 12:00:00,0,0,0,0,0,0,NA,0,0,0,65,47,29.98,2,270,10,NA,75,54,83,33,51,40,30.02,29.93,12,0,10,5,14,0,0,0,"",4,0,8,NA,NA,392,940,1,1,2,NA,NA,195,45
2015-04-03 12:00:00,0,0,0,0,0,0,NA,0,0,0,72,31,30,2,345,10,NA,86,57,77,10,51,22,30.05,29.95,10,0,10,10,20,0,7,0,"",4,0,12,NA,NA,392,944,1,8,3,NA,NA,202,46
2015-04-04 12:00:00,0,0,0,0,0,0,NA,0,0,0,72,34,29.9,2,20,10,NA,84,59,67,13,52,25,29.96,29.86,9,0,10,10,21,0,7,0,"",4,0,16,NA,NA,392,948,1,15,4,NA,NA,209,47
2015-04-05 12:00:00,0,0,0,0,0,0,NA,0,0,0,64,50,29.87,2,104,10,NA,71,57,80,40,52,45,29.91,29.83,9,0,10,8,14,1,0,0,"",4,1,20,NA,NA,393,952,1,15,5,NA,NA,209,48
2015-04-06 12:00:00,0,0,0,0,0,0,NA,0,0,0,60,43,29.94,2,230,10,NA,67,53,86,31,51,34,30,29.88,9,0,10,10,10,5,0,0,"",4,6,24,NA,NA,398,956,1,15,6,NA,NA,209,49
2015-04-07 12:00:00,0,1,0,0,0,0,NA,0,0,0,59,48,30.01,2,67,8,NA,67,51,93,43,54,37,30.06,29.98,9,0,10,1,8,6,0,0.13,"",4,12,28,NA,NA,404,960,1,15,7,NA,NA,209,50
2015-04-08 12:00:00,0,0,0,0,0,0,NA,0,0,0,60,42,30.02,2,305,10,NA,70,49,86,26,47,33,30.09,29.96,13,0,10,10,9,5,0,0,"",4,17,32,NA,NA,409,964,1,15,8,NA,NA,209,51
2015-04-09 12:00:00,0,0,0,0,0,0,NA,0,0,0,65,44,29.95,2,261,10,NA,76,53,86,25,54,37,29.98,29.9,10,0,10,10,14,0,0,0,"",4,17,36,NA,NA,409,968,1,15,9,NA,NA,209,52
2015-04-10 12:00:00,0,0,0,0,0,0,NA,0,0,0,63,50,29.98,2,275,9,NA,71,54,93,41,53,45,30.02,29.95,10,0,10,6,12,2,0,0,"",4,19,40,NA,NA,411,972,1,15,10,NA,NA,209,53
2015-04-11 12:00:00,0,0,0,0,0,0,NA,0,0,0,63,49,29.93,2,280,10,NA,72,53,83,40,52,45,29.99,29.87,10,0,10,7,12,2,0,0,"",4,21,44,NA,NA,413,976,1,15,11,NA,NA,209,54
2015-04-12 12:00:00,0,0,0,0,0,0,NA,0,0,0,67,54,29.94,2,195,10,NA,77,57,90,46,58,49,30.03,29.9,9,0,10,10,16,0,2,0,"",4,21,48,NA,NA,413,980,1,17,12,NA,NA,211,55
2015-04-13 12:00:00,0,0,0,0,0,0,NA,0,0,0,67,55,30.05,2,277,8,NA,75,58,90,53,57,54,30.09,30.02,10,0,10,3,16,0,2,0,"",3,21,51,NA,NA,413,983,1,19,13,NA,NA,213,56
2015-04-14 12:00:00,0,0,0,0,0,0,NA,0,0,0,66,52,30.04,2,299,7,NA,73,58,86,24,54,28,30.1,29.94,10,0,10,3,14,0,1,0,"",3,21,54,NA,NA,413,986,1,20,14,NA,NA,214,57
2015-04-15 12:00:00,0,0,0,0,0,0,NA,0,0,0,69,45,29.93,1,5,10,NA,80,57,77,19,54,32,29.98,29.87,9,0,10,8,18,0,4,0,"",3,21,57,NA,NA,413,989,1,24,15,NA,NA,218,58
2015-04-16 12:00:00,0,0,0,0,0,0,NA,0,0,0,68,30,29.97,2,280,10,NA,81,54,55,10,42,20,30.03,29.92,13,0,10,7,18,0,3,0,"",3,21,60,NA,NA,413,992,1,27,16,NA,NA,221,59
2015-04-17 12:00:00,0,0,0,0,0,0,NA,0,0,0,69,33,30,2,297,10,NA,81,56,52,15,44,25,30.04,29.94,14,0,10,10,18,0,4,0,"",3,21,63,NA,NA,413,995,1,31,17,NA,NA,225,60
2015-04-18 12:00:00,0,0,0,0,0,0,NA,0,0,0,69,45,29.97,2,253,10,NA,81,56,72,26,53,36,30.02,29.91,9,0,10,9,18,0,4,0,"",3,21,66,NA,NA,413,998,2,35,19,NA,NA,229,62
2015-04-19 12:00:00,0,0,0,0,0,0,NA,0,0,0,65,52,29.91,2,273,9,NA,75,55,86,49,54,50,29.97,29.85,9,0,10,5,14,0,0,0,"",3,21,69,NA,NA,413,1001,2,35,21,NA,NA,229,64
